<?xml version="1.0" encoding="UTF-8"?>
<gpx xmlns="http://www.topografix.com/GPX/1/1" xmlns:xsi="http://www.w3.org/2001/XMLSchema-instance" xsi:schemaLocation="http://www.topografix.com/GPX/1/1 http://www.topografix.com/GPX/1/1/gpx.xsd" version="1.1" creator="gpx.py -- https://github.com/tkrajina/gpxpy">
  <metadata>
    <name>Route Sculptor Demo: star</name>
    <desc></desc>
  </metadata>
  <trk>
    <name>Route Sculptor Demo: star</name>
    <trkseg>
      <trkpt lat="37.74403323116198" lon="-122.41590736733967">
      </trkpt>
      <trkpt lat="37.74501089153923" lon="-122.41865735601769">
      </trkpt>
      <trkpt lat="37.74593903362068" lon="-122.42142510556067">
      </trkpt>
      <trkpt lat="37.746882873278956" lon="-122.4241872248101">
      </trkpt>
      <trkpt lat="37.74784483607939" lon="-122.42694284378169">
      </trkpt>
      <trkpt lat="37.74873394532872" lon="-122.42972459333922">
      </trkpt>
      <trkpt lat="37.74962305457805" lon="-122.43250634289676">
      </trkpt>
      <trkpt lat="37.75062683675841" lon="-122.43524696239493">
      </trkpt>
      <trkpt lat="37.74924726718574" lon="-122.43784103754145">
      </trkpt>
      <trkpt lat="37.74760947294863" lon="-122.44034822173451">
      </trkpt>
      <trkpt lat="37.74597167871151" lon="-122.44285540592759">
      </trkpt>
      <trkpt lat="37.744280087334694" lon="-122.44534448772609">
      </trkpt>
      <trkpt lat="37.74256009689104" lon="-122.44782401341965">
      </trkpt>
      <trkpt lat="37.740922302653935" lon="-122.45033119761271">
      </trkpt>
      <trkpt lat="37.741967451148305" lon="-122.4513003785103">
      </trkpt>
      <trkpt lat="37.744945144831895" lon="-122.45118233804948">
      </trkpt>
      <trkpt lat="37.7478727579545" lon="-122.45095654890274">
      </trkpt>
      <trkpt lat="37.75080037107709" lon="-122.450730759756">
      </trkpt>
      <trkpt lat="37.75377806476069" lon="-122.45061271929518">
      </trkpt>
      <trkpt lat="37.75670567788328" lon="-122.45038693014844">
      </trkpt>
      <trkpt lat="37.758173424104" lon="-122.45285008301019">
      </trkpt>
      <trkpt lat="37.75944528523345" lon="-122.4554945498855">
      </trkpt>
      <trkpt lat="37.760815136663005" lon="-122.45810387030711">
      </trkpt>
      <trkpt lat="37.76211659145238" lon="-122.46073772274205">
      </trkpt>
      <trkpt lat="37.763388452581815" lon="-122.46338218961735">
      </trkpt>
      <trkpt lat="37.76466484695733" lon="-122.46602503054065">
      </trkpt>
      <trkpt lat="37.76605975880073" lon="-122.46862390853651">
      </trkpt>
      <trkpt lat="37.76660960626778" lon="-122.46575063719082">
      </trkpt>
      <trkpt lat="37.76712020894632" lon="-122.46286416022397">
      </trkpt>
      <trkpt lat="37.76765073055185" lon="-122.45998438584907">
      </trkpt>
      <trkpt lat="37.76818125215739" lon="-122.45710461147416">
      </trkpt>
      <trkpt lat="37.768673002789726" lon="-122.45421179091394">
      </trkpt>
      <trkpt lat="37.76915780210843" lon="-122.45131663128099">
      </trkpt>
      <trkpt lat="37.76968832371397" lon="-122.4484368569061">
      </trkpt>
      <trkpt lat="37.77224767794213" lon="-122.44751244590319">
      </trkpt>
      <trkpt lat="37.774922396291686" lon="-122.4467425518397">
      </trkpt>
      <trkpt lat="37.77759711464124" lon="-122.44597265777622">
      </trkpt>
      <trkpt lat="37.78031495000868" lon="-122.44529553028572">
      </trkpt>
      <trkpt lat="37.78299216032633" lon="-122.44453099770946">
      </trkpt>
      <trkpt lat="37.78568501447491" lon="-122.44380012294754">
      </trkpt>
      <trkpt lat="37.78373023683568" lon="-122.44190029460513">
      </trkpt>
      <trkpt lat="37.78149481827767" lon="-122.4401309054837">
      </trkpt>
      <trkpt lat="37.77925939971967" lon="-122.43836151636225">
      </trkpt>
      <trkpt lat="37.776985911583395" lon="-122.43666768162767">
      </trkpt>
      <trkpt lat="37.7747574067288" lon="-122.4348845712977">
      </trkpt>
      <trkpt lat="37.77252890187421" lon="-122.43310146096772">
      </trkpt>
      <trkpt lat="37.77143475930853" lon="-122.43065928194764">
      </trkpt>
      <trkpt lat="37.7715428146139" lon="-122.4276373503559">
      </trkpt>
      <trkpt lat="37.77165086991929" lon="-122.42461541876415">
      </trkpt>
      <trkpt lat="37.77175892522467" lon="-122.4215934871724">
      </trkpt>
      <trkpt lat="37.771881011826565" lon="-122.41857627702248">
      </trkpt>
      <trkpt lat="37.772059529095465" lon="-122.41557805543228">
      </trkpt>
      <trkpt lat="37.77216758440085" lon="-122.41255612384053">
      </trkpt>
      <trkpt lat="37.77112598642061" lon="-122.41212686630264">
      </trkpt>
      <trkpt lat="37.769088715920994" lon="-122.41426823398399">
      </trkpt>
      <trkpt lat="37.76705144542138" lon="-122.41640960166532">
      </trkpt>
      <trkpt lat="37.76501417492177" lon="-122.41855096934667">
      </trkpt>
      <trkpt lat="37.763040649207156" lon="-122.42082948438978">
      </trkpt>
      <trkpt lat="37.76100337870754" lon="-122.42297085207113">
      </trkpt>
      <trkpt lat="37.75871341670641" lon="-122.4236974422171">
      </trkpt>
      <trkpt lat="37.75622764507339" lon="-122.42242491368461">
      </trkpt>
      <trkpt lat="37.753807905863816" lon="-122.4210213345996">
      </trkpt>
      <trkpt lat="37.75132442186924" lon="-122.41974426592958">
      </trkpt>
      <trkpt lat="37.74890468265966" lon="-122.41834068684459">
      </trkpt>
      <trkpt lat="37.74643062634147" lon="-122.41704490763611">
      </trkpt>
    </trkseg>
  </trk>
</gpx>