<?xml version="1.0" encoding="UTF-8"?>
<gpx xmlns="http://www.topografix.com/GPX/1/1" xmlns:xsi="http://www.w3.org/2001/XMLSchema-instance" xsi:schemaLocation="http://www.topografix.com/GPX/1/1 http://www.topografix.com/GPX/1/1/gpx.xsd" version="1.1" creator="gpx.py -- https://github.com/tkrajina/gpxpy">
  <metadata>
    <name>Route Sculptor: cat</name>
    <desc></desc>
  </metadata>
  <trk>
    <name>Route Sculptor: cat</name>
    <trkseg>
      <trkpt lat="37.7435617" lon="-122.466069">
      </trkpt>
      <trkpt lat="37.7435768" lon="-122.4658875">
      </trkpt>
      <trkpt lat="37.7435617" lon="-122.466069">
      </trkpt>
      <trkpt lat="37.7442903" lon="-122.4661642">
      </trkpt>
      <trkpt lat="37.7444651" lon="-122.4641939">
      </trkpt>
      <trkpt lat="37.7451373" lon="-122.4646391">
      </trkpt>
      <trkpt lat="37.745912" lon="-122.463572">
      </trkpt>
      <trkpt lat="37.746404" lon="-122.464177">
      </trkpt>
      <trkpt lat="37.7466069" lon="-122.4638401">
      </trkpt>
      <trkpt lat="37.746676" lon="-122.463604">
      </trkpt>
      <trkpt lat="37.747777" lon="-122.462333">
      </trkpt>
      <trkpt lat="37.7473251" lon="-122.461856">
      </trkpt>
      <trkpt lat="37.7480829" lon="-122.4608398">
      </trkpt>
      <trkpt lat="37.7484224" lon="-122.460761">
      </trkpt>
      <trkpt lat="37.7489861" lon="-122.461134">
      </trkpt>
      <trkpt lat="37.748695" lon="-122.460051">
      </trkpt>
      <trkpt lat="37.7489255" lon="-122.4596927">
      </trkpt>
      <trkpt lat="37.7489787" lon="-122.4596096">
      </trkpt>
      <trkpt lat="37.7506047" lon="-122.460855">
      </trkpt>
      <trkpt lat="37.7510464" lon="-122.4610975">
      </trkpt>
      <trkpt lat="37.7516337" lon="-122.4612021">
      </trkpt>
      <trkpt lat="37.7515183" lon="-122.4563877">
      </trkpt>
      <trkpt lat="37.7515215" lon="-122.4566652">
      </trkpt>
      <trkpt lat="37.7517542" lon="-122.461157">
      </trkpt>
      <trkpt lat="37.7514883" lon="-122.4615415">
      </trkpt>
      <trkpt lat="37.7514212" lon="-122.4616168">
      </trkpt>
      <trkpt lat="37.7513657" lon="-122.4615579">
      </trkpt>
      <trkpt lat="37.7514285" lon="-122.4614769">
      </trkpt>
      <trkpt lat="37.7516337" lon="-122.4612021">
      </trkpt>
      <trkpt lat="37.7515183" lon="-122.4563877">
      </trkpt>
      <trkpt lat="37.7522245" lon="-122.4559723">
      </trkpt>
      <trkpt lat="37.752518" lon="-122.4559941">
      </trkpt>
      <trkpt lat="37.7538032" lon="-122.4554934">
      </trkpt>
      <trkpt lat="37.7551096" lon="-122.4549927">
      </trkpt>
      <trkpt lat="37.7551371" lon="-122.4550947">
      </trkpt>
      <trkpt lat="37.7552863" lon="-122.455566">
      </trkpt>
      <trkpt lat="37.7554542" lon="-122.4562821">
      </trkpt>
      <trkpt lat="37.7541681" lon="-122.459645">
      </trkpt>
      <trkpt lat="37.7537458" lon="-122.4601849">
      </trkpt>
      <trkpt lat="37.7544951" lon="-122.461245">
      </trkpt>
      <trkpt lat="37.7550306" lon="-122.46056">
      </trkpt>
      <trkpt lat="37.756785" lon="-122.4604494">
      </trkpt>
      <trkpt lat="37.7550306" lon="-122.46056">
      </trkpt>
      <trkpt lat="37.7559353" lon="-122.459576">
      </trkpt>
      <trkpt lat="37.7589696" lon="-122.4594344">
      </trkpt>
      <trkpt lat="37.7589382" lon="-122.459549">
      </trkpt>
      <trkpt lat="37.7589696" lon="-122.4594344">
      </trkpt>
      <trkpt lat="37.7591287" lon="-122.4594763">
      </trkpt>
      <trkpt lat="37.7589696" lon="-122.4594344">
      </trkpt>
      <trkpt lat="37.7559353" lon="-122.459576">
      </trkpt>
      <trkpt lat="37.7550306" lon="-122.46056">
      </trkpt>
      <trkpt lat="37.7544951" lon="-122.461245">
      </trkpt>
      <trkpt lat="37.7586084" lon="-122.463229">
      </trkpt>
      <trkpt lat="37.7604599" lon="-122.4628599">
      </trkpt>
      <trkpt lat="37.760512" lon="-122.461794">
      </trkpt>
      <trkpt lat="37.7623733" lon="-122.4619224">
      </trkpt>
      <trkpt lat="37.7626475" lon="-122.4608618">
      </trkpt>
      <trkpt lat="37.7629566" lon="-122.4597697">
      </trkpt>
      <trkpt lat="37.7638254" lon="-122.4567035">
      </trkpt>
      <trkpt lat="37.7640042" lon="-122.4560727">
      </trkpt>
      <trkpt lat="37.7640802" lon="-122.4558043">
      </trkpt>
      <trkpt lat="37.7643085" lon="-122.4542397">
      </trkpt>
      <trkpt lat="37.7627054" lon="-122.4540336">
      </trkpt>
      <trkpt lat="37.7631972" lon="-122.4549575">
      </trkpt>
      <trkpt lat="37.760674" lon="-122.455082">
      </trkpt>
      <trkpt lat="37.7631972" lon="-122.4549575">
      </trkpt>
      <trkpt lat="37.7627054" lon="-122.4540336">
      </trkpt>
      <trkpt lat="37.7643085" lon="-122.4542397">
      </trkpt>
      <trkpt lat="37.7640802" lon="-122.4558043">
      </trkpt>
      <trkpt lat="37.7640042" lon="-122.4560727">
      </trkpt>
      <trkpt lat="37.7627909" lon="-122.4563373">
      </trkpt>
      <trkpt lat="37.7627932" lon="-122.4578116">
      </trkpt>
      <trkpt lat="37.7627909" lon="-122.4563373">
      </trkpt>
      <trkpt lat="37.7640042" lon="-122.4560727">
      </trkpt>
      <trkpt lat="37.7638254" lon="-122.4567035">
      </trkpt>
      <trkpt lat="37.7649421" lon="-122.4567715">
      </trkpt>
      <trkpt lat="37.7647324" lon="-122.4576891">
      </trkpt>
      <trkpt lat="37.7643803" lon="-122.4588362">
      </trkpt>
      <trkpt lat="37.7653098" lon="-122.4589">
      </trkpt>
      <trkpt lat="37.7652645" lon="-122.459972">
      </trkpt>
      <trkpt lat="37.7661036" lon="-122.4600199">
      </trkpt>
      <trkpt lat="37.7662" lon="-122.4594813">
      </trkpt>
      <trkpt lat="37.7662229" lon="-122.458964">
      </trkpt>
      <trkpt lat="37.7662932" lon="-122.4589689">
      </trkpt>
      <trkpt lat="37.7663504" lon="-122.4598808">
      </trkpt>
      <trkpt lat="37.7666228" lon="-122.4596088">
      </trkpt>
      <trkpt lat="37.7670463" lon="-122.4590451">
      </trkpt>
      <trkpt lat="37.7671653" lon="-122.4586878">
      </trkpt>
      <trkpt lat="37.7671898" lon="-122.458613">
      </trkpt>
      <trkpt lat="37.7672529" lon="-122.4586511">
      </trkpt>
      <trkpt lat="37.7673963" lon="-122.4590782">
      </trkpt>
      <trkpt lat="37.7674525" lon="-122.4606944">
      </trkpt>
      <trkpt lat="37.7703799" lon="-122.4603051">
      </trkpt>
      <trkpt lat="37.7674525" lon="-122.4606944">
      </trkpt>
      <trkpt lat="37.7673963" lon="-122.4590782">
      </trkpt>
      <trkpt lat="37.7672306" lon="-122.458727">
      </trkpt>
      <trkpt lat="37.7671653" lon="-122.4586878">
      </trkpt>
      <trkpt lat="37.7671898" lon="-122.458613">
      </trkpt>
      <trkpt lat="37.7673768" lon="-122.4581214">
      </trkpt>
      <trkpt lat="37.7680495" lon="-122.4558299">
      </trkpt>
      <trkpt lat="37.7682364" lon="-122.4551096">
      </trkpt>
      <trkpt lat="37.7688819" lon="-122.4548875">
      </trkpt>
      <trkpt lat="37.7704621" lon="-122.4554444">
      </trkpt>
      <trkpt lat="37.7713517" lon="-122.4540539">
      </trkpt>
      <trkpt lat="37.7713959" lon="-122.4539306">
      </trkpt>
      <trkpt lat="37.7715526" lon="-122.4539594">
      </trkpt>
      <trkpt lat="37.771841" lon="-122.4540843">
      </trkpt>
      <trkpt lat="37.7719088" lon="-122.4540895">
      </trkpt>
      <trkpt lat="37.7719886" lon="-122.4541025">
      </trkpt>
      <trkpt lat="37.7729021" lon="-122.4542991">
      </trkpt>
      <trkpt lat="37.774764" lon="-122.454668">
      </trkpt>
      <trkpt lat="37.7746873" lon="-122.4552749">
      </trkpt>
      <trkpt lat="37.7745557" lon="-122.4563068">
      </trkpt>
      <trkpt lat="37.7742984" lon="-122.4583894">
      </trkpt>
      <trkpt lat="37.7741812" lon="-122.4595066">
      </trkpt>
      <trkpt lat="37.7740454" lon="-122.4605707">
      </trkpt>
      <trkpt lat="37.7741812" lon="-122.4595066">
      </trkpt>
      <trkpt lat="37.7755661" lon="-122.4596065">
      </trkpt>
      <trkpt lat="37.775617" lon="-122.458488">
      </trkpt>
      <trkpt lat="37.7761896" lon="-122.4585291">
      </trkpt>
      <trkpt lat="37.777287" lon="-122.458608">
      </trkpt>
      <trkpt lat="37.7773973" lon="-122.45688">
      </trkpt>
      <trkpt lat="37.7775004" lon="-122.4560701">
      </trkpt>
      <trkpt lat="37.7776069" lon="-122.4552359">
      </trkpt>
      <trkpt lat="37.7796668" lon="-122.4556644">
      </trkpt>
      <trkpt lat="37.7800388" lon="-122.4554926">
      </trkpt>
      <trkpt lat="37.7800989" lon="-122.4550181">
      </trkpt>
      <trkpt lat="37.7801218" lon="-122.4548367">
      </trkpt>
      <trkpt lat="37.7802412" lon="-122.453894">
      </trkpt>
      <trkpt lat="37.7803655" lon="-122.4529152">
      </trkpt>
      <trkpt lat="37.780496" lon="-122.4518879">
      </trkpt>
      <trkpt lat="37.7806263" lon="-122.4508624">
      </trkpt>
      <trkpt lat="37.7807564" lon="-122.4498377">
      </trkpt>
      <trkpt lat="37.7820602" lon="-122.4500984">
      </trkpt>
      <trkpt lat="37.7821337" lon="-122.4495446">
      </trkpt>
      <trkpt lat="37.7821419" lon="-122.4490643">
      </trkpt>
      <trkpt lat="37.7822849" lon="-122.4478764">
      </trkpt>
      <trkpt lat="37.7823509" lon="-122.44744">
      </trkpt>
      <trkpt lat="37.782422" lon="-122.447265">
      </trkpt>
      <trkpt lat="37.7825285" lon="-122.4472729">
      </trkpt>
      <trkpt lat="37.7824911" lon="-122.4480844">
      </trkpt>
      <trkpt lat="37.7823586" lon="-122.4491064">
      </trkpt>
      <trkpt lat="37.7822523" lon="-122.4495691">
      </trkpt>
      <trkpt lat="37.7821812" lon="-122.4501223">
      </trkpt>
      <trkpt lat="37.7820602" lon="-122.4500984">
      </trkpt>
      <trkpt lat="37.7821337" lon="-122.4495446">
      </trkpt>
      <trkpt lat="37.7821419" lon="-122.4490643">
      </trkpt>
      <trkpt lat="37.7822849" lon="-122.4478764">
      </trkpt>
      <trkpt lat="37.7822503" lon="-122.4475031">
      </trkpt>
      <trkpt lat="37.7822421" lon="-122.4473735">
      </trkpt>
      <trkpt lat="37.7824025" lon="-122.4458163">
      </trkpt>
      <trkpt lat="37.7826078" lon="-122.4458626">
      </trkpt>
      <trkpt lat="37.7835187" lon="-122.4460465">
      </trkpt>
      <trkpt lat="37.7844446" lon="-122.4462556">
      </trkpt>
      <trkpt lat="37.7846244" lon="-122.4448435">
      </trkpt>
      <trkpt lat="37.7836953" lon="-122.4446556">
      </trkpt>
      <trkpt lat="37.7839042" lon="-122.4430108">
      </trkpt>
      <trkpt lat="37.7829602" lon="-122.4428199">
      </trkpt>
      <trkpt lat="37.7828251" lon="-122.4427926">
      </trkpt>
      <trkpt lat="37.7822406" lon="-122.4418307">
      </trkpt>
      <trkpt lat="37.7821603" lon="-122.4415744">
      </trkpt>
      <trkpt lat="37.7812425" lon="-122.4413544">
      </trkpt>
      <trkpt lat="37.7813129" lon="-122.440801">
      </trkpt>
      <trkpt lat="37.7815187" lon="-122.439182">
      </trkpt>
      <trkpt lat="37.7815306" lon="-122.4390886">
      </trkpt>
      <trkpt lat="37.7816323" lon="-122.4382888">
      </trkpt>
      <trkpt lat="37.7817369" lon="-122.4374661">
      </trkpt>
      <trkpt lat="37.7808087" lon="-122.437278">
      </trkpt>
      <trkpt lat="37.7810177" lon="-122.4356328">
      </trkpt>
      <trkpt lat="37.7812262" lon="-122.43399">
      </trkpt>
      <trkpt lat="37.7814351" lon="-122.4323455">
      </trkpt>
      <trkpt lat="37.7816439" lon="-122.4307015">
      </trkpt>
      <trkpt lat="37.7816623" lon="-122.4305572">
      </trkpt>
      <trkpt lat="37.7825915" lon="-122.4307453">
      </trkpt>
      <trkpt lat="37.7825732" lon="-122.4308894">
      </trkpt>
      <trkpt lat="37.7816439" lon="-122.4307015">
      </trkpt>
      <trkpt lat="37.7816623" lon="-122.4305572">
      </trkpt>
      <trkpt lat="37.7818527" lon="-122.429056">
      </trkpt>
      <trkpt lat="37.7814609" lon="-122.4289776">
      </trkpt>
      <trkpt lat="37.7815758" lon="-122.4273148">
      </trkpt>
      <trkpt lat="37.7811296" lon="-122.4272248">
      </trkpt>
      <trkpt lat="37.7815758" lon="-122.4273148">
      </trkpt>
      <trkpt lat="37.7820615" lon="-122.4274127">
      </trkpt>
      <trkpt lat="37.782479" lon="-122.424125">
      </trkpt>
      <trkpt lat="37.7815469" lon="-122.4239348">
      </trkpt>
      <trkpt lat="37.7810758" lon="-122.4238421">
      </trkpt>
      <trkpt lat="37.7806142" lon="-122.4237488">
      </trkpt>
      <trkpt lat="37.7796841" lon="-122.4235632">
      </trkpt>
      <trkpt lat="37.7792164" lon="-122.4234665">
      </trkpt>
      <trkpt lat="37.7787484" lon="-122.4233714">
      </trkpt>
      <trkpt lat="37.7778191" lon="-122.4231817">
      </trkpt>
      <trkpt lat="37.777355" lon="-122.4230904">
      </trkpt>
      <trkpt lat="37.7768892" lon="-122.4229968">
      </trkpt>
      <trkpt lat="37.7764217" lon="-122.4229028">
      </trkpt>
      <trkpt lat="37.7759583" lon="-122.4228096">
      </trkpt>
      <trkpt lat="37.7757823" lon="-122.4241904">
      </trkpt>
      <trkpt lat="37.7757628" lon="-122.4243439">
      </trkpt>
      <trkpt lat="37.7748208" lon="-122.4242103">
      </trkpt>
      <trkpt lat="37.7748348" lon="-122.4240999">
      </trkpt>
      <trkpt lat="37.7748472" lon="-122.4240024">
      </trkpt>
      <trkpt lat="37.7750233" lon="-122.4226174">
      </trkpt>
      <trkpt lat="37.7745618" lon="-122.4225226">
      </trkpt>
      <trkpt lat="37.7740952" lon="-122.4224267">
      </trkpt>
      <trkpt lat="37.7743021" lon="-122.4207827">
      </trkpt>
      <trkpt lat="37.7741233" lon="-122.4207377">
      </trkpt>
      <trkpt lat="37.773721" lon="-122.4212458">
      </trkpt>
      <trkpt lat="37.7736501" lon="-122.4213355">
      </trkpt>
      <trkpt lat="37.7732228" lon="-122.421895">
      </trkpt>
      <trkpt lat="37.7730757" lon="-122.4220562">
      </trkpt>
      <trkpt lat="37.7729943" lon="-122.4219563">
      </trkpt>
      <trkpt lat="37.7729625" lon="-122.4219188">
      </trkpt>
      <trkpt lat="37.772624" lon="-122.4214951">
      </trkpt>
      <trkpt lat="37.7726729" lon="-122.4214324">
      </trkpt>
      <trkpt lat="37.7731717" lon="-122.420803">
      </trkpt>
      <trkpt lat="37.7728764" lon="-122.4204203">
      </trkpt>
      <trkpt lat="37.7723768" lon="-122.4210569">
      </trkpt>
      <trkpt lat="37.7726729" lon="-122.4214324">
      </trkpt>
      <trkpt lat="37.7731717" lon="-122.420803">
      </trkpt>
      <trkpt lat="37.7728764" lon="-122.4204203">
      </trkpt>
      <trkpt lat="37.7722849" lon="-122.4197011">
      </trkpt>
      <trkpt lat="37.7718164" lon="-122.420336">
      </trkpt>
      <trkpt lat="37.7717603" lon="-122.4204102">
      </trkpt>
      <trkpt lat="37.770419" lon="-122.4202017">
      </trkpt>
      <trkpt lat="37.7701209" lon="-122.4201765">
      </trkpt>
      <trkpt lat="37.770007" lon="-122.4201689">
      </trkpt>
      <trkpt lat="37.7700026" lon="-122.4199672">
      </trkpt>
      <trkpt lat="37.7698183" lon="-122.4182968">
      </trkpt>
      <trkpt lat="37.7697417" lon="-122.4178212">
      </trkpt>
      <trkpt lat="37.769727" lon="-122.4177291">
      </trkpt>
      <trkpt lat="37.7698502" lon="-122.4177075">
      </trkpt>
      <trkpt lat="37.7702525" lon="-122.4176261">
      </trkpt>
      <trkpt lat="37.770723" lon="-122.4178181">
      </trkpt>
      <trkpt lat="37.7709098" lon="-122.4178962">
      </trkpt>
      <trkpt lat="37.7710587" lon="-122.4179414">
      </trkpt>
      <trkpt lat="37.7712383" lon="-122.4181456">
      </trkpt>
      <trkpt lat="37.7710231" lon="-122.4180796">
      </trkpt>
      <trkpt lat="37.770901" lon="-122.4180329">
      </trkpt>
      <trkpt lat="37.7702045" lon="-122.4177372">
      </trkpt>
      <trkpt lat="37.7698642" lon="-122.4178016">
      </trkpt>
      <trkpt lat="37.7697417" lon="-122.4178212">
      </trkpt>
      <trkpt lat="37.769727" lon="-122.4177291">
      </trkpt>
      <trkpt lat="37.7698502" lon="-122.4177075">
      </trkpt>
      <trkpt lat="37.7702525" lon="-122.4176261">
      </trkpt>
      <trkpt lat="37.7708558" lon="-122.4174447">
      </trkpt>
      <trkpt lat="37.770723" lon="-122.4178181">
      </trkpt>
      <trkpt lat="37.7709098" lon="-122.4178962">
      </trkpt>
      <trkpt lat="37.7710587" lon="-122.4179414">
      </trkpt>
      <trkpt lat="37.7712383" lon="-122.4181456">
      </trkpt>
      <trkpt lat="37.7710231" lon="-122.4180796">
      </trkpt>
      <trkpt lat="37.770901" lon="-122.4180329">
      </trkpt>
      <trkpt lat="37.7702045" lon="-122.4177372">
      </trkpt>
      <trkpt lat="37.7698642" lon="-122.4178016">
      </trkpt>
      <trkpt lat="37.7697417" lon="-122.4178212">
      </trkpt>
      <trkpt lat="37.769727" lon="-122.4177291">
      </trkpt>
      <trkpt lat="37.7695983" lon="-122.4167471">
      </trkpt>
      <trkpt lat="37.7695577" lon="-122.4160666">
      </trkpt>
      <trkpt lat="37.7695286" lon="-122.4155921">
      </trkpt>
      <trkpt lat="37.7696315" lon="-122.4155697">
      </trkpt>
      <trkpt lat="37.7698502" lon="-122.4177075">
      </trkpt>
      <trkpt lat="37.7698642" lon="-122.4178016">
      </trkpt>
      <trkpt lat="37.7697417" lon="-122.4178212">
      </trkpt>
      <trkpt lat="37.7693046" lon="-122.4178716">
      </trkpt>
      <trkpt lat="37.7687313" lon="-122.417842">
      </trkpt>
      <trkpt lat="37.7684064" lon="-122.417817">
      </trkpt>
      <trkpt lat="37.7668039" lon="-122.4176635">
      </trkpt>
      <trkpt lat="37.7667595" lon="-122.4184157">
      </trkpt>
      <trkpt lat="37.7683615" lon="-122.4185689">
      </trkpt>
      <trkpt lat="37.7667595" lon="-122.4184157">
      </trkpt>
      <trkpt lat="37.7667388" lon="-122.4187467">
      </trkpt>
      <trkpt lat="37.7656878" lon="-122.418654">
      </trkpt>
      <trkpt lat="37.7651174" lon="-122.4186691">
      </trkpt>
      <trkpt lat="37.765052" lon="-122.4196893">
      </trkpt>
      <trkpt lat="37.7634379" lon="-122.4195294">
      </trkpt>
      <trkpt lat="37.7627117" lon="-122.4194651">
      </trkpt>
      <trkpt lat="37.7618405" lon="-122.4193819">
      </trkpt>
      <trkpt lat="37.761789" lon="-122.420128">
      </trkpt>
      <trkpt lat="37.761747" lon="-122.420813">
      </trkpt>
      <trkpt lat="37.760148" lon="-122.42066">
      </trkpt>
      <trkpt lat="37.7601014" lon="-122.4214395">
      </trkpt>
      <trkpt lat="37.7600512" lon="-122.4222837">
      </trkpt>
      <trkpt lat="37.760013" lon="-122.422879">
      </trkpt>
      <trkpt lat="37.758814" lon="-122.422757">
      </trkpt>
      <trkpt lat="37.760013" lon="-122.422879">
      </trkpt>
      <trkpt lat="37.7599724" lon="-122.4235989">
      </trkpt>
      <trkpt lat="37.759966" lon="-122.42369">
      </trkpt>
      <trkpt lat="37.7591649" lon="-122.4236075">
      </trkpt>
      <trkpt lat="37.7583673" lon="-122.4235396">
      </trkpt>
      <trkpt lat="37.758373" lon="-122.4234451">
      </trkpt>
      <trkpt lat="37.7585036" lon="-122.4212845">
      </trkpt>
      <trkpt lat="37.7577009" lon="-122.4212058">
      </trkpt>
      <trkpt lat="37.7575702" lon="-122.4233586">
      </trkpt>
      <trkpt lat="37.7577009" lon="-122.4212058">
      </trkpt>
      <trkpt lat="37.7569061" lon="-122.421127">
      </trkpt>
      <trkpt lat="37.756954" lon="-122.4203477">
      </trkpt>
      <trkpt lat="37.7569732" lon="-122.4200211">
      </trkpt>
      <trkpt lat="37.7569933" lon="-122.4196895">
      </trkpt>
      <trkpt lat="37.7570441" lon="-122.4189227">
      </trkpt>
      <trkpt lat="37.7586372" lon="-122.4190752">
      </trkpt>
      <trkpt lat="37.7587064" lon="-122.4179902">
      </trkpt>
      <trkpt lat="37.75721" lon="-122.417846">
      </trkpt>
      <trkpt lat="37.7587064" lon="-122.4179902">
      </trkpt>
      <trkpt lat="37.7587763" lon="-122.4168919">
      </trkpt>
      <trkpt lat="37.7588398" lon="-122.4158016">
      </trkpt>
      <trkpt lat="37.7572377" lon="-122.4156483">
      </trkpt>
      <trkpt lat="37.7573041" lon="-122.4145631">
      </trkpt>
      <trkpt lat="37.7573751" lon="-122.4134729">
      </trkpt>
      <trkpt lat="37.7589705" lon="-122.4136186">
      </trkpt>
      <trkpt lat="37.7590346" lon="-122.4125338">
      </trkpt>
      <trkpt lat="37.7590933" lon="-122.411598">
      </trkpt>
      <trkpt lat="37.760385" lon="-122.4117211">
      </trkpt>
      <trkpt lat="37.7604315" lon="-122.4109745">
      </trkpt>
      <trkpt lat="37.7604937" lon="-122.4100144">
      </trkpt>
      <trkpt lat="37.761765" lon="-122.4101411">
      </trkpt>
      <trkpt lat="37.7630381" lon="-122.4102625">
      </trkpt>
      <trkpt lat="37.7643204" lon="-122.4103883">
      </trkpt>
      <trkpt lat="37.7642633" lon="-122.4113453">
      </trkpt>
      <trkpt lat="37.7655491" lon="-122.411489">
      </trkpt>
      <trkpt lat="37.7654938" lon="-122.4124486">
      </trkpt>
      <trkpt lat="37.765454" lon="-122.413139">
      </trkpt>
      <trkpt lat="37.7659979" lon="-122.4131886">
      </trkpt>
      <trkpt lat="37.7667359" lon="-122.4132595">
      </trkpt>
      <trkpt lat="37.7670685" lon="-122.4132915">
      </trkpt>
      <trkpt lat="37.7669359" lon="-122.4154813">
      </trkpt>
      <trkpt lat="37.7668697" lon="-122.4165702">
      </trkpt>
      <trkpt lat="37.7684709" lon="-122.4167235">
      </trkpt>
      <trkpt lat="37.7668697" lon="-122.4165702">
      </trkpt>
      <trkpt lat="37.7668039" lon="-122.4176635">
      </trkpt>
      <trkpt lat="37.7684064" lon="-122.417817">
      </trkpt>
      <trkpt lat="37.7687313" lon="-122.417842">
      </trkpt>
      <trkpt lat="37.7692106" lon="-122.4178011">
      </trkpt>
      <trkpt lat="37.7695986" lon="-122.417754">
      </trkpt>
      <trkpt lat="37.7695983" lon="-122.4167471">
      </trkpt>
      <trkpt lat="37.7695577" lon="-122.4160666">
      </trkpt>
      <trkpt lat="37.7695286" lon="-122.4155921">
      </trkpt>
      <trkpt lat="37.7696315" lon="-122.4155697">
      </trkpt>
      <trkpt lat="37.7698502" lon="-122.4177075">
      </trkpt>
      <trkpt lat="37.7702525" lon="-122.4176261">
      </trkpt>
      <trkpt lat="37.7708558" lon="-122.4174447">
      </trkpt>
      <trkpt lat="37.7717372" lon="-122.4169389">
      </trkpt>
      <trkpt lat="37.7714105" lon="-122.4161895">
      </trkpt>
      <trkpt lat="37.7708952" lon="-122.4150033">
      </trkpt>
      <trkpt lat="37.7696315" lon="-122.4155697">
      </trkpt>
      <trkpt lat="37.7695286" lon="-122.4155921">
      </trkpt>
      <trkpt lat="37.7695043" lon="-122.4145026">
      </trkpt>
      <trkpt lat="37.7694875" lon="-122.413785">
      </trkpt>
      <trkpt lat="37.7692173" lon="-122.4134569">
      </trkpt>
      <trkpt lat="37.7686815" lon="-122.4134534">
      </trkpt>
      <trkpt lat="37.7680266" lon="-122.4133836">
      </trkpt>
      <trkpt lat="37.7680852" lon="-122.4124247">
      </trkpt>
      <trkpt lat="37.7687136" lon="-122.4117781">
      </trkpt>
      <trkpt lat="37.7690193" lon="-122.4108329">
      </trkpt>
      <trkpt lat="37.7681875" lon="-122.4107505">
      </trkpt>
      <trkpt lat="37.7683619" lon="-122.4078137">
      </trkpt>
      <trkpt lat="37.7670817" lon="-122.4076907">
      </trkpt>
      <trkpt lat="37.7676011" lon="-122.4088285">
      </trkpt>
      <trkpt lat="37.7670817" lon="-122.4076907">
      </trkpt>
      <trkpt lat="37.7657809" lon="-122.407568">
      </trkpt>
      <trkpt lat="37.7644869" lon="-122.407444">
      </trkpt>
      <trkpt lat="37.7644314" lon="-122.4083779">
      </trkpt>
      <trkpt lat="37.7649749" lon="-122.408435">
      </trkpt>
      <trkpt lat="37.7644314" lon="-122.4083779">
      </trkpt>
      <trkpt lat="37.7644869" lon="-122.407444">
      </trkpt>
      <trkpt lat="37.7632168" lon="-122.4073226">
      </trkpt>
      <trkpt lat="37.7632775" lon="-122.406324">
      </trkpt>
      <trkpt lat="37.7619426" lon="-122.407148">
      </trkpt>
      <trkpt lat="37.7619362" lon="-122.407264">
      </trkpt>
      <trkpt lat="37.7606613" lon="-122.407142">
      </trkpt>
      <trkpt lat="37.7593689" lon="-122.407018">
      </trkpt>
      <trkpt lat="37.7577723" lon="-122.4068661">
      </trkpt>
      <trkpt lat="37.7568389" lon="-122.4067798">
      </trkpt>
      <trkpt lat="37.756846" lon="-122.4066515">
      </trkpt>
      <trkpt lat="37.7569544" lon="-122.4047413">
      </trkpt>
      <trkpt lat="37.7569947" lon="-122.4040595">
      </trkpt>
      <trkpt lat="37.7544754" lon="-122.4035519">
      </trkpt>
      <trkpt lat="37.7545227" lon="-122.4025654">
      </trkpt>
      <trkpt lat="37.7532366" lon="-122.4024433">
      </trkpt>
      <trkpt lat="37.75197" lon="-122.402323">
      </trkpt>
      <trkpt lat="37.750595" lon="-122.402228">
      </trkpt>
      <trkpt lat="37.7495249" lon="-122.4028981">
      </trkpt>
      <trkpt lat="37.7495355" lon="-122.4029714">
      </trkpt>
      <trkpt lat="37.7520812" lon="-122.4027136">
      </trkpt>
      <trkpt lat="37.7533449" lon="-122.402861">
      </trkpt>
      <trkpt lat="37.762238" lon="-122.4056016">
      </trkpt>
      <trkpt lat="37.7633932" lon="-122.4043871">
      </trkpt>
      <trkpt lat="37.7621127" lon="-122.4042642">
      </trkpt>
      <trkpt lat="37.7620664" lon="-122.4052372">
      </trkpt>
      <trkpt lat="37.7607997" lon="-122.4051159">
      </trkpt>
      <trkpt lat="37.760753" lon="-122.4058965">
      </trkpt>
      <trkpt lat="37.7607997" lon="-122.4051159">
      </trkpt>
      <trkpt lat="37.7620664" lon="-122.4052372">
      </trkpt>
      <trkpt lat="37.7621127" lon="-122.4042642">
      </trkpt>
      <trkpt lat="37.7633932" lon="-122.4043871">
      </trkpt>
      <trkpt lat="37.7646654" lon="-122.404509">
      </trkpt>
      <trkpt lat="37.764606" lon="-122.4054775">
      </trkpt>
      <trkpt lat="37.7632775" lon="-122.406324">
      </trkpt>
      <trkpt lat="37.7619426" lon="-122.407148">
      </trkpt>
      <trkpt lat="37.7619362" lon="-122.407264">
      </trkpt>
      <trkpt lat="37.7606613" lon="-122.407142">
      </trkpt>
      <trkpt lat="37.7606694" lon="-122.407024">
      </trkpt>
      <trkpt lat="37.7606613" lon="-122.407142">
      </trkpt>
      <trkpt lat="37.7593689" lon="-122.407018">
      </trkpt>
      <trkpt lat="37.7593761" lon="-122.406899">
      </trkpt>
      <trkpt lat="37.7593689" lon="-122.407018">
      </trkpt>
      <trkpt lat="37.7577723" lon="-122.4068661">
      </trkpt>
      <trkpt lat="37.7577156" lon="-122.4077731">
      </trkpt>
      <trkpt lat="37.7576615" lon="-122.4086702">
      </trkpt>
      <trkpt lat="37.7576026" lon="-122.4096146">
      </trkpt>
      <trkpt lat="37.757547" lon="-122.4105486">
      </trkpt>
      <trkpt lat="37.7574923" lon="-122.4114392">
      </trkpt>
      <trkpt lat="37.7558965" lon="-122.4112874">
      </trkpt>
      <trkpt lat="37.7558377" lon="-122.4122259">
      </trkpt>
      <trkpt lat="37.7557722" lon="-122.4133134">
      </trkpt>
      <trkpt lat="37.7557072" lon="-122.4144003">
      </trkpt>
      <trkpt lat="37.7556406" lon="-122.415498">
      </trkpt>
      <trkpt lat="37.7555769" lon="-122.416587">
      </trkpt>
      <trkpt lat="37.755509" lon="-122.417681">
      </trkpt>
      <trkpt lat="37.7554436" lon="-122.4187696">
      </trkpt>
      <trkpt lat="37.7553742" lon="-122.4198728">
      </trkpt>
      <trkpt lat="37.7553033" lon="-122.4209722">
      </trkpt>
      <trkpt lat="37.755275" lon="-122.4214357">
      </trkpt>
      <trkpt lat="37.7551725" lon="-122.4231381">
      </trkpt>
      <trkpt lat="37.755971" lon="-122.423215">
      </trkpt>
      <trkpt lat="37.756101" lon="-122.4210493">
      </trkpt>
      <trkpt lat="37.7553033" lon="-122.4209722">
      </trkpt>
      <trkpt lat="37.755275" lon="-122.4214357">
      </trkpt>
      <trkpt lat="37.7551725" lon="-122.4231381">
      </trkpt>
      <trkpt lat="37.7551674" lon="-122.4232234">
      </trkpt>
      <trkpt lat="37.7551023" lon="-122.4243032">
      </trkpt>
      <trkpt lat="37.7550362" lon="-122.4254019">
      </trkpt>
      <trkpt lat="37.7558415" lon="-122.4254793">
      </trkpt>
      <trkpt lat="37.7566385" lon="-122.4255559">
      </trkpt>
      <trkpt lat="37.7566295" lon="-122.4257042">
      </trkpt>
      <trkpt lat="37.7565629" lon="-122.4268094">
      </trkpt>
      <trkpt lat="37.7564972" lon="-122.4279075">
      </trkpt>
      <trkpt lat="37.7563657" lon="-122.4301292">
      </trkpt>
      <trkpt lat="37.7555675" lon="-122.4300649">
      </trkpt>
      <trkpt lat="37.7554347" lon="-122.4322708">
      </trkpt>
      <trkpt lat="37.754628" lon="-122.432177">
      </trkpt>
      <trkpt lat="37.7547532" lon="-122.4299727">
      </trkpt>
      <trkpt lat="37.753957" lon="-122.429884">
      </trkpt>
      <trkpt lat="37.7531537" lon="-122.4298073">
      </trkpt>
      <trkpt lat="37.752362" lon="-122.429731">
      </trkpt>
      <trkpt lat="37.7515712" lon="-122.4296729">
      </trkpt>
      <trkpt lat="37.750762" lon="-122.429577">
      </trkpt>
      <trkpt lat="37.7499683" lon="-122.4295003">
      </trkpt>
      <trkpt lat="37.749158" lon="-122.429423">
      </trkpt>
      <trkpt lat="37.748362" lon="-122.429346">
      </trkpt>
      <trkpt lat="37.748229" lon="-122.431557">
      </trkpt>
      <trkpt lat="37.7474454" lon="-122.4314781">
      </trkpt>
      <trkpt lat="37.748229" lon="-122.431557">
      </trkpt>
      <trkpt lat="37.7480951" lon="-122.4338017">
      </trkpt>
      <trkpt lat="37.7473128" lon="-122.4337266">
      </trkpt>
      <trkpt lat="37.7465058" lon="-122.4337426">
      </trkpt>
      <trkpt lat="37.7465216" lon="-122.4326044">
      </trkpt>
      <trkpt lat="37.746604" lon="-122.432612">
      </trkpt>
      <trkpt lat="37.7465058" lon="-122.4337426">
      </trkpt>
      <trkpt lat="37.745612" lon="-122.434723">
      </trkpt>
      <trkpt lat="37.7455565" lon="-122.4357759">
      </trkpt>
      <trkpt lat="37.7447596" lon="-122.4357041">
      </trkpt>
      <trkpt lat="37.7431643" lon="-122.4355923">
      </trkpt>
      <trkpt lat="37.7425893" lon="-122.4355338">
      </trkpt>
      <trkpt lat="37.7420893" lon="-122.4354324">
      </trkpt>
      <trkpt lat="37.7416139" lon="-122.4356127">
      </trkpt>
      <trkpt lat="37.7436644" lon="-122.437662">
      </trkpt>
      <trkpt lat="37.7435639" lon="-122.4377581">
      </trkpt>
      <trkpt lat="37.7415359" lon="-122.435686">
      </trkpt>
      <trkpt lat="37.7401807" lon="-122.4359136">
      </trkpt>
      <trkpt lat="37.7392619" lon="-122.4363846">
      </trkpt>
      <trkpt lat="37.7387646" lon="-122.4366991">
      </trkpt>
      <trkpt lat="37.7383298" lon="-122.4373673">
      </trkpt>
      <trkpt lat="37.7378146" lon="-122.436946">
      </trkpt>
      <trkpt lat="37.7383736" lon="-122.436146">
      </trkpt>
      <trkpt lat="37.7372949" lon="-122.4363088">
      </trkpt>
      <trkpt lat="37.73654" lon="-122.436156">
      </trkpt>
      <trkpt lat="37.7367988" lon="-122.4355072">
      </trkpt>
      <trkpt lat="37.73654" lon="-122.436156">
      </trkpt>
      <trkpt lat="37.7372949" lon="-122.4363088">
      </trkpt>
      <trkpt lat="37.7383736" lon="-122.436146">
      </trkpt>
      <trkpt lat="37.7378146" lon="-122.436946">
      </trkpt>
      <trkpt lat="37.7383298" lon="-122.4373673">
      </trkpt>
      <trkpt lat="37.7387646" lon="-122.4366991">
      </trkpt>
      <trkpt lat="37.7392619" lon="-122.4363846">
      </trkpt>
      <trkpt lat="37.7401498" lon="-122.435825">
      </trkpt>
      <trkpt lat="37.7401807" lon="-122.4359136">
      </trkpt>
      <trkpt lat="37.7406495" lon="-122.4386801">
      </trkpt>
      <trkpt lat="37.7399654" lon="-122.4375187">
      </trkpt>
      <trkpt lat="37.7406495" lon="-122.4386801">
      </trkpt>
      <trkpt lat="37.7401807" lon="-122.4359136">
      </trkpt>
      <trkpt lat="37.7392619" lon="-122.4363846">
      </trkpt>
      <trkpt lat="37.7387646" lon="-122.4366991">
      </trkpt>
      <trkpt lat="37.7403535" lon="-122.4395306">
      </trkpt>
      <trkpt lat="37.7415281" lon="-122.4405065">
      </trkpt>
      <trkpt lat="37.7403535" lon="-122.4395306">
      </trkpt>
      <trkpt lat="37.7386952" lon="-122.4395846">
      </trkpt>
      <trkpt lat="37.7383298" lon="-122.4373673">
      </trkpt>
      <trkpt lat="37.7387646" lon="-122.4366991">
      </trkpt>
      <trkpt lat="37.7392619" lon="-122.4363846">
      </trkpt>
      <trkpt lat="37.7401498" lon="-122.435825">
      </trkpt>
      <trkpt lat="37.7401807" lon="-122.4359136">
      </trkpt>
      <trkpt lat="37.7406495" lon="-122.4386801">
      </trkpt>
      <trkpt lat="37.7423548" lon="-122.4401485">
      </trkpt>
      <trkpt lat="37.7423984" lon="-122.4407094">
      </trkpt>
      <trkpt lat="37.7423548" lon="-122.4401485">
      </trkpt>
      <trkpt lat="37.7425638" lon="-122.4387978">
      </trkpt>
      <trkpt lat="37.7428418" lon="-122.4381079">
      </trkpt>
      <trkpt lat="37.7435639" lon="-122.4377581">
      </trkpt>
      <trkpt lat="37.7436644" lon="-122.437662">
      </trkpt>
      <trkpt lat="37.7453178" lon="-122.4400678">
      </trkpt>
      <trkpt lat="37.7453114" lon="-122.4401682">
      </trkpt>
      <trkpt lat="37.7452466" lon="-122.4412715">
      </trkpt>
      <trkpt lat="37.7443497" lon="-122.4426617">
      </trkpt>
      <trkpt lat="37.7456239" lon="-122.4453164">
      </trkpt>
      <trkpt lat="37.7454612" lon="-122.4463544">
      </trkpt>
      <trkpt lat="37.7461217" lon="-122.446879">
      </trkpt>
      <trkpt lat="37.7460554" lon="-122.4472999">
      </trkpt>
      <trkpt lat="37.7461217" lon="-122.446879">
      </trkpt>
      <trkpt lat="37.7460731" lon="-122.4452163">
      </trkpt>
      <trkpt lat="37.7461187" lon="-122.4442829">
      </trkpt>
      <trkpt lat="37.7459035" lon="-122.4433932">
      </trkpt>
      <trkpt lat="37.7465152" lon="-122.4434165">
      </trkpt>
      <trkpt lat="37.7465861" lon="-122.4434192">
      </trkpt>
      <trkpt lat="37.7466512" lon="-122.4437593">
      </trkpt>
      <trkpt lat="37.7467772" lon="-122.4439982">
      </trkpt>
      <trkpt lat="37.7466752" lon="-122.4443525">
      </trkpt>
      <trkpt lat="37.7466725" lon="-122.4443771">
      </trkpt>
      <trkpt lat="37.7466633" lon="-122.4445028">
      </trkpt>
      <trkpt lat="37.7469466" lon="-122.4448421">
      </trkpt>
      <trkpt lat="37.7470342" lon="-122.4448792">
      </trkpt>
      <trkpt lat="37.7467627" lon="-122.4466703">
      </trkpt>
      <trkpt lat="37.7465105" lon="-122.4478016">
      </trkpt>
      <trkpt lat="37.745899" lon="-122.4508255">
      </trkpt>
      <trkpt lat="37.7457663" lon="-122.4507583">
      </trkpt>
      <trkpt lat="37.745899" lon="-122.4508255">
      </trkpt>
      <trkpt lat="37.7456064" lon="-122.4517243">
      </trkpt>
      <trkpt lat="37.7456581" lon="-122.4525484">
      </trkpt>
      <trkpt lat="37.7457125" lon="-122.453922">
      </trkpt>
      <trkpt lat="37.7458412" lon="-122.4542268">
      </trkpt>
      <trkpt lat="37.7463744" lon="-122.4554771">
      </trkpt>
      <trkpt lat="37.7463" lon="-122.4555064">
      </trkpt>
      <trkpt lat="37.7460687" lon="-122.454687">
      </trkpt>
      <trkpt lat="37.7458412" lon="-122.4542268">
      </trkpt>
      <trkpt lat="37.7463744" lon="-122.4554771">
      </trkpt>
      <trkpt lat="37.7464822" lon="-122.456063">
      </trkpt>
    </trkseg>
  </trk>
</gpx>