<?xml version="1.0" encoding="UTF-8"?>
<gpx xmlns="http://www.topografix.com/GPX/1/1" xmlns:xsi="http://www.w3.org/2001/XMLSchema-instance" xsi:schemaLocation="http://www.topografix.com/GPX/1/1 http://www.topografix.com/GPX/1/1/gpx.xsd" version="1.1" creator="gpx.py -- https://github.com/tkrajina/gpxpy">
  <metadata>
    <name>Route Sculptor: cat</name>
    <desc></desc>
  </metadata>
  <trk>
    <name>Route Sculptor: cat</name>
    <trkseg>
      <trkpt lat="37.7771368" lon="-122.4661649">
      </trkpt>
      <trkpt lat="37.7771853" lon="-122.4650957">
      </trkpt>
      <trkpt lat="37.7753223" lon="-122.4649615">
      </trkpt>
      <trkpt lat="37.7753711" lon="-122.4638912">
      </trkpt>
      <trkpt lat="37.7736374" lon="-122.4637661">
      </trkpt>
      <trkpt lat="37.7737728" lon="-122.4627059">
      </trkpt>
      <trkpt lat="37.7739091" lon="-122.4616383">
      </trkpt>
      <trkpt lat="37.7740454" lon="-122.4605707">
      </trkpt>
      <trkpt lat="37.7741812" lon="-122.4595066">
      </trkpt>
      <trkpt lat="37.7742984" lon="-122.4583894">
      </trkpt>
      <trkpt lat="37.7745557" lon="-122.4563068">
      </trkpt>
      <trkpt lat="37.7746873" lon="-122.4552749">
      </trkpt>
      <trkpt lat="37.774764" lon="-122.454668">
      </trkpt>
      <trkpt lat="37.7729021" lon="-122.4542991">
      </trkpt>
      <trkpt lat="37.7719886" lon="-122.4541025">
      </trkpt>
      <trkpt lat="37.7719088" lon="-122.4540895">
      </trkpt>
      <trkpt lat="37.771841" lon="-122.4540843">
      </trkpt>
      <trkpt lat="37.771492" lon="-122.4540834">
      </trkpt>
      <trkpt lat="37.7704621" lon="-122.4554444">
      </trkpt>
      <trkpt lat="37.7688819" lon="-122.4548875">
      </trkpt>
      <trkpt lat="37.7685305" lon="-122.454998">
      </trkpt>
      <trkpt lat="37.7681799" lon="-122.4555303">
      </trkpt>
      <trkpt lat="37.7680495" lon="-122.4558299">
      </trkpt>
      <trkpt lat="37.7673768" lon="-122.4581214">
      </trkpt>
      <trkpt lat="37.7672529" lon="-122.4586511">
      </trkpt>
      <trkpt lat="37.7673963" lon="-122.4590782">
      </trkpt>
      <trkpt lat="37.7674525" lon="-122.4606944">
      </trkpt>
      <trkpt lat="37.7703799" lon="-122.4603051">
      </trkpt>
      <trkpt lat="37.7674525" lon="-122.4606944">
      </trkpt>
      <trkpt lat="37.7673963" lon="-122.4590782">
      </trkpt>
      <trkpt lat="37.7674525" lon="-122.4606944">
      </trkpt>
      <trkpt lat="37.7673963" lon="-122.4590782">
      </trkpt>
      <trkpt lat="37.7670463" lon="-122.4590451">
      </trkpt>
      <trkpt lat="37.7666228" lon="-122.4596088">
      </trkpt>
      <trkpt lat="37.7662688" lon="-122.4603093">
      </trkpt>
      <trkpt lat="37.7662129" lon="-122.4611118">
      </trkpt>
      <trkpt lat="37.7661221" lon="-122.4611055">
      </trkpt>
      <trkpt lat="37.7652193" lon="-122.4610422">
      </trkpt>
      <trkpt lat="37.7652645" lon="-122.459972">
      </trkpt>
      <trkpt lat="37.764333" lon="-122.4599084">
      </trkpt>
      <trkpt lat="37.7629566" lon="-122.4597697">
      </trkpt>
      <trkpt lat="37.7626475" lon="-122.4608618">
      </trkpt>
      <trkpt lat="37.7623733" lon="-122.4619224">
      </trkpt>
      <trkpt lat="37.760512" lon="-122.461794">
      </trkpt>
      <trkpt lat="37.7605744" lon="-122.4605615">
      </trkpt>
      <trkpt lat="37.760512" lon="-122.461794">
      </trkpt>
      <trkpt lat="37.7604599" lon="-122.4628599">
      </trkpt>
      <trkpt lat="37.7586084" lon="-122.463229">
      </trkpt>
      <trkpt lat="37.7544951" lon="-122.461245">
      </trkpt>
      <trkpt lat="37.7550306" lon="-122.46056">
      </trkpt>
      <trkpt lat="37.7559353" lon="-122.459576">
      </trkpt>
      <trkpt lat="37.7589696" lon="-122.4594344">
      </trkpt>
      <trkpt lat="37.7591287" lon="-122.4594763">
      </trkpt>
      <trkpt lat="37.7589696" lon="-122.4594344">
      </trkpt>
      <trkpt lat="37.7559353" lon="-122.459576">
      </trkpt>
      <trkpt lat="37.7550306" lon="-122.46056">
      </trkpt>
      <trkpt lat="37.7544951" lon="-122.461245">
      </trkpt>
      <trkpt lat="37.7586084" lon="-122.463229">
      </trkpt>
      <trkpt lat="37.7604599" lon="-122.4628599">
      </trkpt>
      <trkpt lat="37.760512" lon="-122.461794">
      </trkpt>
      <trkpt lat="37.7623733" lon="-122.4619224">
      </trkpt>
      <trkpt lat="37.7626475" lon="-122.4608618">
      </trkpt>
      <trkpt lat="37.7629566" lon="-122.4597697">
      </trkpt>
      <trkpt lat="37.7638254" lon="-122.4567035">
      </trkpt>
      <trkpt lat="37.7640042" lon="-122.4560727">
      </trkpt>
      <trkpt lat="37.7640802" lon="-122.4558043">
      </trkpt>
      <trkpt lat="37.7643085" lon="-122.4542397">
      </trkpt>
      <trkpt lat="37.7627054" lon="-122.4540336">
      </trkpt>
      <trkpt lat="37.7631972" lon="-122.4549575">
      </trkpt>
      <trkpt lat="37.760674" lon="-122.455082">
      </trkpt>
      <trkpt lat="37.7631972" lon="-122.4549575">
      </trkpt>
      <trkpt lat="37.7627054" lon="-122.4540336">
      </trkpt>
      <trkpt lat="37.7643085" lon="-122.4542397">
      </trkpt>
      <trkpt lat="37.7640802" lon="-122.4558043">
      </trkpt>
      <trkpt lat="37.7640042" lon="-122.4560727">
      </trkpt>
      <trkpt lat="37.7627909" lon="-122.4563373">
      </trkpt>
      <trkpt lat="37.7587626" lon="-122.4549758">
      </trkpt>
      <trkpt lat="37.7573981" lon="-122.4562987">
      </trkpt>
      <trkpt lat="37.7573131" lon="-122.4569116">
      </trkpt>
      <trkpt lat="37.7573981" lon="-122.4562987">
      </trkpt>
      <trkpt lat="37.7588449" lon="-122.4541003">
      </trkpt>
      <trkpt lat="37.7580806" lon="-122.4529459">
      </trkpt>
      <trkpt lat="37.7576301" lon="-122.4536828">
      </trkpt>
      <trkpt lat="37.7575197" lon="-122.4538061">
      </trkpt>
      <trkpt lat="37.7574217" lon="-122.4539005">
      </trkpt>
      <trkpt lat="37.7571028" lon="-122.4541113">
      </trkpt>
      <trkpt lat="37.7569549" lon="-122.4544519">
      </trkpt>
      <trkpt lat="37.756899" lon="-122.454764">
      </trkpt>
      <trkpt lat="37.755751" lon="-122.457364">
      </trkpt>
      <trkpt lat="37.7541681" lon="-122.459645">
      </trkpt>
      <trkpt lat="37.7546329" lon="-122.4602313">
      </trkpt>
      <trkpt lat="37.7550319" lon="-122.4596892">
      </trkpt>
      <trkpt lat="37.7546329" lon="-122.4602313">
      </trkpt>
      <trkpt lat="37.7541681" lon="-122.459645">
      </trkpt>
      <trkpt lat="37.7537458" lon="-122.4601849">
      </trkpt>
      <trkpt lat="37.7541681" lon="-122.459645">
      </trkpt>
      <trkpt lat="37.7554542" lon="-122.4562821">
      </trkpt>
      <trkpt lat="37.7552863" lon="-122.455566">
      </trkpt>
      <trkpt lat="37.7551371" lon="-122.4550947">
      </trkpt>
      <trkpt lat="37.75385" lon="-122.4556011">
      </trkpt>
      <trkpt lat="37.7523568" lon="-122.4561077">
      </trkpt>
      <trkpt lat="37.7516731" lon="-122.456356">
      </trkpt>
      <trkpt lat="37.7515215" lon="-122.4566652">
      </trkpt>
      <trkpt lat="37.7517542" lon="-122.461157">
      </trkpt>
      <trkpt lat="37.7514883" lon="-122.4615415">
      </trkpt>
      <trkpt lat="37.7514212" lon="-122.4616168">
      </trkpt>
      <trkpt lat="37.7513657" lon="-122.4615579">
      </trkpt>
      <trkpt lat="37.7507646" lon="-122.4610922">
      </trkpt>
      <trkpt lat="37.7489255" lon="-122.4596927">
      </trkpt>
      <trkpt lat="37.7489787" lon="-122.4596096">
      </trkpt>
      <trkpt lat="37.7506047" lon="-122.460855">
      </trkpt>
      <trkpt lat="37.7510464" lon="-122.4610975">
      </trkpt>
      <trkpt lat="37.7514285" lon="-122.4614769">
      </trkpt>
      <trkpt lat="37.7514883" lon="-122.4615415">
      </trkpt>
      <trkpt lat="37.7514212" lon="-122.4616168">
      </trkpt>
      <trkpt lat="37.7513657" lon="-122.4615579">
      </trkpt>
      <trkpt lat="37.7507646" lon="-122.4610922">
      </trkpt>
      <trkpt lat="37.7489255" lon="-122.4596927">
      </trkpt>
      <trkpt lat="37.748695" lon="-122.460051">
      </trkpt>
      <trkpt lat="37.748997" lon="-122.461941">
      </trkpt>
      <trkpt lat="37.7489843" lon="-122.4613111">
      </trkpt>
      <trkpt lat="37.7484224" lon="-122.460761">
      </trkpt>
      <trkpt lat="37.7480829" lon="-122.4608398">
      </trkpt>
      <trkpt lat="37.7473251" lon="-122.461856">
      </trkpt>
      <trkpt lat="37.746362" lon="-122.46171">
      </trkpt>
      <trkpt lat="37.745574" lon="-122.4613865">
      </trkpt>
      <trkpt lat="37.7453331" lon="-122.4603942">
      </trkpt>
      <trkpt lat="37.7454673" lon="-122.4602228">
      </trkpt>
      <trkpt lat="37.7452781" lon="-122.4592339">
      </trkpt>
      <trkpt lat="37.7444003" lon="-122.4591727">
      </trkpt>
      <trkpt lat="37.7443433" lon="-122.4591495">
      </trkpt>
      <trkpt lat="37.7440235" lon="-122.4568583">
      </trkpt>
      <trkpt lat="37.7440776" lon="-122.4565354">
      </trkpt>
      <trkpt lat="37.7434986" lon="-122.4559216">
      </trkpt>
      <trkpt lat="37.7433729" lon="-122.4569809">
      </trkpt>
      <trkpt lat="37.7438075" lon="-122.4588371">
      </trkpt>
      <trkpt lat="37.7433729" lon="-122.4569809">
      </trkpt>
      <trkpt lat="37.7432738" lon="-122.4581617">
      </trkpt>
      <trkpt lat="37.7433729" lon="-122.4569809">
      </trkpt>
      <trkpt lat="37.7434986" lon="-122.4559216">
      </trkpt>
      <trkpt lat="37.7431657" lon="-122.4554297">
      </trkpt>
      <trkpt lat="37.7430793" lon="-122.455302">
      </trkpt>
      <trkpt lat="37.7429619" lon="-122.4553897">
      </trkpt>
      <trkpt lat="37.7416746" lon="-122.4563886">
      </trkpt>
      <trkpt lat="37.7406389" lon="-122.458702">
      </trkpt>
      <trkpt lat="37.7405868" lon="-122.4590151">
      </trkpt>
      <trkpt lat="37.7405618" lon="-122.4592338">
      </trkpt>
      <trkpt lat="37.7406997" lon="-122.4595294">
      </trkpt>
      <trkpt lat="37.7410614" lon="-122.4598506">
      </trkpt>
      <trkpt lat="37.7420989" lon="-122.4569553">
      </trkpt>
      <trkpt lat="37.7421625" lon="-122.45682">
      </trkpt>
      <trkpt lat="37.7417703" lon="-122.4564753">
      </trkpt>
      <trkpt lat="37.7416746" lon="-122.4563886">
      </trkpt>
      <trkpt lat="37.7417703" lon="-122.4564753">
      </trkpt>
      <trkpt lat="37.7421625" lon="-122.45682">
      </trkpt>
      <trkpt lat="37.7434986" lon="-122.4559216">
      </trkpt>
      <trkpt lat="37.7431657" lon="-122.4554297">
      </trkpt>
      <trkpt lat="37.7430793" lon="-122.455302">
      </trkpt>
      <trkpt lat="37.7430142" lon="-122.4552058">
      </trkpt>
      <trkpt lat="37.7439594" lon="-122.4541958">
      </trkpt>
      <trkpt lat="37.7434229" lon="-122.4534726">
      </trkpt>
      <trkpt lat="37.742999" lon="-122.4528774">
      </trkpt>
      <trkpt lat="37.7422323" lon="-122.4537352">
      </trkpt>
      <trkpt lat="37.7419735" lon="-122.4539061">
      </trkpt>
      <trkpt lat="37.7410812" lon="-122.4544761">
      </trkpt>
      <trkpt lat="37.7406563" lon="-122.4552223">
      </trkpt>
      <trkpt lat="37.7410812" lon="-122.4544761">
      </trkpt>
      <trkpt lat="37.7413245" lon="-122.4530586">
      </trkpt>
      <trkpt lat="37.7400779" lon="-122.4507027">
      </trkpt>
      <trkpt lat="37.7393373" lon="-122.4504486">
      </trkpt>
      <trkpt lat="37.7377576" lon="-122.45162">
      </trkpt>
      <trkpt lat="37.740158" lon="-122.4518195">
      </trkpt>
      <trkpt lat="37.7377576" lon="-122.45162">
      </trkpt>
      <trkpt lat="37.7393373" lon="-122.4504486">
      </trkpt>
      <trkpt lat="37.7393061" lon="-122.4495894">
      </trkpt>
      <trkpt lat="37.7392746" lon="-122.4487173">
      </trkpt>
      <trkpt lat="37.738006" lon="-122.4489471">
      </trkpt>
      <trkpt lat="37.7380205" lon="-122.4494897">
      </trkpt>
      <trkpt lat="37.738006" lon="-122.4489471">
      </trkpt>
      <trkpt lat="37.7380711" lon="-122.4481713">
      </trkpt>
      <trkpt lat="37.7379288" lon="-122.447388">
      </trkpt>
      <trkpt lat="37.7376808" lon="-122.4468189">
      </trkpt>
      <trkpt lat="37.737457" lon="-122.446432">
      </trkpt>
      <trkpt lat="37.7373623" lon="-122.4463296">
      </trkpt>
      <trkpt lat="37.737108" lon="-122.4459887">
      </trkpt>
      <trkpt lat="37.7356085" lon="-122.4464295">
      </trkpt>
      <trkpt lat="37.734863" lon="-122.445834">
      </trkpt>
      <trkpt lat="37.734547" lon="-122.4453998">
      </trkpt>
      <trkpt lat="37.7345532" lon="-122.4443333">
      </trkpt>
      <trkpt lat="37.7350436" lon="-122.4447407">
      </trkpt>
      <trkpt lat="37.7345532" lon="-122.4443333">
      </trkpt>
      <trkpt lat="37.734564" lon="-122.442971">
      </trkpt>
      <trkpt lat="37.7348933" lon="-122.4430431">
      </trkpt>
      <trkpt lat="37.7349546" lon="-122.4431664">
      </trkpt>
      <trkpt lat="37.7362122" lon="-122.4444095">
      </trkpt>
      <trkpt lat="37.7362929" lon="-122.4443767">
      </trkpt>
      <trkpt lat="37.7365048" lon="-122.4436261">
      </trkpt>
      <trkpt lat="37.7359776" lon="-122.4419063">
      </trkpt>
      <trkpt lat="37.7366713" lon="-122.4416087">
      </trkpt>
      <trkpt lat="37.7359776" lon="-122.4419063">
      </trkpt>
      <trkpt lat="37.7348747" lon="-122.4399937">
      </trkpt>
      <trkpt lat="37.7349834" lon="-122.4399432">
      </trkpt>
      <trkpt lat="37.7355402" lon="-122.4397893">
      </trkpt>
      <trkpt lat="37.7358847" lon="-122.4397597">
      </trkpt>
      <trkpt lat="37.7371968" lon="-122.439714">
      </trkpt>
      <trkpt lat="37.7377806" lon="-122.4399413">
      </trkpt>
      <trkpt lat="37.7386952" lon="-122.4395846">
      </trkpt>
      <trkpt lat="37.7383298" lon="-122.4373673">
      </trkpt>
      <trkpt lat="37.7387646" lon="-122.4366991">
      </trkpt>
      <trkpt lat="37.7383298" lon="-122.4373673">
      </trkpt>
      <trkpt lat="37.7378146" lon="-122.436946">
      </trkpt>
      <trkpt lat="37.7383736" lon="-122.436146">
      </trkpt>
      <trkpt lat="37.7386223" lon="-122.435585">
      </trkpt>
      <trkpt lat="37.738797" lon="-122.4346032">
      </trkpt>
      <trkpt lat="37.7382231" lon="-122.4340343">
      </trkpt>
      <trkpt lat="37.7394544" lon="-122.4343274">
      </trkpt>
      <trkpt lat="37.7401142" lon="-122.4343496">
      </trkpt>
      <trkpt lat="37.7401389" lon="-122.433803">
      </trkpt>
      <trkpt lat="37.7400527" lon="-122.4334527">
      </trkpt>
      <trkpt lat="37.7400603" lon="-122.4332412">
      </trkpt>
      <trkpt lat="37.7399223" lon="-122.4330847">
      </trkpt>
      <trkpt lat="37.7383321" lon="-122.4313439">
      </trkpt>
      <trkpt lat="37.738383" lon="-122.4311895">
      </trkpt>
      <trkpt lat="37.7384711" lon="-122.4307878">
      </trkpt>
      <trkpt lat="37.7391947" lon="-122.4312453">
      </trkpt>
      <trkpt lat="37.7385083" lon="-122.4287614">
      </trkpt>
      <trkpt lat="37.7383179" lon="-122.4287518">
      </trkpt>
      <trkpt lat="37.7377786" lon="-122.4295838">
      </trkpt>
      <trkpt lat="37.7383179" lon="-122.4287518">
      </trkpt>
      <trkpt lat="37.7385083" lon="-122.4287614">
      </trkpt>
      <trkpt lat="37.7385508" lon="-122.4285806">
      </trkpt>
      <trkpt lat="37.7385083" lon="-122.4287614">
      </trkpt>
      <trkpt lat="37.7383179" lon="-122.4287518">
      </trkpt>
      <trkpt lat="37.7377518" lon="-122.4282677">
      </trkpt>
      <trkpt lat="37.738669" lon="-122.4281112">
      </trkpt>
      <trkpt lat="37.738854" lon="-122.427428">
      </trkpt>
      <trkpt lat="37.738952" lon="-122.425815">
      </trkpt>
      <trkpt lat="37.7390117" lon="-122.4248865">
      </trkpt>
      <trkpt lat="37.7398569" lon="-122.424519">
      </trkpt>
      <trkpt lat="37.7398586" lon="-122.4242794">
      </trkpt>
      <trkpt lat="37.7398297" lon="-122.4240577">
      </trkpt>
      <trkpt lat="37.7397616" lon="-122.4236722">
      </trkpt>
      <trkpt lat="37.7398681" lon="-122.4236069">
      </trkpt>
      <trkpt lat="37.7398935" lon="-122.4238066">
      </trkpt>
      <trkpt lat="37.7400953" lon="-122.4240022">
      </trkpt>
      <trkpt lat="37.7405528" lon="-122.4238842">
      </trkpt>
      <trkpt lat="37.7406904" lon="-122.423847">
      </trkpt>
      <trkpt lat="37.7417058" lon="-122.4234451">
      </trkpt>
      <trkpt lat="37.7423027" lon="-122.4232269">
      </trkpt>
      <trkpt lat="37.7422973" lon="-122.4233634">
      </trkpt>
      <trkpt lat="37.742248" lon="-122.4241705">
      </trkpt>
      <trkpt lat="37.7430377" lon="-122.4242479">
      </trkpt>
      <trkpt lat="37.743114" lon="-122.4230517">
      </trkpt>
      <trkpt lat="37.7430377" lon="-122.4242479">
      </trkpt>
      <trkpt lat="37.7438481" lon="-122.424327">
      </trkpt>
      <trkpt lat="37.744639" lon="-122.424403">
      </trkpt>
      <trkpt lat="37.7454352" lon="-122.4244795">
      </trkpt>
      <trkpt lat="37.745589" lon="-122.4222841">
      </trkpt>
      <trkpt lat="37.7456162" lon="-122.4221746">
      </trkpt>
      <trkpt lat="37.7463831" lon="-122.4222584">
      </trkpt>
      <trkpt lat="37.7464187" lon="-122.4217265">
      </trkpt>
      <trkpt lat="37.7463831" lon="-122.4222584">
      </trkpt>
      <trkpt lat="37.747187" lon="-122.422332">
      </trkpt>
      <trkpt lat="37.7479638" lon="-122.4224237">
      </trkpt>
      <trkpt lat="37.7480611" lon="-122.4202864">
      </trkpt>
      <trkpt lat="37.7481015" lon="-122.4182761">
      </trkpt>
      <trkpt lat="37.7482127" lon="-122.4182042">
      </trkpt>
      <trkpt lat="37.748192" lon="-122.4191811">
      </trkpt>
      <trkpt lat="37.7489733" lon="-122.4192566">
      </trkpt>
      <trkpt lat="37.7490034" lon="-122.4187345">
      </trkpt>
      <trkpt lat="37.7490402" lon="-122.4181489">
      </trkpt>
      <trkpt lat="37.749074" lon="-122.4175919">
      </trkpt>
      <trkpt lat="37.7491059" lon="-122.4170669">
      </trkpt>
      <trkpt lat="37.7507122" lon="-122.4172209">
      </trkpt>
      <trkpt lat="37.7506802" lon="-122.4177482">
      </trkpt>
      <trkpt lat="37.7521996" lon="-122.4178875">
      </trkpt>
      <trkpt lat="37.7506802" lon="-122.4177482">
      </trkpt>
      <trkpt lat="37.7506461" lon="-122.4183106">
      </trkpt>
      <trkpt lat="37.7522435" lon="-122.4184634">
      </trkpt>
      <trkpt lat="37.7522113" lon="-122.4190334">
      </trkpt>
      <trkpt lat="37.7522435" lon="-122.4184634">
      </trkpt>
      <trkpt lat="37.7538439" lon="-122.4186155">
      </trkpt>
      <trkpt lat="37.7554436" lon="-122.4187696">
      </trkpt>
      <trkpt lat="37.7570441" lon="-122.4189227">
      </trkpt>
      <trkpt lat="37.7569933" lon="-122.4196895">
      </trkpt>
      <trkpt lat="37.7585908" lon="-122.4198416">
      </trkpt>
      <trkpt lat="37.7585506" lon="-122.4205075">
      </trkpt>
      <trkpt lat="37.7585036" lon="-122.4212845">
      </trkpt>
      <trkpt lat="37.7601014" lon="-122.4214395">
      </trkpt>
      <trkpt lat="37.7600512" lon="-122.4222837">
      </trkpt>
      <trkpt lat="37.760013" lon="-122.422879">
      </trkpt>
      <trkpt lat="37.7599724" lon="-122.4235989">
      </trkpt>
      <trkpt lat="37.7615706" lon="-122.4237433">
      </trkpt>
      <trkpt lat="37.7615638" lon="-122.4238377">
      </trkpt>
      <trkpt lat="37.7615706" lon="-122.4237433">
      </trkpt>
      <trkpt lat="37.761617" lon="-122.422955">
      </trkpt>
      <trkpt lat="37.761628" lon="-122.4227826">
      </trkpt>
      <trkpt lat="37.7622335" lon="-122.4229485">
      </trkpt>
      <trkpt lat="37.7632197" lon="-122.4230912">
      </trkpt>
      <trkpt lat="37.763243" lon="-122.422699">
      </trkpt>
      <trkpt lat="37.7633026" lon="-122.4217515">
      </trkpt>
      <trkpt lat="37.7633833" lon="-122.4204382">
      </trkpt>
      <trkpt lat="37.7634379" lon="-122.4195294">
      </trkpt>
      <trkpt lat="37.7627117" lon="-122.4194651">
      </trkpt>
      <trkpt lat="37.762666" lon="-122.420214">
      </trkpt>
      <trkpt lat="37.7626157" lon="-122.420899">
      </trkpt>
      <trkpt lat="37.761747" lon="-122.420813">
      </trkpt>
      <trkpt lat="37.761789" lon="-122.420128">
      </trkpt>
      <trkpt lat="37.7618405" lon="-122.4193819">
      </trkpt>
      <trkpt lat="37.7627117" lon="-122.4194651">
      </trkpt>
      <trkpt lat="37.7618405" lon="-122.4193819">
      </trkpt>
      <trkpt lat="37.7619055" lon="-122.418292">
      </trkpt>
      <trkpt lat="37.7619709" lon="-122.4171965">
      </trkpt>
      <trkpt lat="37.7620369" lon="-122.4160992">
      </trkpt>
      <trkpt lat="37.7621072" lon="-122.4150239">
      </trkpt>
      <trkpt lat="37.7621664" lon="-122.4139849">
      </trkpt>
      <trkpt lat="37.7622379" lon="-122.4128492">
      </trkpt>
      <trkpt lat="37.7616117" lon="-122.4127876">
      </trkpt>
      <trkpt lat="37.7616536" lon="-122.4120776">
      </trkpt>
      <trkpt lat="37.7603719" lon="-122.4119339">
      </trkpt>
      <trkpt lat="37.760385" lon="-122.4117211">
      </trkpt>
      <trkpt lat="37.7604315" lon="-122.4109745">
      </trkpt>
      <trkpt lat="37.7591436" lon="-122.4107799">
      </trkpt>
      <trkpt lat="37.757547" lon="-122.4105486">
      </trkpt>
      <trkpt lat="37.7576026" lon="-122.4096146">
      </trkpt>
      <trkpt lat="37.757547" lon="-122.4105486">
      </trkpt>
      <trkpt lat="37.7559509" lon="-122.4103937">
      </trkpt>
      <trkpt lat="37.7543525" lon="-122.4102399">
      </trkpt>
      <trkpt lat="37.7542945" lon="-122.4111361">
      </trkpt>
      <trkpt lat="37.7542382" lon="-122.4120734">
      </trkpt>
      <trkpt lat="37.754173" lon="-122.413161">
      </trkpt>
      <trkpt lat="37.7541026" lon="-122.4142558">
      </trkpt>
      <trkpt lat="37.7525057" lon="-122.4141024">
      </trkpt>
      <trkpt lat="37.7524404" lon="-122.4151887">
      </trkpt>
      <trkpt lat="37.7523747" lon="-122.4162818">
      </trkpt>
      <trkpt lat="37.7507783" lon="-122.416129">
      </trkpt>
      <trkpt lat="37.7507448" lon="-122.4166814">
      </trkpt>
      <trkpt lat="37.7507122" lon="-122.4172209">
      </trkpt>
      <trkpt lat="37.7506802" lon="-122.4177482">
      </trkpt>
      <trkpt lat="37.7521996" lon="-122.4178875">
      </trkpt>
      <trkpt lat="37.7506802" lon="-122.4177482">
      </trkpt>
      <trkpt lat="37.7507122" lon="-122.4172209">
      </trkpt>
      <trkpt lat="37.7491059" lon="-122.4170669">
      </trkpt>
      <trkpt lat="37.7491395" lon="-122.4165328">
      </trkpt>
      <trkpt lat="37.7491743" lon="-122.4159742">
      </trkpt>
      <trkpt lat="37.74921" lon="-122.4154154">
      </trkpt>
      <trkpt lat="37.7508128" lon="-122.4155588">
      </trkpt>
      <trkpt lat="37.7508444" lon="-122.4150359">
      </trkpt>
      <trkpt lat="37.750876" lon="-122.4145155">
      </trkpt>
      <trkpt lat="37.7509102" lon="-122.4139499">
      </trkpt>
      <trkpt lat="37.7509429" lon="-122.413384">
      </trkpt>
      <trkpt lat="37.7509762" lon="-122.412862">
      </trkpt>
      <trkpt lat="37.7510083" lon="-122.4123323">
      </trkpt>
      <trkpt lat="37.7510425" lon="-122.4117672">
      </trkpt>
      <trkpt lat="37.7526421" lon="-122.4118957">
      </trkpt>
      <trkpt lat="37.7526963" lon="-122.4109823">
      </trkpt>
      <trkpt lat="37.7527504" lon="-122.4100892">
      </trkpt>
      <trkpt lat="37.7528057" lon="-122.4091488">
      </trkpt>
      <trkpt lat="37.7544101" lon="-122.4092755">
      </trkpt>
      <trkpt lat="37.7544628" lon="-122.4083607">
      </trkpt>
      <trkpt lat="37.7545172" lon="-122.4074723">
      </trkpt>
      <trkpt lat="37.7561139" lon="-122.4076238">
      </trkpt>
      <trkpt lat="37.7561683" lon="-122.4067178">
      </trkpt>
      <trkpt lat="37.7561757" lon="-122.4065951">
      </trkpt>
      <trkpt lat="37.756846" lon="-122.4066515">
      </trkpt>
      <trkpt lat="37.7577803" lon="-122.4067448">
      </trkpt>
      <trkpt lat="37.7593761" lon="-122.406899">
      </trkpt>
      <trkpt lat="37.7606694" lon="-122.407024">
      </trkpt>
      <trkpt lat="37.7606613" lon="-122.407142">
      </trkpt>
      <trkpt lat="37.7606084" lon="-122.4080819">
      </trkpt>
      <trkpt lat="37.7618847" lon="-122.4082015">
      </trkpt>
      <trkpt lat="37.7618251" lon="-122.4091697">
      </trkpt>
      <trkpt lat="37.7630967" lon="-122.4092976">
      </trkpt>
      <trkpt lat="37.7630381" lon="-122.4102625">
      </trkpt>
      <trkpt lat="37.7629858" lon="-122.4112409">
      </trkpt>
      <trkpt lat="37.7629258" lon="-122.4121948">
      </trkpt>
      <trkpt lat="37.7642072" lon="-122.4123255">
      </trkpt>
      <trkpt lat="37.7641045" lon="-122.4130255">
      </trkpt>
      <trkpt lat="37.763836" lon="-122.4136116">
      </trkpt>
      <trkpt lat="37.7637018" lon="-122.4151738">
      </trkpt>
      <trkpt lat="37.7647131" lon="-122.4152711">
      </trkpt>
      <trkpt lat="37.7647487" lon="-122.4146567">
      </trkpt>
      <trkpt lat="37.7647131" lon="-122.4152711">
      </trkpt>
      <trkpt lat="37.7653261" lon="-122.4153319">
      </trkpt>
      <trkpt lat="37.7652589" lon="-122.4164113">
      </trkpt>
      <trkpt lat="37.7651935" lon="-122.4175037">
      </trkpt>
      <trkpt lat="37.7651174" lon="-122.4186691">
      </trkpt>
      <trkpt lat="37.765052" lon="-122.4196893">
      </trkpt>
      <trkpt lat="37.7650017" lon="-122.4204887">
      </trkpt>
      <trkpt lat="37.7649949" lon="-122.4205971">
      </trkpt>
      <trkpt lat="37.764977" lon="-122.420901">
      </trkpt>
      <trkpt lat="37.7649158" lon="-122.4219057">
      </trkpt>
      <trkpt lat="37.764859" lon="-122.422853">
      </trkpt>
      <trkpt lat="37.764039" lon="-122.422775">
      </trkpt>
      <trkpt lat="37.7639726" lon="-122.4239836">
      </trkpt>
      <trkpt lat="37.7647936" lon="-122.4240522">
      </trkpt>
      <trkpt lat="37.7647868" lon="-122.4241467">
      </trkpt>
      <trkpt lat="37.7646472" lon="-122.4263255">
      </trkpt>
      <trkpt lat="37.7646386" lon="-122.4264747">
      </trkpt>
      <trkpt lat="37.7639497" lon="-122.4264084">
      </trkpt>
      <trkpt lat="37.7639799" lon="-122.4262613">
      </trkpt>
      <trkpt lat="37.7639497" lon="-122.4264084">
      </trkpt>
      <trkpt lat="37.7635426" lon="-122.4263693">
      </trkpt>
      <trkpt lat="37.7630207" lon="-122.426319">
      </trkpt>
      <trkpt lat="37.762973" lon="-122.427167">
      </trkpt>
      <trkpt lat="37.7628968" lon="-122.4285271">
      </trkpt>
      <trkpt lat="37.7635903" lon="-122.4285938">
      </trkpt>
      <trkpt lat="37.7638927" lon="-122.4286223">
      </trkpt>
      <trkpt lat="37.7645105" lon="-122.4286114">
      </trkpt>
      <trkpt lat="37.7645058" lon="-122.42868">
      </trkpt>
      <trkpt lat="37.7644586" lon="-122.429441">
      </trkpt>
      <trkpt lat="37.764132" lon="-122.4294095">
      </trkpt>
      <trkpt lat="37.7644586" lon="-122.429441">
      </trkpt>
      <trkpt lat="37.7644367" lon="-122.4297945">
      </trkpt>
      <trkpt lat="37.7644163" lon="-122.4301235">
      </trkpt>
      <trkpt lat="37.7643693" lon="-122.4309164">
      </trkpt>
      <trkpt lat="37.7643171" lon="-122.4317156">
      </trkpt>
      <trkpt lat="37.7643693" lon="-122.4309164">
      </trkpt>
      <trkpt lat="37.765771" lon="-122.4310321">
      </trkpt>
      <trkpt lat="37.7660246" lon="-122.4307163">
      </trkpt>
      <trkpt lat="37.7669679" lon="-122.4295276">
      </trkpt>
      <trkpt lat="37.767352" lon="-122.4290342">
      </trkpt>
      <trkpt lat="37.7674106" lon="-122.4289599">
      </trkpt>
      <trkpt lat="37.7675817" lon="-122.4289757">
      </trkpt>
      <trkpt lat="37.767516" lon="-122.4290508">
      </trkpt>
      <trkpt lat="37.7664924" lon="-122.4303682">
      </trkpt>
      <trkpt lat="37.7660108" lon="-122.4309628">
      </trkpt>
      <trkpt lat="37.7660052" lon="-122.4310552">
      </trkpt>
      <trkpt lat="37.7668042" lon="-122.4311254">
      </trkpt>
      <trkpt lat="37.7676036" lon="-122.431214">
      </trkpt>
      <trkpt lat="37.7676741" lon="-122.4301084">
      </trkpt>
      <trkpt lat="37.7677301" lon="-122.4290699">
      </trkpt>
      <trkpt lat="37.7677327" lon="-122.4289921">
      </trkpt>
      <trkpt lat="37.7686722" lon="-122.4290771">
      </trkpt>
      <trkpt lat="37.7677327" lon="-122.4289921">
      </trkpt>
      <trkpt lat="37.7677366" lon="-122.4289155">
      </trkpt>
      <trkpt lat="37.7694635" lon="-122.4291599">
      </trkpt>
      <trkpt lat="37.770355" lon="-122.4292484">
      </trkpt>
      <trkpt lat="37.7702495" lon="-122.4300842">
      </trkpt>
      <trkpt lat="37.7694805" lon="-122.4299423">
      </trkpt>
      <trkpt lat="37.7702495" lon="-122.4300842">
      </trkpt>
      <trkpt lat="37.7707172" lon="-122.4301791">
      </trkpt>
      <trkpt lat="37.771181" lon="-122.4302733">
      </trkpt>
      <trkpt lat="37.7716409" lon="-122.4303668">
      </trkpt>
      <trkpt lat="37.7721133" lon="-122.4304612">
      </trkpt>
      <trkpt lat="37.7719064" lon="-122.4321098">
      </trkpt>
      <trkpt lat="37.7728384" lon="-122.4322981">
      </trkpt>
      <trkpt lat="37.7726293" lon="-122.4339398">
      </trkpt>
      <trkpt lat="37.7735594" lon="-122.4341274">
      </trkpt>
      <trkpt lat="37.7737682" lon="-122.4324859">
      </trkpt>
      <trkpt lat="37.7747024" lon="-122.4326746">
      </trkpt>
      <trkpt lat="37.7744934" lon="-122.4343159">
      </trkpt>
      <trkpt lat="37.774284" lon="-122.4359614">
      </trkpt>
      <trkpt lat="37.7752152" lon="-122.4361506">
      </trkpt>
      <trkpt lat="37.7761472" lon="-122.4363382">
      </trkpt>
      <trkpt lat="37.7759414" lon="-122.43796">
      </trkpt>
      <trkpt lat="37.776872" lon="-122.4381475">
      </trkpt>
      <trkpt lat="37.7770786" lon="-122.4365257">
      </trkpt>
      <trkpt lat="37.7780127" lon="-122.4367137">
      </trkpt>
      <trkpt lat="37.7789418" lon="-122.436901">
      </trkpt>
      <trkpt lat="37.7794105" lon="-122.4369961">
      </trkpt>
      <trkpt lat="37.7798739" lon="-122.437089">
      </trkpt>
      <trkpt lat="37.7808087" lon="-122.437278">
      </trkpt>
      <trkpt lat="37.7810177" lon="-122.4356328">
      </trkpt>
      <trkpt lat="37.7819462" lon="-122.4358202">
      </trkpt>
      <trkpt lat="37.7826719" lon="-122.437655">
      </trkpt>
      <trkpt lat="37.7836467" lon="-122.4378605">
      </trkpt>
      <trkpt lat="37.7839777" lon="-122.4353788">
      </trkpt>
      <trkpt lat="37.7840069" lon="-122.4345543">
      </trkpt>
      <trkpt lat="37.783081" lon="-122.4343659">
      </trkpt>
      <trkpt lat="37.7821549" lon="-122.4341786">
      </trkpt>
      <trkpt lat="37.7819462" lon="-122.4358202">
      </trkpt>
      <trkpt lat="37.7817369" lon="-122.4374661">
      </trkpt>
      <trkpt lat="37.7808087" lon="-122.437278">
      </trkpt>
      <trkpt lat="37.7806028" lon="-122.4389004">
      </trkpt>
      <trkpt lat="37.7805911" lon="-122.4389949">
      </trkpt>
      <trkpt lat="37.779656" lon="-122.438806">
      </trkpt>
      <trkpt lat="37.7794519" lon="-122.440426">
      </trkpt>
      <trkpt lat="37.7785165" lon="-122.44024">
      </trkpt>
      <trkpt lat="37.778308" lon="-122.441883">
      </trkpt>
      <trkpt lat="37.777378" lon="-122.4416973">
      </trkpt>
      <trkpt lat="37.7764448" lon="-122.4415072">
      </trkpt>
      <trkpt lat="37.7762357" lon="-122.4431449">
      </trkpt>
      <trkpt lat="37.7760252" lon="-122.4447938">
      </trkpt>
      <trkpt lat="37.775096" lon="-122.4446057">
      </trkpt>
      <trkpt lat="37.7748839" lon="-122.4462663">
      </trkpt>
      <trkpt lat="37.774873" lon="-122.4463516">
      </trkpt>
      <trkpt lat="37.7746768" lon="-122.4478951">
      </trkpt>
      <trkpt lat="37.7744675" lon="-122.4495393">
      </trkpt>
      <trkpt lat="37.7742578" lon="-122.4511855">
      </trkpt>
      <trkpt lat="37.7740485" lon="-122.4528286">
      </trkpt>
      <trkpt lat="37.7749872" lon="-122.4529258">
      </trkpt>
      <trkpt lat="37.774764" lon="-122.454668">
      </trkpt>
      <trkpt lat="37.7746873" lon="-122.4552749">
      </trkpt>
      <trkpt lat="37.7745557" lon="-122.4563068">
      </trkpt>
    </trkseg>
  </trk>
</gpx>