<?xml version="1.0" encoding="UTF-8"?>
<gpx xmlns="http://www.topografix.com/GPX/1/1" xmlns:xsi="http://www.w3.org/2001/XMLSchema-instance" xsi:schemaLocation="http://www.topografix.com/GPX/1/1 http://www.topografix.com/GPX/1/1/gpx.xsd" version="1.1" creator="gpx.py -- https://github.com/tkrajina/gpxpy">
  <metadata>
    <name>Route Sculptor: dog</name>
    <desc></desc>
  </metadata>
  <trk>
    <name>Route Sculptor: dog</name>
    <trkseg>
      <trkpt lat="37.7795938" lon="-122.4569001">
      </trkpt>
      <trkpt lat="37.7794836" lon="-122.457767">
      </trkpt>
      <trkpt lat="37.7793568" lon="-122.4587569">
      </trkpt>
      <trkpt lat="37.7780104" lon="-122.4586601">
      </trkpt>
      <trkpt lat="37.7775441" lon="-122.4586263">
      </trkpt>
      <trkpt lat="37.777287" lon="-122.458608">
      </trkpt>
      <trkpt lat="37.7761896" lon="-122.4585291">
      </trkpt>
      <trkpt lat="37.775617" lon="-122.458488">
      </trkpt>
      <trkpt lat="37.7755661" lon="-122.4596065">
      </trkpt>
      <trkpt lat="37.7741812" lon="-122.4595066">
      </trkpt>
      <trkpt lat="37.7740454" lon="-122.4605707">
      </trkpt>
      <trkpt lat="37.7741812" lon="-122.4595066">
      </trkpt>
      <trkpt lat="37.7742984" lon="-122.4583894">
      </trkpt>
      <trkpt lat="37.7745557" lon="-122.4563068">
      </trkpt>
      <trkpt lat="37.7746873" lon="-122.4552749">
      </trkpt>
      <trkpt lat="37.774764" lon="-122.454668">
      </trkpt>
      <trkpt lat="37.7729021" lon="-122.4542991">
      </trkpt>
      <trkpt lat="37.7719886" lon="-122.4541025">
      </trkpt>
      <trkpt lat="37.7719088" lon="-122.4540895">
      </trkpt>
      <trkpt lat="37.771841" lon="-122.4540843">
      </trkpt>
      <trkpt lat="37.771492" lon="-122.4540834">
      </trkpt>
      <trkpt lat="37.7704621" lon="-122.4554444">
      </trkpt>
      <trkpt lat="37.7688819" lon="-122.4548875">
      </trkpt>
      <trkpt lat="37.7685305" lon="-122.454998">
      </trkpt>
      <trkpt lat="37.7681799" lon="-122.4555303">
      </trkpt>
      <trkpt lat="37.7680495" lon="-122.4558299">
      </trkpt>
      <trkpt lat="37.7673768" lon="-122.4581214">
      </trkpt>
      <trkpt lat="37.7672529" lon="-122.4586511">
      </trkpt>
      <trkpt lat="37.7673963" lon="-122.4590782">
      </trkpt>
      <trkpt lat="37.7674525" lon="-122.4606944">
      </trkpt>
      <trkpt lat="37.7703799" lon="-122.4603051">
      </trkpt>
      <trkpt lat="37.7711783" lon="-122.4592216">
      </trkpt>
      <trkpt lat="37.7703799" lon="-122.4603051">
      </trkpt>
      <trkpt lat="37.7674525" lon="-122.4606944">
      </trkpt>
      <trkpt lat="37.7673963" lon="-122.4590782">
      </trkpt>
      <trkpt lat="37.7672306" lon="-122.458727">
      </trkpt>
      <trkpt lat="37.7671653" lon="-122.4586878">
      </trkpt>
      <trkpt lat="37.7671898" lon="-122.458613">
      </trkpt>
      <trkpt lat="37.7673768" lon="-122.4581214">
      </trkpt>
      <trkpt lat="37.7680495" lon="-122.4558299">
      </trkpt>
      <trkpt lat="37.7682364" lon="-122.4551096">
      </trkpt>
      <trkpt lat="37.7688819" lon="-122.4548875">
      </trkpt>
      <trkpt lat="37.7704621" lon="-122.4554444">
      </trkpt>
      <trkpt lat="37.7688819" lon="-122.4548875">
      </trkpt>
      <trkpt lat="37.7704621" lon="-122.4554444">
      </trkpt>
      <trkpt lat="37.7713517" lon="-122.4540539">
      </trkpt>
      <trkpt lat="37.7710181" lon="-122.4539231">
      </trkpt>
      <trkpt lat="37.7701073" lon="-122.4537431">
      </trkpt>
      <trkpt lat="37.7691741" lon="-122.4535543">
      </trkpt>
      <trkpt lat="37.7682592" lon="-122.4533691">
      </trkpt>
      <trkpt lat="37.7673104" lon="-122.4531772">
      </trkpt>
      <trkpt lat="37.7682592" lon="-122.4533691">
      </trkpt>
      <trkpt lat="37.7691741" lon="-122.4535543">
      </trkpt>
      <trkpt lat="37.7701073" lon="-122.4537431">
      </trkpt>
      <trkpt lat="37.7710181" lon="-122.4539231">
      </trkpt>
      <trkpt lat="37.7711061" lon="-122.4538861">
      </trkpt>
      <trkpt lat="37.7713959" lon="-122.4539306">
      </trkpt>
      <trkpt lat="37.7715526" lon="-122.4539594">
      </trkpt>
      <trkpt lat="37.771492" lon="-122.4540834">
      </trkpt>
      <trkpt lat="37.7704621" lon="-122.4554444">
      </trkpt>
      <trkpt lat="37.7688819" lon="-122.4548875">
      </trkpt>
      <trkpt lat="37.7685305" lon="-122.454998">
      </trkpt>
      <trkpt lat="37.7682364" lon="-122.4551096">
      </trkpt>
      <trkpt lat="37.7681799" lon="-122.4555303">
      </trkpt>
      <trkpt lat="37.7680495" lon="-122.4558299">
      </trkpt>
      <trkpt lat="37.7682364" lon="-122.4551096">
      </trkpt>
      <trkpt lat="37.7688819" lon="-122.4548875">
      </trkpt>
      <trkpt lat="37.7704621" lon="-122.4554444">
      </trkpt>
      <trkpt lat="37.7688819" lon="-122.4548875">
      </trkpt>
      <trkpt lat="37.7685305" lon="-122.454998">
      </trkpt>
      <trkpt lat="37.7681799" lon="-122.4555303">
      </trkpt>
      <trkpt lat="37.7680495" lon="-122.4558299">
      </trkpt>
      <trkpt lat="37.7673768" lon="-122.4581214">
      </trkpt>
      <trkpt lat="37.7672529" lon="-122.4586511">
      </trkpt>
      <trkpt lat="37.7673963" lon="-122.4590782">
      </trkpt>
      <trkpt lat="37.7674525" lon="-122.4606944">
      </trkpt>
      <trkpt lat="37.7703799" lon="-122.4603051">
      </trkpt>
      <trkpt lat="37.7711783" lon="-122.4592216">
      </trkpt>
      <trkpt lat="37.7703799" lon="-122.4603051">
      </trkpt>
      <trkpt lat="37.7674525" lon="-122.4606944">
      </trkpt>
      <trkpt lat="37.7664412" lon="-122.464398">
      </trkpt>
      <trkpt lat="37.7660794" lon="-122.4643416">
      </trkpt>
      <trkpt lat="37.7660243" lon="-122.4653937">
      </trkpt>
      <trkpt lat="37.7659331" lon="-122.4653873">
      </trkpt>
      <trkpt lat="37.7659691" lon="-122.4643243">
      </trkpt>
      <trkpt lat="37.765076" lon="-122.464257">
      </trkpt>
      <trkpt lat="37.7641439" lon="-122.4641914">
      </trkpt>
      <trkpt lat="37.7640967" lon="-122.4652595">
      </trkpt>
      <trkpt lat="37.7640494" lon="-122.4663328">
      </trkpt>
      <trkpt lat="37.7621837" lon="-122.4662023">
      </trkpt>
      <trkpt lat="37.7603181" lon="-122.4660718">
      </trkpt>
      <trkpt lat="37.7603654" lon="-122.4649999">
      </trkpt>
      <trkpt lat="37.7604127" lon="-122.4639288">
      </trkpt>
      <trkpt lat="37.7604599" lon="-122.4628599">
      </trkpt>
      <trkpt lat="37.760512" lon="-122.461794">
      </trkpt>
      <trkpt lat="37.7595865" lon="-122.460544">
      </trkpt>
      <trkpt lat="37.760512" lon="-122.461794">
      </trkpt>
      <trkpt lat="37.7604599" lon="-122.4628599">
      </trkpt>
      <trkpt lat="37.7586084" lon="-122.463229">
      </trkpt>
      <trkpt lat="37.7544951" lon="-122.461245">
      </trkpt>
      <trkpt lat="37.7550306" lon="-122.46056">
      </trkpt>
      <trkpt lat="37.7559353" lon="-122.459576">
      </trkpt>
      <trkpt lat="37.7589696" lon="-122.4594344">
      </trkpt>
      <trkpt lat="37.7591287" lon="-122.4594763">
      </trkpt>
      <trkpt lat="37.7589696" lon="-122.4594344">
      </trkpt>
      <trkpt lat="37.7559353" lon="-122.459576">
      </trkpt>
      <trkpt lat="37.7550306" lon="-122.46056">
      </trkpt>
      <trkpt lat="37.7546329" lon="-122.4602313">
      </trkpt>
      <trkpt lat="37.7541681" lon="-122.459645">
      </trkpt>
      <trkpt lat="37.7554542" lon="-122.4562821">
      </trkpt>
      <trkpt lat="37.7552863" lon="-122.455566">
      </trkpt>
      <trkpt lat="37.7551371" lon="-122.4550947">
      </trkpt>
      <trkpt lat="37.7551096" lon="-122.4549927">
      </trkpt>
      <trkpt lat="37.757457" lon="-122.4537265">
      </trkpt>
      <trkpt lat="37.7578841" lon="-122.4531316">
      </trkpt>
      <trkpt lat="37.7580806" lon="-122.4529459">
      </trkpt>
      <trkpt lat="37.7588449" lon="-122.4541003">
      </trkpt>
      <trkpt lat="37.7587626" lon="-122.4549758">
      </trkpt>
      <trkpt lat="37.7588449" lon="-122.4541003">
      </trkpt>
      <trkpt lat="37.7580806" lon="-122.4529459">
      </trkpt>
      <trkpt lat="37.7581311" lon="-122.4526123">
      </trkpt>
      <trkpt lat="37.7582452" lon="-122.4524557">
      </trkpt>
      <trkpt lat="37.759051" lon="-122.4485027">
      </trkpt>
      <trkpt lat="37.7591358" lon="-122.4479433">
      </trkpt>
      <trkpt lat="37.7593757" lon="-122.4474411">
      </trkpt>
      <trkpt lat="37.7601129" lon="-122.4470098">
      </trkpt>
      <trkpt lat="37.7610952" lon="-122.4464564">
      </trkpt>
      <trkpt lat="37.7609359" lon="-122.4476471">
      </trkpt>
      <trkpt lat="37.7608549" lon="-122.4489773">
      </trkpt>
      <trkpt lat="37.7607659" lon="-122.4504366">
      </trkpt>
      <trkpt lat="37.7596177" lon="-122.4492343">
      </trkpt>
      <trkpt lat="37.7594768" lon="-122.451571">
      </trkpt>
      <trkpt lat="37.7596177" lon="-122.4492343">
      </trkpt>
      <trkpt lat="37.7607659" lon="-122.4504366">
      </trkpt>
      <trkpt lat="37.7608549" lon="-122.4489773">
      </trkpt>
      <trkpt lat="37.7609359" lon="-122.4476471">
      </trkpt>
      <trkpt lat="37.7610952" lon="-122.4464564">
      </trkpt>
      <trkpt lat="37.7601129" lon="-122.4470098">
      </trkpt>
      <trkpt lat="37.7593757" lon="-122.4474411">
      </trkpt>
      <trkpt lat="37.7591358" lon="-122.4479433">
      </trkpt>
      <trkpt lat="37.759051" lon="-122.4485027">
      </trkpt>
      <trkpt lat="37.7578284" lon="-122.4481654">
      </trkpt>
      <trkpt lat="37.758193" lon="-122.44949">
      </trkpt>
      <trkpt lat="37.7574582" lon="-122.4502984">
      </trkpt>
      <trkpt lat="37.7567097" lon="-122.4511238">
      </trkpt>
      <trkpt lat="37.7567534" lon="-122.4503939">
      </trkpt>
      <trkpt lat="37.7568474" lon="-122.4488739">
      </trkpt>
      <trkpt lat="37.7567534" lon="-122.4503939">
      </trkpt>
      <trkpt lat="37.7558779" lon="-122.4495596">
      </trkpt>
      <trkpt lat="37.7541308" lon="-122.4495919">
      </trkpt>
      <trkpt lat="37.7539356" lon="-122.450025">
      </trkpt>
      <trkpt lat="37.7536228" lon="-122.4507157">
      </trkpt>
      <trkpt lat="37.7539342" lon="-122.4511271">
      </trkpt>
      <trkpt lat="37.754761" lon="-122.449842">
      </trkpt>
      <trkpt lat="37.7539342" lon="-122.4511271">
      </trkpt>
      <trkpt lat="37.7536228" lon="-122.4507157">
      </trkpt>
      <trkpt lat="37.7527502" lon="-122.4507506">
      </trkpt>
      <trkpt lat="37.7498373" lon="-122.4502638">
      </trkpt>
      <trkpt lat="37.7488236" lon="-122.4503818">
      </trkpt>
      <trkpt lat="37.7485014" lon="-122.4491446">
      </trkpt>
      <trkpt lat="37.7468467" lon="-122.4498627">
      </trkpt>
      <trkpt lat="37.7466155" lon="-122.4495208">
      </trkpt>
      <trkpt lat="37.7471022" lon="-122.4490804">
      </trkpt>
      <trkpt lat="37.7541043" lon="-122.4472376">
      </trkpt>
      <trkpt lat="37.7471022" lon="-122.4490804">
      </trkpt>
      <trkpt lat="37.7466155" lon="-122.4495208">
      </trkpt>
      <trkpt lat="37.745899" lon="-122.4508255">
      </trkpt>
      <trkpt lat="37.7457663" lon="-122.4507583">
      </trkpt>
      <trkpt lat="37.7464036" lon="-122.4477574">
      </trkpt>
      <trkpt lat="37.7467979" lon="-122.4458926">
      </trkpt>
      <trkpt lat="37.74693" lon="-122.4449565">
      </trkpt>
      <trkpt lat="37.7469466" lon="-122.4448421">
      </trkpt>
      <trkpt lat="37.7470342" lon="-122.4448792">
      </trkpt>
      <trkpt lat="37.748007" lon="-122.4450153">
      </trkpt>
      <trkpt lat="37.7483735" lon="-122.4450401">
      </trkpt>
      <trkpt lat="37.7485034" lon="-122.4450565">
      </trkpt>
      <trkpt lat="37.7492551" lon="-122.4448469">
      </trkpt>
      <trkpt lat="37.7505228" lon="-122.4457517">
      </trkpt>
      <trkpt lat="37.7527816" lon="-122.4463156">
      </trkpt>
      <trkpt lat="37.7529092" lon="-122.4461604">
      </trkpt>
      <trkpt lat="37.7527816" lon="-122.4463156">
      </trkpt>
      <trkpt lat="37.7505228" lon="-122.4457517">
      </trkpt>
      <trkpt lat="37.7509012" lon="-122.4452895">
      </trkpt>
      <trkpt lat="37.7509513" lon="-122.4448129">
      </trkpt>
      <trkpt lat="37.7531435" lon="-122.4446506">
      </trkpt>
      <trkpt lat="37.752747" lon="-122.443762">
      </trkpt>
      <trkpt lat="37.750413" lon="-122.4439389">
      </trkpt>
      <trkpt lat="37.7514294" lon="-122.4432734">
      </trkpt>
      <trkpt lat="37.750413" lon="-122.4439389">
      </trkpt>
      <trkpt lat="37.7501647" lon="-122.4437188">
      </trkpt>
      <trkpt lat="37.7500525" lon="-122.4434324">
      </trkpt>
      <trkpt lat="37.7470342" lon="-122.4448792">
      </trkpt>
      <trkpt lat="37.74693" lon="-122.4449565">
      </trkpt>
      <trkpt lat="37.7466308" lon="-122.4447109">
      </trkpt>
      <trkpt lat="37.7466633" lon="-122.4445028">
      </trkpt>
      <trkpt lat="37.7466725" lon="-122.4443771">
      </trkpt>
      <trkpt lat="37.7466752" lon="-122.4443525">
      </trkpt>
      <trkpt lat="37.7467772" lon="-122.4439982">
      </trkpt>
      <trkpt lat="37.746894" lon="-122.443828">
      </trkpt>
      <trkpt lat="37.7481647" lon="-122.4425143">
      </trkpt>
      <trkpt lat="37.7491749" lon="-122.4425979">
      </trkpt>
      <trkpt lat="37.7507716" lon="-122.4427957">
      </trkpt>
      <trkpt lat="37.7491749" lon="-122.4425979">
      </trkpt>
      <trkpt lat="37.7492387" lon="-122.4415447">
      </trkpt>
      <trkpt lat="37.7491749" lon="-122.4425979">
      </trkpt>
      <trkpt lat="37.7481647" lon="-122.4425143">
      </trkpt>
      <trkpt lat="37.746894" lon="-122.443828">
      </trkpt>
      <trkpt lat="37.7467772" lon="-122.4439982">
      </trkpt>
      <trkpt lat="37.7465877" lon="-122.4438019">
      </trkpt>
      <trkpt lat="37.7465152" lon="-122.4434165">
      </trkpt>
      <trkpt lat="37.7468531" lon="-122.4422203">
      </trkpt>
      <trkpt lat="37.7469274" lon="-122.4422605">
      </trkpt>
      <trkpt lat="37.747777" lon="-122.440472">
      </trkpt>
      <trkpt lat="37.7469274" lon="-122.4422605">
      </trkpt>
      <trkpt lat="37.7468531" lon="-122.4422203">
      </trkpt>
      <trkpt lat="37.7453114" lon="-122.4401682">
      </trkpt>
      <trkpt lat="37.7453178" lon="-122.4400678">
      </trkpt>
      <trkpt lat="37.7463624" lon="-122.4401162">
      </trkpt>
      <trkpt lat="37.7469274" lon="-122.4422605">
      </trkpt>
      <trkpt lat="37.7468531" lon="-122.4422203">
      </trkpt>
      <trkpt lat="37.7453114" lon="-122.4401682">
      </trkpt>
      <trkpt lat="37.7435639" lon="-122.4377581">
      </trkpt>
      <trkpt lat="37.7428418" lon="-122.4381079">
      </trkpt>
      <trkpt lat="37.7425638" lon="-122.4387978">
      </trkpt>
      <trkpt lat="37.7423548" lon="-122.4401485">
      </trkpt>
      <trkpt lat="37.7406495" lon="-122.4386801">
      </trkpt>
      <trkpt lat="37.7399654" lon="-122.4375187">
      </trkpt>
      <trkpt lat="37.7406495" lon="-122.4386801">
      </trkpt>
      <trkpt lat="37.7401807" lon="-122.4359136">
      </trkpt>
      <trkpt lat="37.7392619" lon="-122.4363846">
      </trkpt>
      <trkpt lat="37.7387646" lon="-122.4366991">
      </trkpt>
      <trkpt lat="37.7383298" lon="-122.4373673">
      </trkpt>
      <trkpt lat="37.7387646" lon="-122.4366991">
      </trkpt>
      <trkpt lat="37.7383298" lon="-122.4373673">
      </trkpt>
      <trkpt lat="37.7378146" lon="-122.436946">
      </trkpt>
      <trkpt lat="37.7383736" lon="-122.436146">
      </trkpt>
      <trkpt lat="37.7386223" lon="-122.435585">
      </trkpt>
      <trkpt lat="37.738797" lon="-122.4346032">
      </trkpt>
      <trkpt lat="37.7382231" lon="-122.4340343">
      </trkpt>
      <trkpt lat="37.7394544" lon="-122.4343274">
      </trkpt>
      <trkpt lat="37.7401142" lon="-122.4343496">
      </trkpt>
      <trkpt lat="37.7401389" lon="-122.433803">
      </trkpt>
      <trkpt lat="37.7400527" lon="-122.4334527">
      </trkpt>
      <trkpt lat="37.7400603" lon="-122.4332412">
      </trkpt>
      <trkpt lat="37.7399223" lon="-122.4330847">
      </trkpt>
      <trkpt lat="37.7383321" lon="-122.4313439">
      </trkpt>
      <trkpt lat="37.738383" lon="-122.4311895">
      </trkpt>
      <trkpt lat="37.7384711" lon="-122.4307878">
      </trkpt>
      <trkpt lat="37.7391947" lon="-122.4312453">
      </trkpt>
      <trkpt lat="37.7384711" lon="-122.4307878">
      </trkpt>
      <trkpt lat="37.738383" lon="-122.4311895">
      </trkpt>
      <trkpt lat="37.73842" lon="-122.4313083">
      </trkpt>
      <trkpt lat="37.7400721" lon="-122.4329372">
      </trkpt>
      <trkpt lat="37.7400603" lon="-122.4332412">
      </trkpt>
      <trkpt lat="37.7400527" lon="-122.4334527">
      </trkpt>
      <trkpt lat="37.7401389" lon="-122.433803">
      </trkpt>
      <trkpt lat="37.7401142" lon="-122.4343496">
      </trkpt>
      <trkpt lat="37.7401498" lon="-122.435825">
      </trkpt>
      <trkpt lat="37.7414914" lon="-122.4355633">
      </trkpt>
      <trkpt lat="37.7420893" lon="-122.4354324">
      </trkpt>
      <trkpt lat="37.7425893" lon="-122.4355338">
      </trkpt>
      <trkpt lat="37.7431643" lon="-122.4355923">
      </trkpt>
      <trkpt lat="37.7432226" lon="-122.4346224">
      </trkpt>
      <trkpt lat="37.7433017" lon="-122.4333206">
      </trkpt>
      <trkpt lat="37.742495" lon="-122.433315">
      </trkpt>
      <trkpt lat="37.741903" lon="-122.433259">
      </trkpt>
      <trkpt lat="37.741775" lon="-122.4324688">
      </trkpt>
      <trkpt lat="37.7415217" lon="-122.4319887">
      </trkpt>
      <trkpt lat="37.7404644" lon="-122.4308048">
      </trkpt>
      <trkpt lat="37.7418107" lon="-122.4320806">
      </trkpt>
      <trkpt lat="37.741775" lon="-122.4324688">
      </trkpt>
      <trkpt lat="37.741903" lon="-122.433259">
      </trkpt>
      <trkpt lat="37.742495" lon="-122.433315">
      </trkpt>
      <trkpt lat="37.7433017" lon="-122.4333206">
      </trkpt>
      <trkpt lat="37.7440809" lon="-122.4333969">
      </trkpt>
      <trkpt lat="37.744881" lon="-122.433466">
      </trkpt>
      <trkpt lat="37.7447596" lon="-122.4357041">
      </trkpt>
      <trkpt lat="37.7455565" lon="-122.4357759">
      </trkpt>
      <trkpt lat="37.745612" lon="-122.434723">
      </trkpt>
      <trkpt lat="37.7465058" lon="-122.4337426">
      </trkpt>
      <trkpt lat="37.7473128" lon="-122.4337266">
      </trkpt>
      <trkpt lat="37.7480951" lon="-122.4338017">
      </trkpt>
      <trkpt lat="37.7488942" lon="-122.4338783">
      </trkpt>
      <trkpt lat="37.7496984" lon="-122.4339554">
      </trkpt>
      <trkpt lat="37.749834" lon="-122.4317174">
      </trkpt>
      <trkpt lat="37.749028" lon="-122.43164">
      </trkpt>
      <trkpt lat="37.748229" lon="-122.431557">
      </trkpt>
      <trkpt lat="37.7474454" lon="-122.4314781">
      </trkpt>
      <trkpt lat="37.74663" lon="-122.431412">
      </trkpt>
      <trkpt lat="37.746763" lon="-122.429193">
      </trkpt>
      <trkpt lat="37.74596" lon="-122.429116">
      </trkpt>
      <trkpt lat="37.7458486" lon="-122.4309805">
      </trkpt>
      <trkpt lat="37.74596" lon="-122.429116">
      </trkpt>
      <trkpt lat="37.745165" lon="-122.429037">
      </trkpt>
      <trkpt lat="37.744363" lon="-122.428959">
      </trkpt>
      <trkpt lat="37.7435712" lon="-122.4288836">
      </trkpt>
      <trkpt lat="37.742764" lon="-122.428806">
      </trkpt>
      <trkpt lat="37.741964" lon="-122.428729">
      </trkpt>
      <trkpt lat="37.741953" lon="-122.428911">
      </trkpt>
      <trkpt lat="37.741964" lon="-122.428729">
      </trkpt>
      <trkpt lat="37.7420172" lon="-122.4278906">
      </trkpt>
      <trkpt lat="37.739668" lon="-122.427652">
      </trkpt>
      <trkpt lat="37.739731" lon="-122.426619">
      </trkpt>
      <trkpt lat="37.739795" lon="-122.4255968">
      </trkpt>
      <trkpt lat="37.7398569" lon="-122.424519">
      </trkpt>
      <trkpt lat="37.7398586" lon="-122.4242794">
      </trkpt>
      <trkpt lat="37.7398297" lon="-122.4240577">
      </trkpt>
      <trkpt lat="37.7397616" lon="-122.4236722">
      </trkpt>
      <trkpt lat="37.7398681" lon="-122.4236069">
      </trkpt>
      <trkpt lat="37.7398935" lon="-122.4238066">
      </trkpt>
      <trkpt lat="37.7400953" lon="-122.4240022">
      </trkpt>
      <trkpt lat="37.7405528" lon="-122.4238842">
      </trkpt>
      <trkpt lat="37.7406904" lon="-122.423847">
      </trkpt>
      <trkpt lat="37.7406475" lon="-122.4230948">
      </trkpt>
      <trkpt lat="37.7403035" lon="-122.422255">
      </trkpt>
      <trkpt lat="37.7406475" lon="-122.4230948">
      </trkpt>
      <trkpt lat="37.7410297" lon="-122.4228477">
      </trkpt>
      <trkpt lat="37.7417631" lon="-122.4223736">
      </trkpt>
      <trkpt lat="37.7417058" lon="-122.4234451">
      </trkpt>
      <trkpt lat="37.7423027" lon="-122.4232269">
      </trkpt>
      <trkpt lat="37.7422973" lon="-122.4233634">
      </trkpt>
      <trkpt lat="37.742248" lon="-122.4241705">
      </trkpt>
      <trkpt lat="37.7430377" lon="-122.4242479">
      </trkpt>
      <trkpt lat="37.743114" lon="-122.4230517">
      </trkpt>
      <trkpt lat="37.7430377" lon="-122.4242479">
      </trkpt>
      <trkpt lat="37.7438481" lon="-122.424327">
      </trkpt>
      <trkpt lat="37.744639" lon="-122.424403">
      </trkpt>
      <trkpt lat="37.7454352" lon="-122.4244795">
      </trkpt>
      <trkpt lat="37.7462369" lon="-122.4245565">
      </trkpt>
      <trkpt lat="37.7470378" lon="-122.4246334">
      </trkpt>
      <trkpt lat="37.7478447" lon="-122.424711">
      </trkpt>
      <trkpt lat="37.7486359" lon="-122.424787">
      </trkpt>
      <trkpt lat="37.748711" lon="-122.423677">
      </trkpt>
      <trkpt lat="37.7503117" lon="-122.4238307">
      </trkpt>
      <trkpt lat="37.7519118" lon="-122.4239945">
      </trkpt>
      <trkpt lat="37.751975" lon="-122.422927">
      </trkpt>
      <trkpt lat="37.7519806" lon="-122.4228345">
      </trkpt>
      <trkpt lat="37.7520551" lon="-122.4215958">
      </trkpt>
      <trkpt lat="37.752111" lon="-122.4206657">
      </trkpt>
      <trkpt lat="37.7521807" lon="-122.4195565">
      </trkpt>
      <trkpt lat="37.7522113" lon="-122.4190334">
      </trkpt>
      <trkpt lat="37.7506129" lon="-122.4188715">
      </trkpt>
      <trkpt lat="37.7506461" lon="-122.4183106">
      </trkpt>
      <trkpt lat="37.7490402" lon="-122.4181489">
      </trkpt>
      <trkpt lat="37.749074" lon="-122.4175919">
      </trkpt>
      <trkpt lat="37.7491059" lon="-122.4170669">
      </trkpt>
      <trkpt lat="37.7488008" lon="-122.4170376">
      </trkpt>
      <trkpt lat="37.748218" lon="-122.4179426">
      </trkpt>
      <trkpt lat="37.7482127" lon="-122.4182042">
      </trkpt>
      <trkpt lat="37.7481015" lon="-122.4182761">
      </trkpt>
      <trkpt lat="37.7467824" lon="-122.4191289">
      </trkpt>
      <trkpt lat="37.7467034" lon="-122.4183326">
      </trkpt>
      <trkpt lat="37.7460833" lon="-122.4181898">
      </trkpt>
      <trkpt lat="37.7459644" lon="-122.417837">
      </trkpt>
      <trkpt lat="37.7458733" lon="-122.4176106">
      </trkpt>
      <trkpt lat="37.745723" lon="-122.4172368">
      </trkpt>
      <trkpt lat="37.7454683" lon="-122.4166011">
      </trkpt>
      <trkpt lat="37.7452758" lon="-122.4161253">
      </trkpt>
      <trkpt lat="37.7451166" lon="-122.4157328">
      </trkpt>
      <trkpt lat="37.7438308" lon="-122.416417">
      </trkpt>
      <trkpt lat="37.7451166" lon="-122.4157328">
      </trkpt>
      <trkpt lat="37.7452758" lon="-122.4161253">
      </trkpt>
      <trkpt lat="37.7454683" lon="-122.4166011">
      </trkpt>
      <trkpt lat="37.743447" lon="-122.417976">
      </trkpt>
      <trkpt lat="37.7420725" lon="-122.4188829">
      </trkpt>
      <trkpt lat="37.7412433" lon="-122.4187996">
      </trkpt>
      <trkpt lat="37.7410119" lon="-122.4188971">
      </trkpt>
      <trkpt lat="37.7408094" lon="-122.4183876">
      </trkpt>
      <trkpt lat="37.740786" lon="-122.4183241">
      </trkpt>
      <trkpt lat="37.7405667" lon="-122.4177766">
      </trkpt>
      <trkpt lat="37.7416724" lon="-122.4170589">
      </trkpt>
      <trkpt lat="37.7416662" lon="-122.4169436">
      </trkpt>
      <trkpt lat="37.741637" lon="-122.416306">
      </trkpt>
      <trkpt lat="37.741609" lon="-122.415692">
      </trkpt>
      <trkpt lat="37.7415808" lon="-122.4150904">
      </trkpt>
      <trkpt lat="37.7422005" lon="-122.4150411">
      </trkpt>
      <trkpt lat="37.7421267" lon="-122.4158385">
      </trkpt>
      <trkpt lat="37.7422005" lon="-122.4150411">
      </trkpt>
      <trkpt lat="37.7424617" lon="-122.4143949">
      </trkpt>
      <trkpt lat="37.7415687" lon="-122.4144673">
      </trkpt>
      <trkpt lat="37.7415808" lon="-122.4150904">
      </trkpt>
      <trkpt lat="37.7415687" lon="-122.4144673">
      </trkpt>
      <trkpt lat="37.7403532" lon="-122.4145659">
      </trkpt>
      <trkpt lat="37.7403219" lon="-122.4139236">
      </trkpt>
      <trkpt lat="37.7415218" lon="-122.4138417">
      </trkpt>
      <trkpt lat="37.741474" lon="-122.413213">
      </trkpt>
      <trkpt lat="37.7414598" lon="-122.4129355">
      </trkpt>
      <trkpt lat="37.741442" lon="-122.412588">
      </trkpt>
      <trkpt lat="37.7414236" lon="-122.412221">
      </trkpt>
      <trkpt lat="37.741754" lon="-122.4119488">
      </trkpt>
      <trkpt lat="37.741981" lon="-122.4119388">
      </trkpt>
      <trkpt lat="37.741754" lon="-122.4119488">
      </trkpt>
      <trkpt lat="37.7414236" lon="-122.412221">
      </trkpt>
      <trkpt lat="37.7414253" lon="-122.41199">
      </trkpt>
      <trkpt lat="37.741395" lon="-122.4112148">
      </trkpt>
      <trkpt lat="37.7417557" lon="-122.4101018">
      </trkpt>
      <trkpt lat="37.742192" lon="-122.410669">
      </trkpt>
      <trkpt lat="37.7417557" lon="-122.4101018">
      </trkpt>
      <trkpt lat="37.743022" lon="-122.4093807">
      </trkpt>
      <trkpt lat="37.7432297" lon="-122.4093976">
      </trkpt>
      <trkpt lat="37.743749" lon="-122.410338">
      </trkpt>
      <trkpt lat="37.744325" lon="-122.410389">
      </trkpt>
      <trkpt lat="37.744918" lon="-122.410441">
      </trkpt>
      <trkpt lat="37.745298" lon="-122.410474">
      </trkpt>
      <trkpt lat="37.745571" lon="-122.410498">
      </trkpt>
      <trkpt lat="37.746323" lon="-122.410565">
      </trkpt>
      <trkpt lat="37.7467766" lon="-122.4106204">
      </trkpt>
      <trkpt lat="37.746952" lon="-122.4106414">
      </trkpt>
      <trkpt lat="37.7471394" lon="-122.4106184">
      </trkpt>
      <trkpt lat="37.7473614" lon="-122.4104987">
      </trkpt>
      <trkpt lat="37.7482809" lon="-122.4105635">
      </trkpt>
      <trkpt lat="37.7483746" lon="-122.4105726">
      </trkpt>
      <trkpt lat="37.7483548" lon="-122.4115088">
      </trkpt>
      <trkpt lat="37.7489487" lon="-122.4115672">
      </trkpt>
      <trkpt lat="37.7494348" lon="-122.4116135">
      </trkpt>
      <trkpt lat="37.7510425" lon="-122.4117672">
      </trkpt>
      <trkpt lat="37.7510083" lon="-122.4123323">
      </trkpt>
      <trkpt lat="37.7525397" lon="-122.4124789">
      </trkpt>
      <trkpt lat="37.75389239680457" lon="-122.41286320567286">
      </trkpt>
      <trkpt lat="37.7557722" lon="-122.4133134">
      </trkpt>
      <trkpt lat="37.7573751" lon="-122.4134729">
      </trkpt>
      <trkpt lat="37.7557722" lon="-122.4133134">
      </trkpt>
      <trkpt lat="37.7558377" lon="-122.4122259">
      </trkpt>
      <trkpt lat="37.7542382" lon="-122.4120734">
      </trkpt>
      <trkpt lat="37.7526421" lon="-122.4118957">
      </trkpt>
      <trkpt lat="37.7526963" lon="-122.4109823">
      </trkpt>
      <trkpt lat="37.7527504" lon="-122.4100892">
      </trkpt>
      <trkpt lat="37.7511541" lon="-122.4099347">
      </trkpt>
      <trkpt lat="37.7495561" lon="-122.4097813">
      </trkpt>
      <trkpt lat="37.7483939" lon="-122.4096701">
      </trkpt>
      <trkpt lat="37.7483746" lon="-122.4105726">
      </trkpt>
      <trkpt lat="37.7482809" lon="-122.4105635">
      </trkpt>
      <trkpt lat="37.7483001" lon="-122.409662">
      </trkpt>
      <trkpt lat="37.7476006" lon="-122.4094918">
      </trkpt>
      <trkpt lat="37.7467763" lon="-122.408887">
      </trkpt>
      <trkpt lat="37.7465624" lon="-122.4090383">
      </trkpt>
      <trkpt lat="37.7464226" lon="-122.4090527">
      </trkpt>
      <trkpt lat="37.746465" lon="-122.408125">
      </trkpt>
      <trkpt lat="37.746595" lon="-122.406496">
      </trkpt>
      <trkpt lat="37.745841" lon="-122.40662">
      </trkpt>
      <trkpt lat="37.7454596" lon="-122.4073287">
      </trkpt>
      <trkpt lat="37.745129" lon="-122.408613">
      </trkpt>
      <trkpt lat="37.744886" lon="-122.407601">
      </trkpt>
      <trkpt lat="37.744406" lon="-122.407787">
      </trkpt>
      <trkpt lat="37.7442549" lon="-122.4078441">
      </trkpt>
      <trkpt lat="37.743656" lon="-122.4080073">
      </trkpt>
      <trkpt lat="37.7442549" lon="-122.4078441">
      </trkpt>
      <trkpt lat="37.744406" lon="-122.407787">
      </trkpt>
      <trkpt lat="37.744886" lon="-122.407601">
      </trkpt>
      <trkpt lat="37.7454596" lon="-122.4073287">
      </trkpt>
      <trkpt lat="37.745841" lon="-122.40662">
      </trkpt>
      <trkpt lat="37.746595" lon="-122.406496">
      </trkpt>
      <trkpt lat="37.745635" lon="-122.406024">
      </trkpt>
      <trkpt lat="37.744812" lon="-122.406896">
      </trkpt>
      <trkpt lat="37.7445356" lon="-122.4057924">
      </trkpt>
      <trkpt lat="37.744093" lon="-122.4060566">
      </trkpt>
      <trkpt lat="37.7423622" lon="-122.407444">
      </trkpt>
      <trkpt lat="37.744093" lon="-122.4060566">
      </trkpt>
      <trkpt lat="37.7445356" lon="-122.4057924">
      </trkpt>
      <trkpt lat="37.744812" lon="-122.406896">
      </trkpt>
      <trkpt lat="37.7430817" lon="-122.4081291">
      </trkpt>
      <trkpt lat="37.7412895" lon="-122.4087798">
      </trkpt>
      <trkpt lat="37.7412957" lon="-122.4088918">
      </trkpt>
      <trkpt lat="37.741316" lon="-122.4095">
      </trkpt>
      <trkpt lat="37.739732" lon="-122.4096734">
      </trkpt>
      <trkpt lat="37.7397233" lon="-122.4095133">
      </trkpt>
      <trkpt lat="37.7396887" lon="-122.4088954">
      </trkpt>
      <trkpt lat="37.7396132" lon="-122.407656">
      </trkpt>
      <trkpt lat="37.7395789" lon="-122.407048">
      </trkpt>
      <trkpt lat="37.7395704" lon="-122.40692">
      </trkpt>
      <trkpt lat="37.7404963" lon="-122.4068159">
      </trkpt>
      <trkpt lat="37.7424775" lon="-122.405616">
      </trkpt>
      <trkpt lat="37.743027" lon="-122.405207">
      </trkpt>
      <trkpt lat="37.7431096" lon="-122.405339">
      </trkpt>
      <trkpt lat="37.7432582" lon="-122.4055225">
      </trkpt>
      <trkpt lat="37.7431096" lon="-122.405339">
      </trkpt>
      <trkpt lat="37.743027" lon="-122.405207">
      </trkpt>
      <trkpt lat="37.7457071" lon="-122.4039108">
      </trkpt>
      <trkpt lat="37.7451801" lon="-122.4042207">
      </trkpt>
      <trkpt lat="37.7442984" lon="-122.4045401">
      </trkpt>
      <trkpt lat="37.7436924" lon="-122.4049265">
      </trkpt>
      <trkpt lat="37.7431096" lon="-122.405339">
      </trkpt>
      <trkpt lat="37.743027" lon="-122.405207">
      </trkpt>
      <trkpt lat="37.7428162" lon="-122.4048459">
      </trkpt>
      <trkpt lat="37.7425449" lon="-122.4043553">
      </trkpt>
      <trkpt lat="37.743715" lon="-122.4034441">
      </trkpt>
      <trkpt lat="37.7436291" lon="-122.4032029">
      </trkpt>
      <trkpt lat="37.7437331" lon="-122.4031301">
      </trkpt>
      <trkpt lat="37.7438551" lon="-122.4032479">
      </trkpt>
      <trkpt lat="37.746334" lon="-122.402698">
      </trkpt>
      <trkpt lat="37.7459637" lon="-122.4020367">
      </trkpt>
      <trkpt lat="37.746334" lon="-122.402698">
      </trkpt>
      <trkpt lat="37.7471596" lon="-122.4032588">
      </trkpt>
      <trkpt lat="37.7473068" lon="-122.4033162">
      </trkpt>
      <trkpt lat="37.7477045" lon="-122.4035413">
      </trkpt>
      <trkpt lat="37.7481295" lon="-122.40355">
      </trkpt>
      <trkpt lat="37.7494093" lon="-122.4020865">
      </trkpt>
      <trkpt lat="37.7495249" lon="-122.4028981">
      </trkpt>
      <trkpt lat="37.7495355" lon="-122.4029714">
      </trkpt>
      <trkpt lat="37.7491264" lon="-122.4053526">
      </trkpt>
      <trkpt lat="37.7488329" lon="-122.4067218">
      </trkpt>
      <trkpt lat="37.7484858" lon="-122.4077935">
      </trkpt>
      <trkpt lat="37.748411" lon="-122.4087333">
      </trkpt>
      <trkpt lat="37.7483061" lon="-122.4087149">
      </trkpt>
      <trkpt lat="37.74833" lon="-122.4079037">
      </trkpt>
      <trkpt lat="37.7487187" lon="-122.4067512">
      </trkpt>
      <trkpt lat="37.7488295" lon="-122.4063861">
      </trkpt>
      <trkpt lat="37.7489461" lon="-122.4058123">
      </trkpt>
      <trkpt lat="37.7493807" lon="-122.4034247">
      </trkpt>
      <trkpt lat="37.749384" lon="-122.402533">
      </trkpt>
      <trkpt lat="37.7494093" lon="-122.4020865">
      </trkpt>
      <trkpt lat="37.7495249" lon="-122.4028981">
      </trkpt>
      <trkpt lat="37.750595" lon="-122.402228">
      </trkpt>
      <trkpt lat="37.75197" lon="-122.402323">
      </trkpt>
      <trkpt lat="37.7532366" lon="-122.4024433">
      </trkpt>
      <trkpt lat="37.7545227" lon="-122.4025654">
      </trkpt>
      <trkpt lat="37.7544754" lon="-122.4035519">
      </trkpt>
      <trkpt lat="37.7544158" lon="-122.4045063">
      </trkpt>
      <trkpt lat="37.754356" lon="-122.405477">
      </trkpt>
      <trkpt lat="37.7542983" lon="-122.4064152">
      </trkpt>
      <trkpt lat="37.7561757" lon="-122.4065951">
      </trkpt>
      <trkpt lat="37.756846" lon="-122.4066515">
      </trkpt>
      <trkpt lat="37.7577803" lon="-122.4067448">
      </trkpt>
      <trkpt lat="37.7593761" lon="-122.406899">
      </trkpt>
      <trkpt lat="37.7606694" lon="-122.407024">
      </trkpt>
      <trkpt lat="37.7619426" lon="-122.407148">
      </trkpt>
      <trkpt lat="37.7632168" lon="-122.4073226">
      </trkpt>
      <trkpt lat="37.7644869" lon="-122.407444">
      </trkpt>
      <trkpt lat="37.7657809" lon="-122.407568">
      </trkpt>
      <trkpt lat="37.7670817" lon="-122.4076907">
      </trkpt>
      <trkpt lat="37.7683619" lon="-122.4078137">
      </trkpt>
      <trkpt lat="37.7685744" lon="-122.4078316">
      </trkpt>
      <trkpt lat="37.7692412" lon="-122.4079015">
      </trkpt>
      <trkpt lat="37.7692104" lon="-122.4083342">
      </trkpt>
      <trkpt lat="37.7694301" lon="-122.4108749">
      </trkpt>
      <trkpt lat="37.7703545" lon="-122.4097443">
      </trkpt>
      <trkpt lat="37.7673212" lon="-122.4054914">
      </trkpt>
      <trkpt lat="37.7666613" lon="-122.4053017">
      </trkpt>
      <trkpt lat="37.7521683" lon="-122.4030484">
      </trkpt>
      <trkpt lat="37.7514659" lon="-122.4033474">
      </trkpt>
      <trkpt lat="37.7498639" lon="-122.4038924">
      </trkpt>
      <trkpt lat="37.7490088" lon="-122.4035409">
      </trkpt>
      <trkpt lat="37.749384" lon="-122.402533">
      </trkpt>
      <trkpt lat="37.7494093" lon="-122.4020865">
      </trkpt>
      <trkpt lat="37.7495249" lon="-122.4028981">
      </trkpt>
      <trkpt lat="37.750595" lon="-122.402228">
      </trkpt>
      <trkpt lat="37.75197" lon="-122.402323">
      </trkpt>
      <trkpt lat="37.7532366" lon="-122.4024433">
      </trkpt>
      <trkpt lat="37.7545227" lon="-122.4025654">
      </trkpt>
      <trkpt lat="37.7544754" lon="-122.4035519">
      </trkpt>
      <trkpt lat="37.7544158" lon="-122.4045063">
      </trkpt>
      <trkpt lat="37.754356" lon="-122.405477">
      </trkpt>
      <trkpt lat="37.7542983" lon="-122.4064152">
      </trkpt>
      <trkpt lat="37.7561757" lon="-122.4065951">
      </trkpt>
      <trkpt lat="37.756846" lon="-122.4066515">
      </trkpt>
      <trkpt lat="37.7577803" lon="-122.4067448">
      </trkpt>
      <trkpt lat="37.7593761" lon="-122.406899">
      </trkpt>
      <trkpt lat="37.7606694" lon="-122.407024">
      </trkpt>
      <trkpt lat="37.7619426" lon="-122.407148">
      </trkpt>
      <trkpt lat="37.7632168" lon="-122.4073226">
      </trkpt>
      <trkpt lat="37.7644869" lon="-122.407444">
      </trkpt>
      <trkpt lat="37.7657809" lon="-122.407568">
      </trkpt>
      <trkpt lat="37.7670817" lon="-122.4076907">
      </trkpt>
      <trkpt lat="37.7683619" lon="-122.4078137">
      </trkpt>
      <trkpt lat="37.7685744" lon="-122.4078316">
      </trkpt>
      <trkpt lat="37.7692412" lon="-122.4079015">
      </trkpt>
      <trkpt lat="37.7692104" lon="-122.4083342">
      </trkpt>
      <trkpt lat="37.7694301" lon="-122.4108749">
      </trkpt>
      <trkpt lat="37.7703545" lon="-122.4097443">
      </trkpt>
      <trkpt lat="37.7673212" lon="-122.4054914">
      </trkpt>
      <trkpt lat="37.7666613" lon="-122.4053017">
      </trkpt>
      <trkpt lat="37.7521683" lon="-122.4030484">
      </trkpt>
      <trkpt lat="37.7514659" lon="-122.4033474">
      </trkpt>
      <trkpt lat="37.7496784" lon="-122.40411">
      </trkpt>
      <trkpt lat="37.7495773" lon="-122.405365">
      </trkpt>
      <trkpt lat="37.7517386" lon="-122.4061793">
      </trkpt>
      <trkpt lat="37.7530024" lon="-122.4062906">
      </trkpt>
      <trkpt lat="37.7530682" lon="-122.4053461">
      </trkpt>
      <trkpt lat="37.7531269" lon="-122.4043785">
      </trkpt>
      <trkpt lat="37.7544158" lon="-122.4045063">
      </trkpt>
      <trkpt lat="37.754356" lon="-122.405477">
      </trkpt>
      <trkpt lat="37.7542983" lon="-122.4064152">
      </trkpt>
      <trkpt lat="37.7561757" lon="-122.4065951">
      </trkpt>
      <trkpt lat="37.756846" lon="-122.4066515">
      </trkpt>
      <trkpt lat="37.7569544" lon="-122.4047413">
      </trkpt>
      <trkpt lat="37.756846" lon="-122.4066515">
      </trkpt>
      <trkpt lat="37.7568389" lon="-122.4067798">
      </trkpt>
      <trkpt lat="37.756846" lon="-122.4066515">
      </trkpt>
      <trkpt lat="37.7577803" lon="-122.4067448">
      </trkpt>
      <trkpt lat="37.7577723" lon="-122.4068661">
      </trkpt>
      <trkpt lat="37.7577156" lon="-122.4077731">
      </trkpt>
      <trkpt lat="37.7576615" lon="-122.4086702">
      </trkpt>
      <trkpt lat="37.7576026" lon="-122.4096146">
      </trkpt>
      <trkpt lat="37.757547" lon="-122.4105486">
      </trkpt>
      <trkpt lat="37.7574923" lon="-122.4114392">
      </trkpt>
      <trkpt lat="37.7590933" lon="-122.411598">
      </trkpt>
      <trkpt lat="37.7591436" lon="-122.4107799">
      </trkpt>
      <trkpt lat="37.7604315" lon="-122.4109745">
      </trkpt>
      <trkpt lat="37.7604937" lon="-122.4100144">
      </trkpt>
      <trkpt lat="37.761765" lon="-122.4101411">
      </trkpt>
      <trkpt lat="37.7618251" lon="-122.4091697">
      </trkpt>
      <trkpt lat="37.7630967" lon="-122.4092976">
      </trkpt>
      <trkpt lat="37.7630381" lon="-122.4102625">
      </trkpt>
      <trkpt lat="37.7643204" lon="-122.4103883">
      </trkpt>
      <trkpt lat="37.7656077" lon="-122.4105117">
      </trkpt>
      <trkpt lat="37.7655491" lon="-122.411489">
      </trkpt>
      <trkpt lat="37.7654938" lon="-122.4124486">
      </trkpt>
      <trkpt lat="37.7667872" lon="-122.4125602">
      </trkpt>
      <trkpt lat="37.7680852" lon="-122.4124247">
      </trkpt>
      <trkpt lat="37.7680266" lon="-122.4133836">
      </trkpt>
      <trkpt lat="37.7686815" lon="-122.4134534">
      </trkpt>
      <trkpt lat="37.7686086" lon="-122.4145487">
      </trkpt>
      <trkpt lat="37.7695043" lon="-122.4145026">
      </trkpt>
      <trkpt lat="37.7694875" lon="-122.413785">
      </trkpt>
      <trkpt lat="37.7694747" lon="-122.4134028">
      </trkpt>
      <trkpt lat="37.7693337" lon="-122.4108718">
      </trkpt>
      <trkpt lat="37.7694301" lon="-122.4108749">
      </trkpt>
      <trkpt lat="37.7703545" lon="-122.4097443">
      </trkpt>
      <trkpt lat="37.7708243" lon="-122.4091395">
      </trkpt>
      <trkpt lat="37.7713009" lon="-122.408536">
      </trkpt>
      <trkpt lat="37.7725204" lon="-122.4069946">
      </trkpt>
      <trkpt lat="37.7727807" lon="-122.4066657">
      </trkpt>
      <trkpt lat="37.7728643" lon="-122.4065661">
      </trkpt>
      <trkpt lat="37.7730214" lon="-122.4063624">
      </trkpt>
      <trkpt lat="37.7738549" lon="-122.4053075">
      </trkpt>
      <trkpt lat="37.7742861" lon="-122.404762">
      </trkpt>
      <trkpt lat="37.7743967" lon="-122.4049008">
      </trkpt>
      <trkpt lat="37.7748326" lon="-122.4054471">
      </trkpt>
      <trkpt lat="37.7755198" lon="-122.406308">
      </trkpt>
      <trkpt lat="37.7754644" lon="-122.4063783">
      </trkpt>
      <trkpt lat="37.7720567" lon="-122.4066189">
      </trkpt>
      <trkpt lat="37.7706989" lon="-122.4059518">
      </trkpt>
      <trkpt lat="37.7694323" lon="-122.410677">
      </trkpt>
      <trkpt lat="37.7696352" lon="-122.415725">
      </trkpt>
      <trkpt lat="37.7702305" lon="-122.419444">
      </trkpt>
      <trkpt lat="37.7702019" lon="-122.41992">
      </trkpt>
      <trkpt lat="37.7701209" lon="-122.4201765">
      </trkpt>
      <trkpt lat="37.770007" lon="-122.4201689">
      </trkpt>
      <trkpt lat="37.7700026" lon="-122.4199672">
      </trkpt>
      <trkpt lat="37.7698183" lon="-122.4182968">
      </trkpt>
      <trkpt lat="37.7697417" lon="-122.4178212">
      </trkpt>
      <trkpt lat="37.769727" lon="-122.4177291">
      </trkpt>
      <trkpt lat="37.7698502" lon="-122.4177075">
      </trkpt>
      <trkpt lat="37.7702525" lon="-122.4176261">
      </trkpt>
      <trkpt lat="37.770723" lon="-122.4178181">
      </trkpt>
      <trkpt lat="37.7709098" lon="-122.4178962">
      </trkpt>
      <trkpt lat="37.7710587" lon="-122.4179414">
      </trkpt>
      <trkpt lat="37.7712383" lon="-122.4181456">
      </trkpt>
      <trkpt lat="37.7710231" lon="-122.4180796">
      </trkpt>
      <trkpt lat="37.770901" lon="-122.4180329">
      </trkpt>
      <trkpt lat="37.7710148" lon="-122.419646">
      </trkpt>
      <trkpt lat="37.7724921" lon="-122.4188648">
      </trkpt>
      <trkpt lat="37.7728299" lon="-122.4186272">
      </trkpt>
      <trkpt lat="37.7729612" lon="-122.4185329">
      </trkpt>
      <trkpt lat="37.7731759" lon="-122.4185842">
      </trkpt>
      <trkpt lat="37.7730548" lon="-122.4187254">
      </trkpt>
      <trkpt lat="37.7722849" lon="-122.4197011">
      </trkpt>
      <trkpt lat="37.7718164" lon="-122.420336">
      </trkpt>
      <trkpt lat="37.7717603" lon="-122.4204102">
      </trkpt>
      <trkpt lat="37.7716947" lon="-122.4208537">
      </trkpt>
      <trkpt lat="37.7716812" lon="-122.4211086">
      </trkpt>
      <trkpt lat="37.7716463" lon="-122.4217657">
      </trkpt>
      <trkpt lat="37.7699236" lon="-122.4216015">
      </trkpt>
      <trkpt lat="37.7698783" lon="-122.422387">
      </trkpt>
      <trkpt lat="37.7698314" lon="-122.42316">
      </trkpt>
      <trkpt lat="37.7714694" lon="-122.4233411">
      </trkpt>
      <trkpt lat="37.7715348" lon="-122.423745">
      </trkpt>
      <trkpt lat="37.7718034" lon="-122.4234113">
      </trkpt>
      <trkpt lat="37.7718656" lon="-122.423325">
      </trkpt>
      <trkpt lat="37.7719864" lon="-122.423402">
      </trkpt>
      <trkpt lat="37.7719184" lon="-122.423485">
      </trkpt>
      <trkpt lat="37.7717697" lon="-122.4236729">
      </trkpt>
      <trkpt lat="37.7713101" lon="-122.4242554">
      </trkpt>
      <trkpt lat="37.7707962" lon="-122.4249372">
      </trkpt>
      <trkpt lat="37.770875" lon="-122.4251472">
      </trkpt>
      <trkpt lat="37.7718028" lon="-122.4253435">
      </trkpt>
      <trkpt lat="37.770875" lon="-122.4251472">
      </trkpt>
      <trkpt lat="37.770759" lon="-122.4260825">
      </trkpt>
      <trkpt lat="37.7706675" lon="-122.426797">
      </trkpt>
      <trkpt lat="37.7715998" lon="-122.4269862">
      </trkpt>
      <trkpt lat="37.7713905" lon="-122.4286288">
      </trkpt>
      <trkpt lat="37.771181" lon="-122.4302733">
      </trkpt>
      <trkpt lat="37.770971" lon="-122.4319208">
      </trkpt>
      <trkpt lat="37.7708664" lon="-122.4327415">
      </trkpt>
      <trkpt lat="37.7707618" lon="-122.4335629">
      </trkpt>
      <trkpt lat="37.7706523" lon="-122.4344219">
      </trkpt>
      <trkpt lat="37.7705523" lon="-122.435207">
      </trkpt>
      <trkpt lat="37.7699028" lon="-122.4350755">
      </trkpt>
      <trkpt lat="37.7697584" lon="-122.4362253">
      </trkpt>
      <trkpt lat="37.7690611" lon="-122.4358192">
      </trkpt>
      <trkpt lat="37.7690152" lon="-122.4366159">
      </trkpt>
      <trkpt lat="37.7690398" lon="-122.4375794">
      </trkpt>
      <trkpt lat="37.7690296" lon="-122.4383676">
      </trkpt>
      <trkpt lat="37.768823" lon="-122.438517">
      </trkpt>
      <trkpt lat="37.7681824" lon="-122.4393002">
      </trkpt>
      <trkpt lat="37.768823" lon="-122.438517">
      </trkpt>
      <trkpt lat="37.7690296" lon="-122.4383676">
      </trkpt>
      <trkpt lat="37.7708551" lon="-122.440359">
      </trkpt>
      <trkpt lat="37.7706435" lon="-122.4420198">
      </trkpt>
      <trkpt lat="37.7704757" lon="-122.4433358">
      </trkpt>
      <trkpt lat="37.7696941" lon="-122.4428142">
      </trkpt>
      <trkpt lat="37.7704757" lon="-122.4433358">
      </trkpt>
      <trkpt lat="37.7706435" lon="-122.4420198">
      </trkpt>
      <trkpt lat="37.7704757" lon="-122.4433358">
      </trkpt>
      <trkpt lat="37.7704341" lon="-122.443662">
      </trkpt>
      <trkpt lat="37.7713673" lon="-122.443849">
      </trkpt>
      <trkpt lat="37.7723106" lon="-122.4440377">
      </trkpt>
      <trkpt lat="37.7725189" lon="-122.4424038">
      </trkpt>
      <trkpt lat="37.7727239" lon="-122.4407508">
      </trkpt>
      <trkpt lat="37.7736417" lon="-122.4409353">
      </trkpt>
      <trkpt lat="37.7734204" lon="-122.4425803">
      </trkpt>
      <trkpt lat="37.773211" lon="-122.4442243">
      </trkpt>
      <trkpt lat="37.7729961" lon="-122.4459099">
      </trkpt>
      <trkpt lat="37.7728007" lon="-122.447517">
      </trkpt>
      <trkpt lat="37.7737435" lon="-122.4477063">
      </trkpt>
      <trkpt lat="37.7746768" lon="-122.4478951">
      </trkpt>
      <trkpt lat="37.7756008" lon="-122.4481262">
      </trkpt>
      <trkpt lat="37.7755063" lon="-122.4488647">
      </trkpt>
      <trkpt lat="37.7762582" lon="-122.4490176">
      </trkpt>
      <trkpt lat="37.7755063" lon="-122.4488647">
      </trkpt>
      <trkpt lat="37.7756008" lon="-122.4481262">
      </trkpt>
      <trkpt lat="37.7756896" lon="-122.4474645">
      </trkpt>
      <trkpt lat="37.7758035" lon="-122.4465376">
      </trkpt>
      <trkpt lat="37.7758145" lon="-122.4464549">
      </trkpt>
      <trkpt lat="37.7767477" lon="-122.4466434">
      </trkpt>
      <trkpt lat="37.7776788" lon="-122.4468315">
      </trkpt>
      <trkpt lat="37.7776681" lon="-122.4469158">
      </trkpt>
      <trkpt lat="37.7775527" lon="-122.4478236">
      </trkpt>
      <trkpt lat="37.7774393" lon="-122.4487156">
      </trkpt>
      <trkpt lat="37.7773274" lon="-122.4495959">
      </trkpt>
      <trkpt lat="37.7772149" lon="-122.4504811">
      </trkpt>
      <trkpt lat="37.7781247" lon="-122.4506668">
      </trkpt>
      <trkpt lat="37.7782073" lon="-122.4506836">
      </trkpt>
      <trkpt lat="37.7780956" lon="-122.4515678">
      </trkpt>
      <trkpt lat="37.7779809" lon="-122.4524536">
      </trkpt>
      <trkpt lat="37.7778356" lon="-122.4534065">
      </trkpt>
      <trkpt lat="37.7802412" lon="-122.453894">
      </trkpt>
    </trkseg>
  </trk>
</gpx>