<?xml version="1.0" encoding="UTF-8"?>
<gpx xmlns="http://www.topografix.com/GPX/1/1" xmlns:xsi="http://www.w3.org/2001/XMLSchema-instance" xsi:schemaLocation="http://www.topografix.com/GPX/1/1 http://www.topografix.com/GPX/1/1/gpx.xsd" version="1.1" creator="gpx.py -- https://github.com/tkrajina/gpxpy">
  <metadata>
    <name>Route Sculptor: heart</name>
    <desc></desc>
  </metadata>
  <trk>
    <name>Route Sculptor: heart</name>
    <trkseg>
      <trkpt lat="37.7404233" lon="-122.4570188">
      </trkpt>
      <trkpt lat="37.7409822" lon="-122.457503">
      </trkpt>
      <trkpt lat="37.7420917" lon="-122.4557803">
      </trkpt>
      <trkpt lat="37.7430142" lon="-122.4552058">
      </trkpt>
      <trkpt lat="37.7430793" lon="-122.455302">
      </trkpt>
      <trkpt lat="37.7429619" lon="-122.4553897">
      </trkpt>
      <trkpt lat="37.7416746" lon="-122.4563886">
      </trkpt>
      <trkpt lat="37.7406389" lon="-122.458702">
      </trkpt>
      <trkpt lat="37.7405868" lon="-122.4590151">
      </trkpt>
      <trkpt lat="37.7405618" lon="-122.4592338">
      </trkpt>
      <trkpt lat="37.7406997" lon="-122.4595294">
      </trkpt>
      <trkpt lat="37.7410614" lon="-122.4598506">
      </trkpt>
      <trkpt lat="37.742434" lon="-122.4611268">
      </trkpt>
      <trkpt lat="37.7433895" lon="-122.4628778">
      </trkpt>
      <trkpt lat="37.7435692" lon="-122.4632893">
      </trkpt>
      <trkpt lat="37.7437212" lon="-122.4634838">
      </trkpt>
      <trkpt lat="37.7438247" lon="-122.4634961">
      </trkpt>
      <trkpt lat="37.7440535" lon="-122.4633394">
      </trkpt>
      <trkpt lat="37.743918" lon="-122.4636086">
      </trkpt>
      <trkpt lat="37.7439311" lon="-122.4637509">
      </trkpt>
      <trkpt lat="37.7440937" lon="-122.4639499">
      </trkpt>
      <trkpt lat="37.7444651" lon="-122.4641939">
      </trkpt>
      <trkpt lat="37.7451373" lon="-122.4646391">
      </trkpt>
      <trkpt lat="37.745912" lon="-122.463572">
      </trkpt>
      <trkpt lat="37.746404" lon="-122.464177">
      </trkpt>
      <trkpt lat="37.7466069" lon="-122.4638401">
      </trkpt>
      <trkpt lat="37.7468663" lon="-122.4645833">
      </trkpt>
      <trkpt lat="37.74779" lon="-122.464377">
      </trkpt>
      <trkpt lat="37.748007" lon="-122.465178">
      </trkpt>
      <trkpt lat="37.7476444" lon="-122.4653304">
      </trkpt>
      <trkpt lat="37.748007" lon="-122.465178">
      </trkpt>
      <trkpt lat="37.7480864" lon="-122.4651351">
      </trkpt>
      <trkpt lat="37.7487435" lon="-122.464764">
      </trkpt>
      <trkpt lat="37.7488411" lon="-122.464722">
      </trkpt>
      <trkpt lat="37.748996" lon="-122.4654806">
      </trkpt>
      <trkpt lat="37.7481056" lon="-122.4661956">
      </trkpt>
      <trkpt lat="37.7481275" lon="-122.4662965">
      </trkpt>
      <trkpt lat="37.7490784" lon="-122.4663606">
      </trkpt>
      <trkpt lat="37.7509426" lon="-122.4664909">
      </trkpt>
      <trkpt lat="37.7528092" lon="-122.4666213">
      </trkpt>
      <trkpt lat="37.7546757" lon="-122.4667518">
      </trkpt>
      <trkpt lat="37.7547232" lon="-122.4656806">
      </trkpt>
      <trkpt lat="37.7565868" lon="-122.4658109">
      </trkpt>
      <trkpt lat="37.7566339" lon="-122.4647402">
      </trkpt>
      <trkpt lat="37.7584989" lon="-122.46487">
      </trkpt>
      <trkpt lat="37.7585462" lon="-122.4637974">
      </trkpt>
      <trkpt lat="37.7586084" lon="-122.463229">
      </trkpt>
      <trkpt lat="37.7604599" lon="-122.4628599">
      </trkpt>
      <trkpt lat="37.760512" lon="-122.461794">
      </trkpt>
      <trkpt lat="37.7623733" lon="-122.4619224">
      </trkpt>
      <trkpt lat="37.7626475" lon="-122.4608618">
      </trkpt>
      <trkpt lat="37.7629566" lon="-122.4597697">
      </trkpt>
      <trkpt lat="37.764333" lon="-122.4599084">
      </trkpt>
      <trkpt lat="37.7643803" lon="-122.4588362">
      </trkpt>
      <trkpt lat="37.7647324" lon="-122.4576891">
      </trkpt>
      <trkpt lat="37.7649421" lon="-122.4567715">
      </trkpt>
      <trkpt lat="37.7647324" lon="-122.4576891">
      </trkpt>
      <trkpt lat="37.7653575" lon="-122.4577727">
      </trkpt>
      <trkpt lat="37.7657398" lon="-122.4578007">
      </trkpt>
      <trkpt lat="37.7658562" lon="-122.4569822">
      </trkpt>
      <trkpt lat="37.765923" lon="-122.4565555">
      </trkpt>
      <trkpt lat="37.7661715" lon="-122.454607">
      </trkpt>
      <trkpt lat="37.7663795" lon="-122.4529749">
      </trkpt>
      <trkpt lat="37.7673104" lon="-122.4531772">
      </trkpt>
      <trkpt lat="37.7675231" lon="-122.451507">
      </trkpt>
      <trkpt lat="37.7684545" lon="-122.451695">
      </trkpt>
      <trkpt lat="37.7686019" lon="-122.450541">
      </trkpt>
      <trkpt lat="37.7687379" lon="-122.449476">
      </trkpt>
      <trkpt lat="37.7688744" lon="-122.4484075">
      </trkpt>
      <trkpt lat="37.7698043" lon="-122.448594">
      </trkpt>
      <trkpt lat="37.7700148" lon="-122.4469519">
      </trkpt>
      <trkpt lat="37.7709482" lon="-122.44714">
      </trkpt>
      <trkpt lat="37.7711507" lon="-122.4455504">
      </trkpt>
      <trkpt lat="37.7702176" lon="-122.44536">
      </trkpt>
      <trkpt lat="37.7704341" lon="-122.443662">
      </trkpt>
      <trkpt lat="37.7713673" lon="-122.443849">
      </trkpt>
      <trkpt lat="37.771185" lon="-122.4452859">
      </trkpt>
      <trkpt lat="37.7713673" lon="-122.443849">
      </trkpt>
      <trkpt lat="37.7723106" lon="-122.4440377">
      </trkpt>
      <trkpt lat="37.7725189" lon="-122.4424038">
      </trkpt>
      <trkpt lat="37.7727239" lon="-122.4407508">
      </trkpt>
      <trkpt lat="37.7736417" lon="-122.4409353">
      </trkpt>
      <trkpt lat="37.7734204" lon="-122.4425803">
      </trkpt>
      <trkpt lat="37.7743727" lon="-122.4427713">
      </trkpt>
      <trkpt lat="37.7745822" lon="-122.441126">
      </trkpt>
      <trkpt lat="37.7736417" lon="-122.4409353">
      </trkpt>
      <trkpt lat="37.7745822" lon="-122.441126">
      </trkpt>
      <trkpt lat="37.7747911" lon="-122.4394849">
      </trkpt>
      <trkpt lat="37.7749973" lon="-122.437864">
      </trkpt>
      <trkpt lat="37.775009" lon="-122.437772">
      </trkpt>
      <trkpt lat="37.7752152" lon="-122.4361506">
      </trkpt>
      <trkpt lat="37.7761472" lon="-122.4363382">
      </trkpt>
      <trkpt lat="37.7770786" lon="-122.4365257">
      </trkpt>
      <trkpt lat="37.7772895" lon="-122.4348708">
      </trkpt>
      <trkpt lat="37.7774974" lon="-122.4332393">
      </trkpt>
      <trkpt lat="37.7784279" lon="-122.4334247">
      </trkpt>
      <trkpt lat="37.7793593" lon="-122.433613">
      </trkpt>
      <trkpt lat="37.7795687" lon="-122.4319692">
      </trkpt>
      <trkpt lat="37.7797781" lon="-122.4303243">
      </trkpt>
      <trkpt lat="37.7797965" lon="-122.4301795">
      </trkpt>
      <trkpt lat="37.7807294" lon="-122.4303684">
      </trkpt>
      <trkpt lat="37.780711" lon="-122.4305129">
      </trkpt>
      <trkpt lat="37.7797781" lon="-122.4303243">
      </trkpt>
      <trkpt lat="37.7797965" lon="-122.4301795">
      </trkpt>
      <trkpt lat="37.7807294" lon="-122.4303684">
      </trkpt>
      <trkpt lat="37.7816623" lon="-122.4305572">
      </trkpt>
      <trkpt lat="37.7816439" lon="-122.4307015">
      </trkpt>
      <trkpt lat="37.780711" lon="-122.4305129">
      </trkpt>
      <trkpt lat="37.7797781" lon="-122.4303243">
      </trkpt>
      <trkpt lat="37.7788449" lon="-122.4301357">
      </trkpt>
      <trkpt lat="37.7779158" lon="-122.4299478">
      </trkpt>
      <trkpt lat="37.7779342" lon="-122.4298027">
      </trkpt>
      <trkpt lat="37.7779158" lon="-122.4299478">
      </trkpt>
      <trkpt lat="37.7769851" lon="-122.4297597">
      </trkpt>
      <trkpt lat="37.7770036" lon="-122.4296143">
      </trkpt>
      <trkpt lat="37.7771939" lon="-122.4281162">
      </trkpt>
      <trkpt lat="37.7767271" lon="-122.428022">
      </trkpt>
      <trkpt lat="37.7762616" lon="-122.427928">
      </trkpt>
      <trkpt lat="37.7757973" lon="-122.4278342">
      </trkpt>
      <trkpt lat="37.7753305" lon="-122.42774">
      </trkpt>
      <trkpt lat="37.7748632" lon="-122.4276457">
      </trkpt>
      <trkpt lat="37.7743958" lon="-122.4275514">
      </trkpt>
      <trkpt lat="37.7739324" lon="-122.4274578">
      </trkpt>
      <trkpt lat="37.7734668" lon="-122.4273638">
      </trkpt>
      <trkpt lat="37.7725274" lon="-122.4271742">
      </trkpt>
      <trkpt lat="37.7720572" lon="-122.4270789">
      </trkpt>
      <trkpt lat="37.7715998" lon="-122.4269862">
      </trkpt>
      <trkpt lat="37.7706675" lon="-122.426797">
      </trkpt>
      <trkpt lat="37.770759" lon="-122.4260825">
      </trkpt>
      <trkpt lat="37.7722297" lon="-122.4263699">
      </trkpt>
      <trkpt lat="37.770759" lon="-122.4260825">
      </trkpt>
      <trkpt lat="37.770875" lon="-122.4251472">
      </trkpt>
      <trkpt lat="37.7707384" lon="-122.4249998">
      </trkpt>
      <trkpt lat="37.7707146" lon="-122.4249517">
      </trkpt>
      <trkpt lat="37.7706853" lon="-122.4248926">
      </trkpt>
      <trkpt lat="37.7706553" lon="-122.4248322">
      </trkpt>
      <trkpt lat="37.7697392" lon="-122.4246367">
      </trkpt>
      <trkpt lat="37.7697448" lon="-122.4245422">
      </trkpt>
      <trkpt lat="37.7697876" lon="-122.4238213">
      </trkpt>
      <trkpt lat="37.7698314" lon="-122.42316">
      </trkpt>
      <trkpt lat="37.7698783" lon="-122.422387">
      </trkpt>
      <trkpt lat="37.769296" lon="-122.4223315">
      </trkpt>
      <trkpt lat="37.7687707" lon="-122.4222819">
      </trkpt>
      <trkpt lat="37.768145" lon="-122.4222223">
      </trkpt>
      <trkpt lat="37.7674685" lon="-122.422156">
      </trkpt>
      <trkpt lat="37.768145" lon="-122.4222223">
      </trkpt>
      <trkpt lat="37.7681948" lon="-122.4213841">
      </trkpt>
      <trkpt lat="37.7682051" lon="-122.4212101">
      </trkpt>
      <trkpt lat="37.7666101" lon="-122.4210573">
      </trkpt>
      <trkpt lat="37.764977" lon="-122.420901">
      </trkpt>
      <trkpt lat="37.7649949" lon="-122.4205971">
      </trkpt>
      <trkpt lat="37.7650017" lon="-122.4204887">
      </trkpt>
      <trkpt lat="37.765052" lon="-122.4196893">
      </trkpt>
      <trkpt lat="37.7651174" lon="-122.4186691">
      </trkpt>
      <trkpt lat="37.7634988" lon="-122.4185035">
      </trkpt>
      <trkpt lat="37.7619055" lon="-122.418292">
      </trkpt>
      <trkpt lat="37.7619709" lon="-122.4171965">
      </trkpt>
      <trkpt lat="37.7603733" lon="-122.4170442">
      </trkpt>
      <trkpt lat="37.7604405" lon="-122.4159557">
      </trkpt>
      <trkpt lat="37.7588398" lon="-122.4158016">
      </trkpt>
      <trkpt lat="37.7589063" lon="-122.414719">
      </trkpt>
      <trkpt lat="37.7589705" lon="-122.4136186">
      </trkpt>
      <trkpt lat="37.7573751" lon="-122.4134729">
      </trkpt>
      <trkpt lat="37.7557722" lon="-122.4133134">
      </trkpt>
      <trkpt lat="37.7558377" lon="-122.4122259">
      </trkpt>
      <trkpt lat="37.7542382" lon="-122.4120734">
      </trkpt>
      <trkpt lat="37.7542945" lon="-122.4111361">
      </trkpt>
      <trkpt lat="37.7526963" lon="-122.4109823">
      </trkpt>
      <trkpt lat="37.751099" lon="-122.4108337">
      </trkpt>
      <trkpt lat="37.7511541" lon="-122.4099347">
      </trkpt>
      <trkpt lat="37.7495561" lon="-122.4097813">
      </trkpt>
      <trkpt lat="37.7483939" lon="-122.4096701">
      </trkpt>
      <trkpt lat="37.7483746" lon="-122.4105726">
      </trkpt>
      <trkpt lat="37.7482809" lon="-122.4105635">
      </trkpt>
      <trkpt lat="37.7473614" lon="-122.4104987">
      </trkpt>
      <trkpt lat="37.7471394" lon="-122.4106184">
      </trkpt>
      <trkpt lat="37.7473927" lon="-122.4099817">
      </trkpt>
      <trkpt lat="37.7473614" lon="-122.4104987">
      </trkpt>
      <trkpt lat="37.7471394" lon="-122.4106184">
      </trkpt>
      <trkpt lat="37.746952" lon="-122.4106414">
      </trkpt>
      <trkpt lat="37.7467766" lon="-122.4106204">
      </trkpt>
      <trkpt lat="37.746323" lon="-122.410565">
      </trkpt>
      <trkpt lat="37.745571" lon="-122.410498">
      </trkpt>
      <trkpt lat="37.745298" lon="-122.410474">
      </trkpt>
      <trkpt lat="37.744918" lon="-122.410441">
      </trkpt>
      <trkpt lat="37.744325" lon="-122.410389">
      </trkpt>
      <trkpt lat="37.743749" lon="-122.410338">
      </trkpt>
      <trkpt lat="37.7437295" lon="-122.4111127">
      </trkpt>
      <trkpt lat="37.743749" lon="-122.410338">
      </trkpt>
      <trkpt lat="37.7432297" lon="-122.4093976">
      </trkpt>
      <trkpt lat="37.743022" lon="-122.4093807">
      </trkpt>
      <trkpt lat="37.7417557" lon="-122.4101018">
      </trkpt>
      <trkpt lat="37.741395" lon="-122.4112148">
      </trkpt>
      <trkpt lat="37.7414253" lon="-122.41199">
      </trkpt>
      <trkpt lat="37.7414236" lon="-122.412221">
      </trkpt>
      <trkpt lat="37.741754" lon="-122.4119488">
      </trkpt>
      <trkpt lat="37.741981" lon="-122.4119388">
      </trkpt>
      <trkpt lat="37.741754" lon="-122.4119488">
      </trkpt>
      <trkpt lat="37.7414236" lon="-122.412221">
      </trkpt>
      <trkpt lat="37.741442" lon="-122.412588">
      </trkpt>
      <trkpt lat="37.7414598" lon="-122.4129355">
      </trkpt>
      <trkpt lat="37.741474" lon="-122.413213">
      </trkpt>
      <trkpt lat="37.7402924" lon="-122.4133161">
      </trkpt>
      <trkpt lat="37.7403219" lon="-122.4139236">
      </trkpt>
      <trkpt lat="37.738933" lon="-122.4139949">
      </trkpt>
      <trkpt lat="37.7388864" lon="-122.414628">
      </trkpt>
      <trkpt lat="37.7389388" lon="-122.4151621">
      </trkpt>
      <trkpt lat="37.738418" lon="-122.415225">
      </trkpt>
      <trkpt lat="37.738452" lon="-122.415841">
      </trkpt>
      <trkpt lat="37.7372192" lon="-122.4159622">
      </trkpt>
      <trkpt lat="37.7372572" lon="-122.4166097">
      </trkpt>
      <trkpt lat="37.737676" lon="-122.4165721">
      </trkpt>
      <trkpt lat="37.7378126" lon="-122.4179911">
      </trkpt>
      <trkpt lat="37.7371258" lon="-122.4180974">
      </trkpt>
      <trkpt lat="37.737163" lon="-122.4188243">
      </trkpt>
      <trkpt lat="37.7364566" lon="-122.4193124">
      </trkpt>
      <trkpt lat="37.7361583" lon="-122.4201563">
      </trkpt>
      <trkpt lat="37.7365468" lon="-122.4209687">
      </trkpt>
      <trkpt lat="37.7361583" lon="-122.4201563">
      </trkpt>
      <trkpt lat="37.7357847" lon="-122.4201702">
      </trkpt>
      <trkpt lat="37.735942" lon="-122.4231553">
      </trkpt>
      <trkpt lat="37.7360057" lon="-122.4244949">
      </trkpt>
      <trkpt lat="37.7353896" lon="-122.424729">
      </trkpt>
      <trkpt lat="37.7352719" lon="-122.4248196">
      </trkpt>
      <trkpt lat="37.7342838" lon="-122.4258001">
      </trkpt>
      <trkpt lat="37.7348252" lon="-122.4266448">
      </trkpt>
      <trkpt lat="37.7342838" lon="-122.4258001">
      </trkpt>
      <trkpt lat="37.7352719" lon="-122.4248196">
      </trkpt>
      <trkpt lat="37.7353896" lon="-122.424729">
      </trkpt>
      <trkpt lat="37.7360057" lon="-122.4244949">
      </trkpt>
      <trkpt lat="37.736685" lon="-122.427156">
      </trkpt>
      <trkpt lat="37.7358557" lon="-122.428431">
      </trkpt>
      <trkpt lat="37.7356257" lon="-122.428192">
      </trkpt>
      <trkpt lat="37.7358557" lon="-122.428431">
      </trkpt>
      <trkpt lat="37.736386" lon="-122.42898">
      </trkpt>
      <trkpt lat="37.7369251" lon="-122.4295381">
      </trkpt>
      <trkpt lat="37.7361001" lon="-122.430806">
      </trkpt>
      <trkpt lat="37.7366312" lon="-122.4313541">
      </trkpt>
      <trkpt lat="37.7382231" lon="-122.4340343">
      </trkpt>
      <trkpt lat="37.738797" lon="-122.4346032">
      </trkpt>
      <trkpt lat="37.7382231" lon="-122.4340343">
      </trkpt>
      <trkpt lat="37.7394544" lon="-122.4343274">
      </trkpt>
      <trkpt lat="37.7401142" lon="-122.4343496">
      </trkpt>
      <trkpt lat="37.7401498" lon="-122.435825">
      </trkpt>
      <trkpt lat="37.7401807" lon="-122.4359136">
      </trkpt>
      <trkpt lat="37.7401498" lon="-122.435825">
      </trkpt>
      <trkpt lat="37.7414914" lon="-122.4355633">
      </trkpt>
      <trkpt lat="37.7416139" lon="-122.4356127">
      </trkpt>
      <trkpt lat="37.7415359" lon="-122.435686">
      </trkpt>
      <trkpt lat="37.7414914" lon="-122.4355633">
      </trkpt>
      <trkpt lat="37.7416139" lon="-122.4356127">
      </trkpt>
      <trkpt lat="37.7436644" lon="-122.437662">
      </trkpt>
      <trkpt lat="37.7435639" lon="-122.4377581">
      </trkpt>
      <trkpt lat="37.7428418" lon="-122.4381079">
      </trkpt>
      <trkpt lat="37.7435639" lon="-122.4377581">
      </trkpt>
      <trkpt lat="37.7436644" lon="-122.437662">
      </trkpt>
      <trkpt lat="37.7453178" lon="-122.4400678">
      </trkpt>
      <trkpt lat="37.7454427" lon="-122.437956">
      </trkpt>
      <trkpt lat="37.7462364" lon="-122.4380312">
      </trkpt>
      <trkpt lat="37.7462667" lon="-122.4380346">
      </trkpt>
      <trkpt lat="37.7461883" lon="-122.4392469">
      </trkpt>
      <trkpt lat="37.7462667" lon="-122.4380346">
      </trkpt>
      <trkpt lat="37.7470541" lon="-122.4381103">
      </trkpt>
      <trkpt lat="37.7462667" lon="-122.4380346">
      </trkpt>
      <trkpt lat="37.7462364" lon="-122.4380312">
      </trkpt>
      <trkpt lat="37.7454427" lon="-122.437956">
      </trkpt>
      <trkpt lat="37.7453178" lon="-122.4400678">
      </trkpt>
      <trkpt lat="37.7463624" lon="-122.4401162">
      </trkpt>
      <trkpt lat="37.7462277" lon="-122.4396391">
      </trkpt>
      <trkpt lat="37.7463624" lon="-122.4401162">
      </trkpt>
      <trkpt lat="37.7469274" lon="-122.4422605">
      </trkpt>
      <trkpt lat="37.7468531" lon="-122.4422203">
      </trkpt>
      <trkpt lat="37.7453114" lon="-122.4401682">
      </trkpt>
      <trkpt lat="37.7452466" lon="-122.4412715">
      </trkpt>
      <trkpt lat="37.7443497" lon="-122.4426617">
      </trkpt>
      <trkpt lat="37.7452466" lon="-122.4412715">
      </trkpt>
      <trkpt lat="37.7451868" lon="-122.442981">
      </trkpt>
      <trkpt lat="37.7459035" lon="-122.4433932">
      </trkpt>
      <trkpt lat="37.7465152" lon="-122.4434165">
      </trkpt>
      <trkpt lat="37.7465861" lon="-122.4434192">
      </trkpt>
      <trkpt lat="37.7466512" lon="-122.4437593">
      </trkpt>
      <trkpt lat="37.7467772" lon="-122.4439982">
      </trkpt>
      <trkpt lat="37.7466752" lon="-122.4443525">
      </trkpt>
      <trkpt lat="37.7466725" lon="-122.4443771">
      </trkpt>
      <trkpt lat="37.7466633" lon="-122.4445028">
      </trkpt>
      <trkpt lat="37.7469466" lon="-122.4448421">
      </trkpt>
      <trkpt lat="37.7470342" lon="-122.4448792">
      </trkpt>
      <trkpt lat="37.7467627" lon="-122.4466703">
      </trkpt>
      <trkpt lat="37.7465105" lon="-122.4478016">
      </trkpt>
      <trkpt lat="37.745899" lon="-122.4508255">
      </trkpt>
      <trkpt lat="37.7456064" lon="-122.4517243">
      </trkpt>
      <trkpt lat="37.7455425" lon="-122.4518513">
      </trkpt>
      <trkpt lat="37.7454642" lon="-122.4516754">
      </trkpt>
      <trkpt lat="37.7451244" lon="-122.4512926">
      </trkpt>
      <trkpt lat="37.7412125" lon="-122.4459575">
      </trkpt>
      <trkpt lat="37.7417902" lon="-122.4478094">
      </trkpt>
      <trkpt lat="37.7420569" lon="-122.4495368">
      </trkpt>
      <trkpt lat="37.7412216" lon="-122.4484603">
      </trkpt>
      <trkpt lat="37.7408359" lon="-122.4492166">
      </trkpt>
      <trkpt lat="37.7405144" lon="-122.4489141">
      </trkpt>
      <trkpt lat="37.7398485" lon="-122.4478099">
      </trkpt>
      <trkpt lat="37.7405144" lon="-122.4489141">
      </trkpt>
      <trkpt lat="37.7408359" lon="-122.4492166">
      </trkpt>
      <trkpt lat="37.7404504" lon="-122.4499724">
      </trkpt>
      <trkpt lat="37.7400779" lon="-122.4507027">
      </trkpt>
      <trkpt lat="37.7393373" lon="-122.4504486">
      </trkpt>
      <trkpt lat="37.7377576" lon="-122.45162">
      </trkpt>
      <trkpt lat="37.740158" lon="-122.4518195">
      </trkpt>
    </trkseg>
  </trk>
</gpx>