<?xml version="1.0" encoding="UTF-8"?>
<gpx xmlns="http://www.topografix.com/GPX/1/1" xmlns:xsi="http://www.w3.org/2001/XMLSchema-instance" xsi:schemaLocation="http://www.topografix.com/GPX/1/1 http://www.topografix.com/GPX/1/1/gpx.xsd" version="1.1" creator="gpx.py -- https://github.com/tkrajina/gpxpy">
  <metadata>
    <name>Route Sculptor: horse</name>
    <desc></desc>
  </metadata>
  <trk>
    <name>Route Sculptor: horse</name>
    <trkseg>
      <trkpt lat="37.734863" lon="-122.445834">
      </trkpt>
      <trkpt lat="37.734547" lon="-122.4453998">
      </trkpt>
      <trkpt lat="37.7339026" lon="-122.4457938">
      </trkpt>
      <trkpt lat="37.7342865" lon="-122.4483454">
      </trkpt>
      <trkpt lat="37.7342925" lon="-122.4489022">
      </trkpt>
      <trkpt lat="37.7349829" lon="-122.4489052">
      </trkpt>
      <trkpt lat="37.7338122" lon="-122.4506583">
      </trkpt>
      <trkpt lat="37.7358474" lon="-122.4500019">
      </trkpt>
      <trkpt lat="37.7346291" lon="-122.4507896">
      </trkpt>
      <trkpt lat="37.7351482" lon="-122.4516931">
      </trkpt>
      <trkpt lat="37.7360716" lon="-122.4516063">
      </trkpt>
      <trkpt lat="37.73565" lon="-122.4525967">
      </trkpt>
      <trkpt lat="37.7365187" lon="-122.4526209">
      </trkpt>
      <trkpt lat="37.73565" lon="-122.4525967">
      </trkpt>
      <trkpt lat="37.7360716" lon="-122.4516063">
      </trkpt>
      <trkpt lat="37.7367161" lon="-122.4518438">
      </trkpt>
      <trkpt lat="37.7377576" lon="-122.45162">
      </trkpt>
      <trkpt lat="37.7367421" lon="-122.4533691">
      </trkpt>
      <trkpt lat="37.736677" lon="-122.453802">
      </trkpt>
      <trkpt lat="37.7364173" lon="-122.4542877">
      </trkpt>
      <trkpt lat="37.736677" lon="-122.453802">
      </trkpt>
      <trkpt lat="37.7385384" lon="-122.4595957">
      </trkpt>
      <trkpt lat="37.7390155" lon="-122.4593394">
      </trkpt>
      <trkpt lat="37.7391476" lon="-122.458859">
      </trkpt>
      <trkpt lat="37.7404233" lon="-122.4570188">
      </trkpt>
      <trkpt lat="37.7409822" lon="-122.457503">
      </trkpt>
      <trkpt lat="37.7420917" lon="-122.4557803">
      </trkpt>
      <trkpt lat="37.7430142" lon="-122.4552058">
      </trkpt>
      <trkpt lat="37.7430793" lon="-122.455302">
      </trkpt>
      <trkpt lat="37.7429619" lon="-122.4553897">
      </trkpt>
      <trkpt lat="37.7416746" lon="-122.4563886">
      </trkpt>
      <trkpt lat="37.7406389" lon="-122.458702">
      </trkpt>
      <trkpt lat="37.7405163" lon="-122.4588561">
      </trkpt>
      <trkpt lat="37.7406968" lon="-122.4581593">
      </trkpt>
      <trkpt lat="37.7409822" lon="-122.457503">
      </trkpt>
      <trkpt lat="37.7420917" lon="-122.4557803">
      </trkpt>
      <trkpt lat="37.7430142" lon="-122.4552058">
      </trkpt>
      <trkpt lat="37.7430793" lon="-122.455302">
      </trkpt>
      <trkpt lat="37.7429619" lon="-122.4553897">
      </trkpt>
      <trkpt lat="37.7417703" lon="-122.4564753">
      </trkpt>
      <trkpt lat="37.7421625" lon="-122.45682">
      </trkpt>
      <trkpt lat="37.7434986" lon="-122.4559216">
      </trkpt>
      <trkpt lat="37.7431657" lon="-122.4554297">
      </trkpt>
      <trkpt lat="37.7430793" lon="-122.455302">
      </trkpt>
      <trkpt lat="37.7430142" lon="-122.4552058">
      </trkpt>
      <trkpt lat="37.7439594" lon="-122.4541958">
      </trkpt>
      <trkpt lat="37.7440364" lon="-122.4542995">
      </trkpt>
      <trkpt lat="37.7430793" lon="-122.455302">
      </trkpt>
      <trkpt lat="37.7431657" lon="-122.4554297">
      </trkpt>
      <trkpt lat="37.7434986" lon="-122.4559216">
      </trkpt>
      <trkpt lat="37.7446753" lon="-122.4546264">
      </trkpt>
      <trkpt lat="37.7457125" lon="-122.453922">
      </trkpt>
      <trkpt lat="37.7458412" lon="-122.4542268">
      </trkpt>
      <trkpt lat="37.7457125" lon="-122.453922">
      </trkpt>
      <trkpt lat="37.7456581" lon="-122.4525484">
      </trkpt>
      <trkpt lat="37.7456017" lon="-122.4522328">
      </trkpt>
      <trkpt lat="37.7455425" lon="-122.4518513">
      </trkpt>
      <trkpt lat="37.7454642" lon="-122.4516754">
      </trkpt>
      <trkpt lat="37.7454989" lon="-122.4515628">
      </trkpt>
      <trkpt lat="37.7456143" lon="-122.4512169">
      </trkpt>
      <trkpt lat="37.7457663" lon="-122.4507583">
      </trkpt>
      <trkpt lat="37.745899" lon="-122.4508255">
      </trkpt>
      <trkpt lat="37.7466155" lon="-122.4495208">
      </trkpt>
      <trkpt lat="37.7468467" lon="-122.4498627">
      </trkpt>
      <trkpt lat="37.7473559" lon="-122.4511677">
      </trkpt>
      <trkpt lat="37.7479816" lon="-122.4517658">
      </trkpt>
      <trkpt lat="37.7486825" lon="-122.4521239">
      </trkpt>
      <trkpt lat="37.7493865" lon="-122.452123">
      </trkpt>
      <trkpt lat="37.7512455" lon="-122.452129">
      </trkpt>
      <trkpt lat="37.752299" lon="-122.451687">
      </trkpt>
      <trkpt lat="37.7512455" lon="-122.452129">
      </trkpt>
      <trkpt lat="37.7512112" lon="-122.452949">
      </trkpt>
      <trkpt lat="37.7529854" lon="-122.4521085">
      </trkpt>
      <trkpt lat="37.7532796" lon="-122.4513143">
      </trkpt>
      <trkpt lat="37.7529854" lon="-122.4521085">
      </trkpt>
      <trkpt lat="37.7535558" lon="-122.4525821">
      </trkpt>
      <trkpt lat="37.7539342" lon="-122.4511271">
      </trkpt>
      <trkpt lat="37.7536228" lon="-122.4507157">
      </trkpt>
      <trkpt lat="37.7539356" lon="-122.450025">
      </trkpt>
      <trkpt lat="37.7541308" lon="-122.4495919">
      </trkpt>
      <trkpt lat="37.7558779" lon="-122.4495596">
      </trkpt>
      <trkpt lat="37.7567534" lon="-122.4503939">
      </trkpt>
      <trkpt lat="37.7567097" lon="-122.4511238">
      </trkpt>
      <trkpt lat="37.7574582" lon="-122.4502984">
      </trkpt>
      <trkpt lat="37.7575399" lon="-122.448928">
      </trkpt>
      <trkpt lat="37.7574582" lon="-122.4502984">
      </trkpt>
      <trkpt lat="37.758193" lon="-122.44949">
      </trkpt>
      <trkpt lat="37.7578284" lon="-122.4481654">
      </trkpt>
      <trkpt lat="37.759051" lon="-122.4485027">
      </trkpt>
      <trkpt lat="37.7591358" lon="-122.4479433">
      </trkpt>
      <trkpt lat="37.7593757" lon="-122.4474411">
      </trkpt>
      <trkpt lat="37.7601129" lon="-122.4470098">
      </trkpt>
      <trkpt lat="37.7610952" lon="-122.4464564">
      </trkpt>
      <trkpt lat="37.7609359" lon="-122.4476471">
      </trkpt>
      <trkpt lat="37.7608549" lon="-122.4489773">
      </trkpt>
      <trkpt lat="37.7601544" lon="-122.4488403">
      </trkpt>
      <trkpt lat="37.7608549" lon="-122.4489773">
      </trkpt>
      <trkpt lat="37.7609359" lon="-122.4476471">
      </trkpt>
      <trkpt lat="37.7617297" lon="-122.4478031">
      </trkpt>
      <trkpt lat="37.7618013" lon="-122.4468085">
      </trkpt>
      <trkpt lat="37.762877" lon="-122.4470534">
      </trkpt>
      <trkpt lat="37.7637628" lon="-122.4464873">
      </trkpt>
      <trkpt lat="37.762877" lon="-122.4470534">
      </trkpt>
      <trkpt lat="37.7651455" lon="-122.4476567">
      </trkpt>
      <trkpt lat="37.7660774" lon="-122.447844">
      </trkpt>
      <trkpt lat="37.7670081" lon="-122.448031">
      </trkpt>
      <trkpt lat="37.7688744" lon="-122.4484075">
      </trkpt>
      <trkpt lat="37.7687379" lon="-122.449476">
      </trkpt>
      <trkpt lat="37.7696673" lon="-122.4496634">
      </trkpt>
      <trkpt lat="37.769594" lon="-122.4502349">
      </trkpt>
      <trkpt lat="37.7705297" lon="-122.450426">
      </trkpt>
      <trkpt lat="37.7714717" lon="-122.4506197">
      </trkpt>
      <trkpt lat="37.7705297" lon="-122.450426">
      </trkpt>
      <trkpt lat="37.7703201" lon="-122.452072">
      </trkpt>
      <trkpt lat="37.7701352" lon="-122.453523">
      </trkpt>
      <trkpt lat="37.7701073" lon="-122.4537431">
      </trkpt>
      <trkpt lat="37.7710181" lon="-122.4539231">
      </trkpt>
      <trkpt lat="37.7711061" lon="-122.4538861">
      </trkpt>
      <trkpt lat="37.7713959" lon="-122.4539306">
      </trkpt>
      <trkpt lat="37.7715526" lon="-122.4539594">
      </trkpt>
      <trkpt lat="37.771841" lon="-122.4540843">
      </trkpt>
      <trkpt lat="37.7719088" lon="-122.4540895">
      </trkpt>
      <trkpt lat="37.7719886" lon="-122.4541025">
      </trkpt>
      <trkpt lat="37.7729021" lon="-122.4542991">
      </trkpt>
      <trkpt lat="37.7731138" lon="-122.45264">
      </trkpt>
      <trkpt lat="37.7721762" lon="-122.4524517">
      </trkpt>
      <trkpt lat="37.7731138" lon="-122.45264">
      </trkpt>
      <trkpt lat="37.7740485" lon="-122.4528286">
      </trkpt>
      <trkpt lat="37.7749872" lon="-122.4529258">
      </trkpt>
      <trkpt lat="37.774764" lon="-122.454668">
      </trkpt>
      <trkpt lat="37.7755337" lon="-122.454806">
      </trkpt>
      <trkpt lat="37.7757024" lon="-122.4548687">
      </trkpt>
      <trkpt lat="37.7763251" lon="-122.4549939">
      </trkpt>
      <trkpt lat="37.7770372" lon="-122.455145">
      </trkpt>
      <trkpt lat="37.7776069" lon="-122.4552359">
      </trkpt>
      <trkpt lat="37.7777192" lon="-122.454355">
      </trkpt>
      <trkpt lat="37.7776069" lon="-122.4552359">
      </trkpt>
      <trkpt lat="37.7777192" lon="-122.454355">
      </trkpt>
      <trkpt lat="37.7778356" lon="-122.4534065">
      </trkpt>
      <trkpt lat="37.7802412" lon="-122.453894">
      </trkpt>
      <trkpt lat="37.7803655" lon="-122.4529152">
      </trkpt>
      <trkpt lat="37.7802412" lon="-122.453894">
      </trkpt>
      <trkpt lat="37.7778356" lon="-122.4534065">
      </trkpt>
      <trkpt lat="37.7778929" lon="-122.4524357">
      </trkpt>
      <trkpt lat="37.7779809" lon="-122.4524536">
      </trkpt>
      <trkpt lat="37.7778929" lon="-122.4524357">
      </trkpt>
      <trkpt lat="37.7769897" lon="-122.4522524">
      </trkpt>
      <trkpt lat="37.7768682" lon="-122.4532082">
      </trkpt>
      <trkpt lat="37.7757636" lon="-122.4529855">
      </trkpt>
      <trkpt lat="37.7749872" lon="-122.4529258">
      </trkpt>
      <trkpt lat="37.7751857" lon="-122.4513731">
      </trkpt>
      <trkpt lat="37.7742578" lon="-122.4511855">
      </trkpt>
      <trkpt lat="37.7733236" lon="-122.450996">
      </trkpt>
      <trkpt lat="37.7723785" lon="-122.450806">
      </trkpt>
      <trkpt lat="37.7721762" lon="-122.4524517">
      </trkpt>
      <trkpt lat="37.7717323" lon="-122.4535151">
      </trkpt>
      <trkpt lat="37.7715526" lon="-122.4539594">
      </trkpt>
      <trkpt lat="37.771492" lon="-122.4540834">
      </trkpt>
      <trkpt lat="37.7713517" lon="-122.4540539">
      </trkpt>
      <trkpt lat="37.7713959" lon="-122.4539306">
      </trkpt>
      <trkpt lat="37.7714109" lon="-122.4534023">
      </trkpt>
      <trkpt lat="37.7712583" lon="-122.4522632">
      </trkpt>
      <trkpt lat="37.7714717" lon="-122.4506197">
      </trkpt>
      <trkpt lat="37.7705297" lon="-122.450426">
      </trkpt>
      <trkpt lat="37.770739" lon="-122.448783">
      </trkpt>
      <trkpt lat="37.7698043" lon="-122.448594">
      </trkpt>
      <trkpt lat="37.7688744" lon="-122.4484075">
      </trkpt>
      <trkpt lat="37.7670081" lon="-122.448031">
      </trkpt>
      <trkpt lat="37.7671121" lon="-122.4472139">
      </trkpt>
      <trkpt lat="37.7672171" lon="-122.446387">
      </trkpt>
      <trkpt lat="37.7652239" lon="-122.4459844">
      </trkpt>
      <trkpt lat="37.7654956" lon="-122.4449393">
      </trkpt>
      <trkpt lat="37.7659699" lon="-122.4441845">
      </trkpt>
      <trkpt lat="37.7664263" lon="-122.4445657">
      </trkpt>
      <trkpt lat="37.7674251" lon="-122.44475">
      </trkpt>
      <trkpt lat="37.7673222" lon="-122.4455613">
      </trkpt>
      <trkpt lat="37.7672171" lon="-122.446387">
      </trkpt>
      <trkpt lat="37.7690851" lon="-122.4467651">
      </trkpt>
      <trkpt lat="37.7700148" lon="-122.4469519">
      </trkpt>
      <trkpt lat="37.7709482" lon="-122.44714">
      </trkpt>
      <trkpt lat="37.7718909" lon="-122.447331">
      </trkpt>
      <trkpt lat="37.7720935" lon="-122.445742">
      </trkpt>
      <trkpt lat="37.7729961" lon="-122.4459099">
      </trkpt>
      <trkpt lat="37.7728007" lon="-122.447517">
      </trkpt>
      <trkpt lat="37.7725979" lon="-122.44916">
      </trkpt>
      <trkpt lat="37.7735338" lon="-122.4493494">
      </trkpt>
      <trkpt lat="37.7744675" lon="-122.4495393">
      </trkpt>
      <trkpt lat="37.775396" lon="-122.4497281">
      </trkpt>
      <trkpt lat="37.7751857" lon="-122.4513731">
      </trkpt>
      <trkpt lat="37.7749872" lon="-122.4529258">
      </trkpt>
      <trkpt lat="37.7757636" lon="-122.4529855">
      </trkpt>
      <trkpt lat="37.7768682" lon="-122.4532082">
      </trkpt>
      <trkpt lat="37.7769897" lon="-122.4522524">
      </trkpt>
      <trkpt lat="37.7771022" lon="-122.4513672">
      </trkpt>
      <trkpt lat="37.7772149" lon="-122.4504811">
      </trkpt>
      <trkpt lat="37.7781247" lon="-122.4506668">
      </trkpt>
      <trkpt lat="37.7782073" lon="-122.4506836">
      </trkpt>
      <trkpt lat="37.7780956" lon="-122.4515678">
      </trkpt>
      <trkpt lat="37.7779809" lon="-122.4524536">
      </trkpt>
      <trkpt lat="37.7778356" lon="-122.4534065">
      </trkpt>
      <trkpt lat="37.7802412" lon="-122.453894">
      </trkpt>
      <trkpt lat="37.7803655" lon="-122.4529152">
      </trkpt>
      <trkpt lat="37.780496" lon="-122.4518879">
      </trkpt>
      <trkpt lat="37.7806263" lon="-122.4508624">
      </trkpt>
      <trkpt lat="37.7807564" lon="-122.4498377">
      </trkpt>
      <trkpt lat="37.7808868" lon="-122.4488116">
      </trkpt>
      <trkpt lat="37.7810474" lon="-122.4476211">
      </trkpt>
      <trkpt lat="37.7801541" lon="-122.4474181">
      </trkpt>
      <trkpt lat="37.7786245" lon="-122.4471085">
      </trkpt>
      <trkpt lat="37.7785095" lon="-122.448019">
      </trkpt>
      <trkpt lat="37.7783974" lon="-122.4489038">
      </trkpt>
      <trkpt lat="37.7782852" lon="-122.4497891">
      </trkpt>
      <trkpt lat="37.7783974" lon="-122.4489038">
      </trkpt>
      <trkpt lat="37.7774393" lon="-122.4487156">
      </trkpt>
      <trkpt lat="37.7775527" lon="-122.4478236">
      </trkpt>
      <trkpt lat="37.7776681" lon="-122.4469158">
      </trkpt>
      <trkpt lat="37.7758035" lon="-122.4465376">
      </trkpt>
      <trkpt lat="37.7756896" lon="-122.4474645">
      </trkpt>
      <trkpt lat="37.7756008" lon="-122.4481262">
      </trkpt>
      <trkpt lat="37.7746768" lon="-122.4478951">
      </trkpt>
      <trkpt lat="37.7737435" lon="-122.4477063">
      </trkpt>
      <trkpt lat="37.7728007" lon="-122.447517">
      </trkpt>
      <trkpt lat="37.7737435" lon="-122.4477063">
      </trkpt>
      <trkpt lat="37.773943" lon="-122.4461548">
      </trkpt>
      <trkpt lat="37.7729961" lon="-122.4459099">
      </trkpt>
      <trkpt lat="37.7720935" lon="-122.445742">
      </trkpt>
      <trkpt lat="37.7711507" lon="-122.4455504">
      </trkpt>
      <trkpt lat="37.7709482" lon="-122.44714">
      </trkpt>
      <trkpt lat="37.7718909" lon="-122.447331">
      </trkpt>
      <trkpt lat="37.7720935" lon="-122.445742">
      </trkpt>
      <trkpt lat="37.7711507" lon="-122.4455504">
      </trkpt>
      <trkpt lat="37.7702176" lon="-122.44536">
      </trkpt>
      <trkpt lat="37.7692913" lon="-122.4451431">
      </trkpt>
      <trkpt lat="37.7674251" lon="-122.44475">
      </trkpt>
      <trkpt lat="37.7675381" lon="-122.443866">
      </trkpt>
      <trkpt lat="37.7669447" lon="-122.4437165">
      </trkpt>
      <trkpt lat="37.7659529" lon="-122.4426642">
      </trkpt>
      <trkpt lat="37.7653549" lon="-122.443455">
      </trkpt>
      <trkpt lat="37.7653389" lon="-122.4426656">
      </trkpt>
      <trkpt lat="37.765226" lon="-122.4425169">
      </trkpt>
      <trkpt lat="37.7652968" lon="-122.4419975">
      </trkpt>
      <trkpt lat="37.7652972" lon="-122.4419552">
      </trkpt>
      <trkpt lat="37.7653127" lon="-122.4412143">
      </trkpt>
      <trkpt lat="37.7666178" lon="-122.4394339">
      </trkpt>
      <trkpt lat="37.766726" lon="-122.438291">
      </trkpt>
      <trkpt lat="37.7671766" lon="-122.4382218">
      </trkpt>
      <trkpt lat="37.7672328" lon="-122.4373166">
      </trkpt>
      <trkpt lat="37.767284" lon="-122.4364926">
      </trkpt>
      <trkpt lat="37.7673365" lon="-122.4356482">
      </trkpt>
      <trkpt lat="37.7674715" lon="-122.4334273">
      </trkpt>
      <trkpt lat="37.7675389" lon="-122.4323165">
      </trkpt>
      <trkpt lat="37.7692662" lon="-122.4324838">
      </trkpt>
      <trkpt lat="37.7693175" lon="-122.4315858">
      </trkpt>
      <trkpt lat="37.7693296" lon="-122.4313791">
      </trkpt>
      <trkpt lat="37.7694012" lon="-122.4302718">
      </trkpt>
      <trkpt lat="37.7694635" lon="-122.4291599">
      </trkpt>
      <trkpt lat="37.770355" lon="-122.4292484">
      </trkpt>
      <trkpt lat="37.7702495" lon="-122.4300842">
      </trkpt>
      <trkpt lat="37.7707172" lon="-122.4301791">
      </trkpt>
      <trkpt lat="37.771181" lon="-122.4302733">
      </trkpt>
      <trkpt lat="37.7716409" lon="-122.4303668">
      </trkpt>
      <trkpt lat="37.7721133" lon="-122.4304612">
      </trkpt>
      <trkpt lat="37.7723258" lon="-122.4288182">
      </trkpt>
      <trkpt lat="37.7732576" lon="-122.4290069">
      </trkpt>
      <trkpt lat="37.7741867" lon="-122.429195">
      </trkpt>
      <trkpt lat="37.7746551" lon="-122.4292884">
      </trkpt>
      <trkpt lat="37.7751213" lon="-122.4293832">
      </trkpt>
      <trkpt lat="37.7755858" lon="-122.4294773">
      </trkpt>
      <trkpt lat="37.7760523" lon="-122.4295724">
      </trkpt>
      <trkpt lat="37.7765197" lon="-122.4296559">
      </trkpt>
      <trkpt lat="37.7770036" lon="-122.4296143">
      </trkpt>
      <trkpt lat="37.7769851" lon="-122.4297597">
      </trkpt>
      <trkpt lat="37.7770036" lon="-122.4296143">
      </trkpt>
      <trkpt lat="37.7779342" lon="-122.4298027">
      </trkpt>
      <trkpt lat="37.7779158" lon="-122.4299478">
      </trkpt>
      <trkpt lat="37.7779342" lon="-122.4298027">
      </trkpt>
      <trkpt lat="37.7788634" lon="-122.4299907">
      </trkpt>
      <trkpt lat="37.7788449" lon="-122.4301357">
      </trkpt>
      <trkpt lat="37.778745" lon="-122.4309205">
      </trkpt>
      <trkpt lat="37.7786354" lon="-122.4317813">
      </trkpt>
      <trkpt lat="37.7795687" lon="-122.4319692">
      </trkpt>
      <trkpt lat="37.7805017" lon="-122.4321574">
      </trkpt>
      <trkpt lat="37.7814351" lon="-122.4323455">
      </trkpt>
      <trkpt lat="37.7832913" lon="-122.4327195">
      </trkpt>
      <trkpt lat="37.7842176" lon="-122.4329061">
      </trkpt>
      <trkpt lat="37.784424" lon="-122.4312636">
      </trkpt>
      <trkpt lat="37.7835077" lon="-122.4310783">
      </trkpt>
      <trkpt lat="37.7825732" lon="-122.4308894">
      </trkpt>
      <trkpt lat="37.7825915" lon="-122.4307453">
      </trkpt>
      <trkpt lat="37.7825732" lon="-122.4308894">
      </trkpt>
      <trkpt lat="37.7816439" lon="-122.4307015">
      </trkpt>
      <trkpt lat="37.7816623" lon="-122.4305572">
      </trkpt>
      <trkpt lat="37.7816439" lon="-122.4307015">
      </trkpt>
      <trkpt lat="37.780711" lon="-122.4305129">
      </trkpt>
      <trkpt lat="37.7797781" lon="-122.4303243">
      </trkpt>
      <trkpt lat="37.7797965" lon="-122.4301795">
      </trkpt>
      <trkpt lat="37.7807294" lon="-122.4303684">
      </trkpt>
      <trkpt lat="37.780711" lon="-122.4305129">
      </trkpt>
      <trkpt lat="37.7797781" lon="-122.4303243">
      </trkpt>
      <trkpt lat="37.7797965" lon="-122.4301795">
      </trkpt>
      <trkpt lat="37.7807294" lon="-122.4303684">
      </trkpt>
      <trkpt lat="37.780711" lon="-122.4305129">
      </trkpt>
      <trkpt lat="37.7797781" lon="-122.4303243">
      </trkpt>
      <trkpt lat="37.7788449" lon="-122.4301357">
      </trkpt>
      <trkpt lat="37.7779158" lon="-122.4299478">
      </trkpt>
      <trkpt lat="37.7779342" lon="-122.4298027">
      </trkpt>
      <trkpt lat="37.7779158" lon="-122.4299478">
      </trkpt>
      <trkpt lat="37.7769851" lon="-122.4297597">
      </trkpt>
      <trkpt lat="37.7770036" lon="-122.4296143">
      </trkpt>
      <trkpt lat="37.7769851" lon="-122.4297597">
      </trkpt>
      <trkpt lat="37.7765197" lon="-122.4296559">
      </trkpt>
      <trkpt lat="37.7760523" lon="-122.4295724">
      </trkpt>
      <trkpt lat="37.7762616" lon="-122.427928">
      </trkpt>
      <trkpt lat="37.7757973" lon="-122.4278342">
      </trkpt>
      <trkpt lat="37.7753305" lon="-122.42774">
      </trkpt>
      <trkpt lat="37.7748632" lon="-122.4276457">
      </trkpt>
      <trkpt lat="37.7743958" lon="-122.4275514">
      </trkpt>
      <trkpt lat="37.7739324" lon="-122.4274578">
      </trkpt>
      <trkpt lat="37.7734668" lon="-122.4273638">
      </trkpt>
      <trkpt lat="37.7725274" lon="-122.4271742">
      </trkpt>
      <trkpt lat="37.7720572" lon="-122.4270789">
      </trkpt>
      <trkpt lat="37.7715998" lon="-122.4269862">
      </trkpt>
      <trkpt lat="37.7706675" lon="-122.426797">
      </trkpt>
      <trkpt lat="37.770759" lon="-122.4260825">
      </trkpt>
      <trkpt lat="37.7722297" lon="-122.4263699">
      </trkpt>
      <trkpt lat="37.770759" lon="-122.4260825">
      </trkpt>
      <trkpt lat="37.770875" lon="-122.4251472">
      </trkpt>
      <trkpt lat="37.7707384" lon="-122.4249998">
      </trkpt>
      <trkpt lat="37.7707146" lon="-122.4249517">
      </trkpt>
      <trkpt lat="37.7706853" lon="-122.4248926">
      </trkpt>
      <trkpt lat="37.7707456" lon="-122.4248165">
      </trkpt>
      <trkpt lat="37.7708655" lon="-122.4245898">
      </trkpt>
      <trkpt lat="37.7712738" lon="-122.4240745">
      </trkpt>
      <trkpt lat="37.7715348" lon="-122.423745">
      </trkpt>
      <trkpt lat="37.7718034" lon="-122.4234113">
      </trkpt>
      <trkpt lat="37.7718656" lon="-122.423325">
      </trkpt>
      <trkpt lat="37.7719864" lon="-122.423402">
      </trkpt>
      <trkpt lat="37.7722505" lon="-122.4235549">
      </trkpt>
      <trkpt lat="37.7729707" lon="-122.4237236">
      </trkpt>
      <trkpt lat="37.772957" lon="-122.4238315">
      </trkpt>
      <trkpt lat="37.7729445" lon="-122.4239308">
      </trkpt>
      <trkpt lat="37.7720129" lon="-122.4237428">
      </trkpt>
      <trkpt lat="37.7718028" lon="-122.4253435">
      </trkpt>
      <trkpt lat="37.7727425" lon="-122.4255299">
      </trkpt>
      <trkpt lat="37.7729445" lon="-122.4239308">
      </trkpt>
      <trkpt lat="37.7727425" lon="-122.4255299">
      </trkpt>
      <trkpt lat="37.7732088" lon="-122.4256255">
      </trkpt>
      <trkpt lat="37.7736729" lon="-122.4257227">
      </trkpt>
      <trkpt lat="37.7741418" lon="-122.4258171">
      </trkpt>
      <trkpt lat="37.7746045" lon="-122.4259102">
      </trkpt>
      <trkpt lat="37.7748083" lon="-122.4243081">
      </trkpt>
      <trkpt lat="37.7743464" lon="-122.4242137">
      </trkpt>
      <trkpt lat="37.7741418" lon="-122.4258171">
      </trkpt>
      <trkpt lat="37.7746045" lon="-122.4259102">
      </trkpt>
      <trkpt lat="37.7748083" lon="-122.4243081">
      </trkpt>
      <trkpt lat="37.7748208" lon="-122.4242103">
      </trkpt>
      <trkpt lat="37.7748348" lon="-122.4240999">
      </trkpt>
      <trkpt lat="37.7757628" lon="-122.4243439">
      </trkpt>
      <trkpt lat="37.7757434" lon="-122.4244963">
      </trkpt>
      <trkpt lat="37.7755395" lon="-122.4260983">
      </trkpt>
      <trkpt lat="37.7760035" lon="-122.4261923">
      </trkpt>
      <trkpt lat="37.7764706" lon="-122.4262857">
      </trkpt>
      <trkpt lat="37.7766786" lon="-122.424645">
      </trkpt>
      <trkpt lat="37.7771452" lon="-122.4247381">
      </trkpt>
      <trkpt lat="37.7776111" lon="-122.4248309">
      </trkpt>
      <trkpt lat="37.7780777" lon="-122.424924">
      </trkpt>
      <trkpt lat="37.7785401" lon="-122.4250171">
      </trkpt>
      <trkpt lat="37.7783324" lon="-122.426662">
      </trkpt>
      <trkpt lat="37.7792634" lon="-122.4268484">
      </trkpt>
      <trkpt lat="37.7801962" lon="-122.4270365">
      </trkpt>
      <trkpt lat="37.7811296" lon="-122.4272248">
      </trkpt>
      <trkpt lat="37.7815758" lon="-122.4273148">
      </trkpt>
      <trkpt lat="37.7820615" lon="-122.4274127">
      </trkpt>
      <trkpt lat="37.7825444" lon="-122.4275107">
      </trkpt>
      <trkpt lat="37.7829914" lon="-122.4276002">
      </trkpt>
      <trkpt lat="37.783926" lon="-122.4277887">
      </trkpt>
      <trkpt lat="37.784885" lon="-122.4279838">
      </trkpt>
      <trkpt lat="37.7850849" lon="-122.4264518">
      </trkpt>
      <trkpt lat="37.783926" lon="-122.4277887">
      </trkpt>
      <trkpt lat="37.7829914" lon="-122.4276002">
      </trkpt>
      <trkpt lat="37.7825444" lon="-122.4275107">
      </trkpt>
      <trkpt lat="37.7820615" lon="-122.4274127">
      </trkpt>
      <trkpt lat="37.782479" lon="-122.424125">
      </trkpt>
      <trkpt lat="37.7815469" lon="-122.4239348">
      </trkpt>
      <trkpt lat="37.7810758" lon="-122.4238421">
      </trkpt>
      <trkpt lat="37.7806142" lon="-122.4237488">
      </trkpt>
      <trkpt lat="37.7796841" lon="-122.4235632">
      </trkpt>
      <trkpt lat="37.7792164" lon="-122.4234665">
      </trkpt>
      <trkpt lat="37.7787484" lon="-122.4233714">
      </trkpt>
      <trkpt lat="37.7785401" lon="-122.4250171">
      </trkpt>
      <trkpt lat="37.7780777" lon="-122.424924">
      </trkpt>
      <trkpt lat="37.7776111" lon="-122.4248309">
      </trkpt>
      <trkpt lat="37.7771452" lon="-122.4247381">
      </trkpt>
      <trkpt lat="37.7766786" lon="-122.424645">
      </trkpt>
      <trkpt lat="37.7768892" lon="-122.4229968">
      </trkpt>
      <trkpt lat="37.7764217" lon="-122.4229028">
      </trkpt>
      <trkpt lat="37.7759583" lon="-122.4228096">
      </trkpt>
      <trkpt lat="37.7757823" lon="-122.4241904">
      </trkpt>
      <trkpt lat="37.7757628" lon="-122.4243439">
      </trkpt>
      <trkpt lat="37.7748208" lon="-122.4242103">
      </trkpt>
      <trkpt lat="37.7748348" lon="-122.4240999">
      </trkpt>
      <trkpt lat="37.7748472" lon="-122.4240024">
      </trkpt>
      <trkpt lat="37.7750233" lon="-122.4226174">
      </trkpt>
      <trkpt lat="37.7745618" lon="-122.4225226">
      </trkpt>
      <trkpt lat="37.7740952" lon="-122.4224267">
      </trkpt>
      <trkpt lat="37.773626" lon="-122.4223296">
      </trkpt>
      <trkpt lat="37.7734511" lon="-122.4237212">
      </trkpt>
      <trkpt lat="37.7739151" lon="-122.423815">
      </trkpt>
      <trkpt lat="37.7740952" lon="-122.4224267">
      </trkpt>
      <trkpt lat="37.773626" lon="-122.4223296">
      </trkpt>
      <trkpt lat="37.7732468" lon="-122.422251">
      </trkpt>
      <trkpt lat="37.773156" lon="-122.4222467">
      </trkpt>
      <trkpt lat="37.7729297" lon="-122.4222415">
      </trkpt>
      <trkpt lat="37.7725989" lon="-122.42266">
      </trkpt>
      <trkpt lat="37.7723984" lon="-122.422636">
      </trkpt>
      <trkpt lat="37.7715958" lon="-122.4225514">
      </trkpt>
      <trkpt lat="37.7698783" lon="-122.422387">
      </trkpt>
      <trkpt lat="37.7698314" lon="-122.42316">
      </trkpt>
      <trkpt lat="37.7714694" lon="-122.4233411">
      </trkpt>
      <trkpt lat="37.7698314" lon="-122.42316">
      </trkpt>
      <trkpt lat="37.7698783" lon="-122.422387">
      </trkpt>
      <trkpt lat="37.769296" lon="-122.4223315">
      </trkpt>
      <trkpt lat="37.7687707" lon="-122.4222819">
      </trkpt>
      <trkpt lat="37.768145" lon="-122.4222223">
      </trkpt>
      <trkpt lat="37.7674685" lon="-122.422156">
      </trkpt>
      <trkpt lat="37.768145" lon="-122.4222223">
      </trkpt>
      <trkpt lat="37.7681948" lon="-122.4213841">
      </trkpt>
      <trkpt lat="37.7682051" lon="-122.4212101">
      </trkpt>
      <trkpt lat="37.7666101" lon="-122.4210573">
      </trkpt>
      <trkpt lat="37.7665513" lon="-122.422067">
      </trkpt>
      <trkpt lat="37.7657199" lon="-122.4219846">
      </trkpt>
      <trkpt lat="37.7657503" lon="-122.4214665">
      </trkpt>
      <trkpt lat="37.7657199" lon="-122.4219846">
      </trkpt>
      <trkpt lat="37.7649158" lon="-122.4219057">
      </trkpt>
      <trkpt lat="37.764977" lon="-122.420901">
      </trkpt>
      <trkpt lat="37.7649949" lon="-122.4205971">
      </trkpt>
      <trkpt lat="37.7650017" lon="-122.4204887">
      </trkpt>
      <trkpt lat="37.765052" lon="-122.4196893">
      </trkpt>
      <trkpt lat="37.7634379" lon="-122.4195294">
      </trkpt>
      <trkpt lat="37.7627117" lon="-122.4194651">
      </trkpt>
      <trkpt lat="37.7618405" lon="-122.4193819">
      </trkpt>
      <trkpt lat="37.7619055" lon="-122.418292">
      </trkpt>
      <trkpt lat="37.7619709" lon="-122.4171965">
      </trkpt>
      <trkpt lat="37.7635718" lon="-122.4173491">
      </trkpt>
      <trkpt lat="37.7651935" lon="-122.4175037">
      </trkpt>
      <trkpt lat="37.7652589" lon="-122.4164113">
      </trkpt>
      <trkpt lat="37.7668697" lon="-122.4165702">
      </trkpt>
      <trkpt lat="37.7684709" lon="-122.4167235">
      </trkpt>
      <trkpt lat="37.768539" lon="-122.4156334">
      </trkpt>
      <trkpt lat="37.7693396" lon="-122.4156215">
      </trkpt>
      <trkpt lat="37.7695286" lon="-122.4155921">
      </trkpt>
      <trkpt lat="37.7695043" lon="-122.4145026">
      </trkpt>
      <trkpt lat="37.7694875" lon="-122.413785">
      </trkpt>
      <trkpt lat="37.7694747" lon="-122.4134028">
      </trkpt>
      <trkpt lat="37.7695773" lon="-122.413367">
      </trkpt>
      <trkpt lat="37.7695978" lon="-122.4141041">
      </trkpt>
      <trkpt lat="37.7703447" lon="-122.4137611">
      </trkpt>
      <trkpt lat="37.7700987" lon="-122.4130764">
      </trkpt>
      <trkpt lat="37.769948" lon="-122.4131775">
      </trkpt>
      <trkpt lat="37.7695773" lon="-122.413367">
      </trkpt>
      <trkpt lat="37.7694747" lon="-122.4134028">
      </trkpt>
      <trkpt lat="37.7692173" lon="-122.4134569">
      </trkpt>
      <trkpt lat="37.7686815" lon="-122.4134534">
      </trkpt>
      <trkpt lat="37.7680266" lon="-122.4133836">
      </trkpt>
      <trkpt lat="37.7680852" lon="-122.4124247">
      </trkpt>
      <trkpt lat="37.7687136" lon="-122.4117781">
      </trkpt>
      <trkpt lat="37.7690193" lon="-122.4108329">
      </trkpt>
      <trkpt lat="37.7681875" lon="-122.4107505">
      </trkpt>
      <trkpt lat="37.7683619" lon="-122.4078137">
      </trkpt>
      <trkpt lat="37.7670817" lon="-122.4076907">
      </trkpt>
      <trkpt lat="37.7676011" lon="-122.4088285">
      </trkpt>
      <trkpt lat="37.7670817" lon="-122.4076907">
      </trkpt>
      <trkpt lat="37.7657809" lon="-122.407568">
      </trkpt>
      <trkpt lat="37.7644869" lon="-122.407444">
      </trkpt>
      <trkpt lat="37.7644314" lon="-122.4083779">
      </trkpt>
      <trkpt lat="37.7649749" lon="-122.408435">
      </trkpt>
      <trkpt lat="37.7644314" lon="-122.4083779">
      </trkpt>
      <trkpt lat="37.7644253" lon="-122.408451">
      </trkpt>
      <trkpt lat="37.763156" lon="-122.4083274">
      </trkpt>
      <trkpt lat="37.7618847" lon="-122.4082015">
      </trkpt>
      <trkpt lat="37.7606084" lon="-122.4080819">
      </trkpt>
      <trkpt lat="37.7593101" lon="-122.4079405">
      </trkpt>
      <trkpt lat="37.759259" lon="-122.4088821">
      </trkpt>
      <trkpt lat="37.7592022" lon="-122.4097853">
      </trkpt>
      <trkpt lat="37.7591436" lon="-122.4107799">
      </trkpt>
      <trkpt lat="37.7590933" lon="-122.411598">
      </trkpt>
      <trkpt lat="37.7590346" lon="-122.4125338">
      </trkpt>
      <trkpt lat="37.7589705" lon="-122.4136186">
      </trkpt>
      <trkpt lat="37.7589063" lon="-122.414719">
      </trkpt>
      <trkpt lat="37.7588398" lon="-122.4158016">
      </trkpt>
      <trkpt lat="37.7587763" lon="-122.4168919">
      </trkpt>
      <trkpt lat="37.7587064" lon="-122.4179902">
      </trkpt>
      <trkpt lat="37.75721" lon="-122.417846">
      </trkpt>
      <trkpt lat="37.7587064" lon="-122.4179902">
      </trkpt>
      <trkpt lat="37.7586372" lon="-122.4190752">
      </trkpt>
      <trkpt lat="37.7570441" lon="-122.4189227">
      </trkpt>
      <trkpt lat="37.7569933" lon="-122.4196895">
      </trkpt>
      <trkpt lat="37.7569732" lon="-122.4200211">
      </trkpt>
      <trkpt lat="37.756954" lon="-122.4203477">
      </trkpt>
      <trkpt lat="37.7569061" lon="-122.421127">
      </trkpt>
      <trkpt lat="37.756101" lon="-122.4210493">
      </trkpt>
      <trkpt lat="37.7553033" lon="-122.4209722">
      </trkpt>
      <trkpt lat="37.755275" lon="-122.4214357">
      </trkpt>
      <trkpt lat="37.7551725" lon="-122.4231381">
      </trkpt>
      <trkpt lat="37.7551674" lon="-122.4232234">
      </trkpt>
      <trkpt lat="37.7551023" lon="-122.4243032">
      </trkpt>
      <trkpt lat="37.7550362" lon="-122.4254019">
      </trkpt>
      <trkpt lat="37.7550273" lon="-122.4255501">
      </trkpt>
      <trkpt lat="37.7549609" lon="-122.4266434">
      </trkpt>
      <trkpt lat="37.7549014" lon="-122.4277555">
      </trkpt>
      <trkpt lat="37.7533018" lon="-122.4276083">
      </trkpt>
      <trkpt lat="37.7532339" lon="-122.4287149">
      </trkpt>
      <trkpt lat="37.754832" lon="-122.428849">
      </trkpt>
      <trkpt lat="37.7532339" lon="-122.4287149">
      </trkpt>
      <trkpt lat="37.7531537" lon="-122.4298073">
      </trkpt>
      <trkpt lat="37.753957" lon="-122.429884">
      </trkpt>
      <trkpt lat="37.753823" lon="-122.4321">
      </trkpt>
      <trkpt lat="37.753025" lon="-122.432024">
      </trkpt>
      <trkpt lat="37.7528897" lon="-122.4342612">
      </trkpt>
      <trkpt lat="37.7527653" lon="-122.4364728">
      </trkpt>
      <trkpt lat="37.7526991" lon="-122.437509">
      </trkpt>
      <trkpt lat="37.7526304" lon="-122.4386445">
      </trkpt>
      <trkpt lat="37.7518327" lon="-122.4385681">
      </trkpt>
      <trkpt lat="37.7510346" lon="-122.4384917">
      </trkpt>
      <trkpt lat="37.7509701" lon="-122.4395477">
      </trkpt>
      <trkpt lat="37.7493692" lon="-122.4393904">
      </trkpt>
      <trkpt lat="37.7493034" lon="-122.4404764">
      </trkpt>
      <trkpt lat="37.7490608" lon="-122.4404526">
      </trkpt>
      <trkpt lat="37.7493034" lon="-122.4404764">
      </trkpt>
      <trkpt lat="37.7492387" lon="-122.4415447">
      </trkpt>
      <trkpt lat="37.7491749" lon="-122.4425979">
      </trkpt>
      <trkpt lat="37.7481647" lon="-122.4425143">
      </trkpt>
      <trkpt lat="37.746894" lon="-122.443828">
      </trkpt>
      <trkpt lat="37.7467772" lon="-122.4439982">
      </trkpt>
      <trkpt lat="37.7465877" lon="-122.4438019">
      </trkpt>
      <trkpt lat="37.7465152" lon="-122.4434165">
      </trkpt>
      <trkpt lat="37.7468531" lon="-122.4422203">
      </trkpt>
      <trkpt lat="37.7469274" lon="-122.4422605">
      </trkpt>
      <trkpt lat="37.747777" lon="-122.440472">
      </trkpt>
      <trkpt lat="37.7469274" lon="-122.4422605">
      </trkpt>
      <trkpt lat="37.7465861" lon="-122.4434192">
      </trkpt>
      <trkpt lat="37.7465152" lon="-122.4434165">
      </trkpt>
      <trkpt lat="37.7459035" lon="-122.4433932">
      </trkpt>
      <trkpt lat="37.7462638" lon="-122.4411458">
      </trkpt>
      <trkpt lat="37.7459035" lon="-122.4433932">
      </trkpt>
      <trkpt lat="37.7451868" lon="-122.442981">
      </trkpt>
      <trkpt lat="37.7452466" lon="-122.4412715">
      </trkpt>
      <trkpt lat="37.7443497" lon="-122.4426617">
      </trkpt>
      <trkpt lat="37.7452466" lon="-122.4412715">
      </trkpt>
      <trkpt lat="37.7451868" lon="-122.442981">
      </trkpt>
      <trkpt lat="37.7459035" lon="-122.4433932">
      </trkpt>
      <trkpt lat="37.7465152" lon="-122.4434165">
      </trkpt>
      <trkpt lat="37.7465861" lon="-122.4434192">
      </trkpt>
      <trkpt lat="37.7466512" lon="-122.4437593">
      </trkpt>
      <trkpt lat="37.7467772" lon="-122.4439982">
      </trkpt>
      <trkpt lat="37.7466752" lon="-122.4443525">
      </trkpt>
      <trkpt lat="37.7466725" lon="-122.4443771">
      </trkpt>
      <trkpt lat="37.7466633" lon="-122.4445028">
      </trkpt>
      <trkpt lat="37.7469466" lon="-122.4448421">
      </trkpt>
      <trkpt lat="37.7470342" lon="-122.4448792">
      </trkpt>
      <trkpt lat="37.7467627" lon="-122.4466703">
      </trkpt>
      <trkpt lat="37.7465105" lon="-122.4478016">
      </trkpt>
      <trkpt lat="37.745899" lon="-122.4508255">
      </trkpt>
      <trkpt lat="37.7456064" lon="-122.4517243">
      </trkpt>
      <trkpt lat="37.7455425" lon="-122.4518513">
      </trkpt>
      <trkpt lat="37.7454642" lon="-122.4516754">
      </trkpt>
      <trkpt lat="37.7451244" lon="-122.4512926">
      </trkpt>
      <trkpt lat="37.7412125" lon="-122.4459575">
      </trkpt>
      <trkpt lat="37.7417902" lon="-122.4478094">
      </trkpt>
      <trkpt lat="37.7420569" lon="-122.4495368">
      </trkpt>
      <trkpt lat="37.7412216" lon="-122.4484603">
      </trkpt>
      <trkpt lat="37.7401122" lon="-122.4463146">
      </trkpt>
      <trkpt lat="37.7400357" lon="-122.4461579">
      </trkpt>
      <trkpt lat="37.7401122" lon="-122.4463146">
      </trkpt>
      <trkpt lat="37.7395559" lon="-122.4467267">
      </trkpt>
      <trkpt lat="37.7390928" lon="-122.4462201">
      </trkpt>
      <trkpt lat="37.7383826" lon="-122.4462231">
      </trkpt>
      <trkpt lat="37.737668" lon="-122.4465215">
      </trkpt>
      <trkpt lat="37.737457" lon="-122.446432">
      </trkpt>
    </trkseg>
  </trk>
</gpx>