<?xml version="1.0" encoding="UTF-8"?>
<gpx xmlns="http://www.topografix.com/GPX/1/1" xmlns:xsi="http://www.w3.org/2001/XMLSchema-instance" xsi:schemaLocation="http://www.topografix.com/GPX/1/1 http://www.topografix.com/GPX/1/1/gpx.xsd" version="1.1" creator="gpx.py -- https://github.com/tkrajina/gpxpy">
  <metadata>
    <name>Route Sculptor: horse</name>
    <desc></desc>
  </metadata>
  <trk>
    <name>Route Sculptor: horse</name>
    <trkseg>
      <trkpt lat="37.7853711" lon="-122.4464468">
      </trkpt>
      <trkpt lat="37.7863015" lon="-122.4466284">
      </trkpt>
      <trkpt lat="37.786127" lon="-122.4469272">
      </trkpt>
      <trkpt lat="37.7855246" lon="-122.4474781">
      </trkpt>
      <trkpt lat="37.7850101" lon="-122.4480059">
      </trkpt>
      <trkpt lat="37.7846918" lon="-122.4492965">
      </trkpt>
      <trkpt lat="37.7861237" lon="-122.4499886">
      </trkpt>
      <trkpt lat="37.7861018" lon="-122.4501827">
      </trkpt>
      <trkpt lat="37.786083" lon="-122.4504104">
      </trkpt>
      <trkpt lat="37.7857585" lon="-122.4503392">
      </trkpt>
      <trkpt lat="37.7845999" lon="-122.4501621">
      </trkpt>
      <trkpt lat="37.7845222" lon="-122.4501617">
      </trkpt>
      <trkpt lat="37.7844909" lon="-122.4501756">
      </trkpt>
      <trkpt lat="37.7844619" lon="-122.4502621">
      </trkpt>
      <trkpt lat="37.7842783" lon="-122.4510285">
      </trkpt>
      <trkpt lat="37.7844619" lon="-122.4502621">
      </trkpt>
      <trkpt lat="37.7844632" lon="-122.4501664">
      </trkpt>
      <trkpt lat="37.7844508" lon="-122.450151">
      </trkpt>
      <trkpt lat="37.7843916" lon="-122.4501488">
      </trkpt>
      <trkpt lat="37.7821812" lon="-122.4501223">
      </trkpt>
      <trkpt lat="37.7820509" lon="-122.4511475">
      </trkpt>
      <trkpt lat="37.7819193" lon="-122.4521747">
      </trkpt>
      <trkpt lat="37.7836562" lon="-122.4525234">
      </trkpt>
      <trkpt lat="37.7819193" lon="-122.4521747">
      </trkpt>
      <trkpt lat="37.7817894" lon="-122.4531993">
      </trkpt>
      <trkpt lat="37.7840581" lon="-122.4536526">
      </trkpt>
      <trkpt lat="37.7840406" lon="-122.4544519">
      </trkpt>
      <trkpt lat="37.784051" lon="-122.454562">
      </trkpt>
      <trkpt lat="37.7840934" lon="-122.4546309">
      </trkpt>
      <trkpt lat="37.7840886" lon="-122.454669">
      </trkpt>
      <trkpt lat="37.7840408" lon="-122.4547167">
      </trkpt>
      <trkpt lat="37.7840242" lon="-122.4548128">
      </trkpt>
      <trkpt lat="37.7839781" lon="-122.455731">
      </trkpt>
      <trkpt lat="37.7814929" lon="-122.4555513">
      </trkpt>
      <trkpt lat="37.7814511" lon="-122.4563441">
      </trkpt>
      <trkpt lat="37.7814371" lon="-122.4566526">
      </trkpt>
      <trkpt lat="37.7813869" lon="-122.4577568">
      </trkpt>
      <trkpt lat="37.781335" lon="-122.4588991">
      </trkpt>
      <trkpt lat="37.7812124" lon="-122.4588903">
      </trkpt>
      <trkpt lat="37.7793568" lon="-122.4587569">
      </trkpt>
      <trkpt lat="37.7794836" lon="-122.457767">
      </trkpt>
      <trkpt lat="37.7804769" lon="-122.4579681">
      </trkpt>
      <trkpt lat="37.7794836" lon="-122.457767">
      </trkpt>
      <trkpt lat="37.7795938" lon="-122.4569001">
      </trkpt>
      <trkpt lat="37.7797076" lon="-122.456514">
      </trkpt>
      <trkpt lat="37.7775004" lon="-122.4560701">
      </trkpt>
      <trkpt lat="37.7776069" lon="-122.4552359">
      </trkpt>
      <trkpt lat="37.7770372" lon="-122.455145">
      </trkpt>
      <trkpt lat="37.7763251" lon="-122.4549939">
      </trkpt>
      <trkpt lat="37.7757024" lon="-122.4548687">
      </trkpt>
      <trkpt lat="37.7755337" lon="-122.454806">
      </trkpt>
      <trkpt lat="37.774764" lon="-122.454668">
      </trkpt>
      <trkpt lat="37.7729021" lon="-122.4542991">
      </trkpt>
      <trkpt lat="37.7719886" lon="-122.4541025">
      </trkpt>
      <trkpt lat="37.7719088" lon="-122.4540895">
      </trkpt>
      <trkpt lat="37.771841" lon="-122.4540843">
      </trkpt>
      <trkpt lat="37.771492" lon="-122.4540834">
      </trkpt>
      <trkpt lat="37.7713517" lon="-122.4540539">
      </trkpt>
      <trkpt lat="37.7713959" lon="-122.4539306">
      </trkpt>
      <trkpt lat="37.7714109" lon="-122.4534023">
      </trkpt>
      <trkpt lat="37.7712583" lon="-122.4522632">
      </trkpt>
      <trkpt lat="37.7703201" lon="-122.452072">
      </trkpt>
      <trkpt lat="37.7693851" lon="-122.451882">
      </trkpt>
      <trkpt lat="37.7684545" lon="-122.451695">
      </trkpt>
      <trkpt lat="37.7675231" lon="-122.451507">
      </trkpt>
      <trkpt lat="37.7665901" lon="-122.451319">
      </trkpt>
      <trkpt lat="37.7667369" lon="-122.450164">
      </trkpt>
      <trkpt lat="37.7658062" lon="-122.449976">
      </trkpt>
      <trkpt lat="37.7656229" lon="-122.4514179">
      </trkpt>
      <trkpt lat="37.7646924" lon="-122.4512298">
      </trkpt>
      <trkpt lat="37.7648747" lon="-122.449788">
      </trkpt>
      <trkpt lat="37.7640358" lon="-122.4496193">
      </trkpt>
      <trkpt lat="37.7632084" lon="-122.4494524">
      </trkpt>
      <trkpt lat="37.7625312" lon="-122.4493158">
      </trkpt>
      <trkpt lat="37.7616465" lon="-122.4491373">
      </trkpt>
      <trkpt lat="37.7608549" lon="-122.4489773">
      </trkpt>
      <trkpt lat="37.7607659" lon="-122.4504366">
      </trkpt>
      <trkpt lat="37.7596177" lon="-122.4492343">
      </trkpt>
      <trkpt lat="37.7596743" lon="-122.44819">
      </trkpt>
      <trkpt lat="37.7596177" lon="-122.4492343">
      </trkpt>
      <trkpt lat="37.7607659" lon="-122.4504366">
      </trkpt>
      <trkpt lat="37.7608549" lon="-122.4489773">
      </trkpt>
      <trkpt lat="37.7609359" lon="-122.4476471">
      </trkpt>
      <trkpt lat="37.7610952" lon="-122.4464564">
      </trkpt>
      <trkpt lat="37.7601129" lon="-122.4470098">
      </trkpt>
      <trkpt lat="37.7593757" lon="-122.4474411">
      </trkpt>
      <trkpt lat="37.7591358" lon="-122.4479433">
      </trkpt>
      <trkpt lat="37.759051" lon="-122.4485027">
      </trkpt>
      <trkpt lat="37.7578284" lon="-122.4481654">
      </trkpt>
      <trkpt lat="37.7565038" lon="-122.4469479">
      </trkpt>
      <trkpt lat="37.756249" lon="-122.4467241">
      </trkpt>
      <trkpt lat="37.7565038" lon="-122.4469479">
      </trkpt>
      <trkpt lat="37.7578284" lon="-122.4481654">
      </trkpt>
      <trkpt lat="37.758193" lon="-122.44949">
      </trkpt>
      <trkpt lat="37.7574582" lon="-122.4502984">
      </trkpt>
      <trkpt lat="37.7567097" lon="-122.4511238">
      </trkpt>
      <trkpt lat="37.7567534" lon="-122.4503939">
      </trkpt>
      <trkpt lat="37.7558779" lon="-122.4495596">
      </trkpt>
      <trkpt lat="37.7541308" lon="-122.4495919">
      </trkpt>
      <trkpt lat="37.7539356" lon="-122.450025">
      </trkpt>
      <trkpt lat="37.7511437" lon="-122.4500385">
      </trkpt>
      <trkpt lat="37.7498373" lon="-122.4502638">
      </trkpt>
      <trkpt lat="37.7488236" lon="-122.4503818">
      </trkpt>
      <trkpt lat="37.7485014" lon="-122.4491446">
      </trkpt>
      <trkpt lat="37.7468467" lon="-122.4498627">
      </trkpt>
      <trkpt lat="37.7466155" lon="-122.4495208">
      </trkpt>
      <trkpt lat="37.7471022" lon="-122.4490804">
      </trkpt>
      <trkpt lat="37.7541043" lon="-122.4472376">
      </trkpt>
      <trkpt lat="37.7471022" lon="-122.4490804">
      </trkpt>
      <trkpt lat="37.7466155" lon="-122.4495208">
      </trkpt>
      <trkpt lat="37.7468467" lon="-122.4498627">
      </trkpt>
      <trkpt lat="37.7485014" lon="-122.4491446">
      </trkpt>
      <trkpt lat="37.7488236" lon="-122.4503818">
      </trkpt>
      <trkpt lat="37.7498373" lon="-122.4502638">
      </trkpt>
      <trkpt lat="37.7511437" lon="-122.4500385">
      </trkpt>
      <trkpt lat="37.7498373" lon="-122.4502638">
      </trkpt>
      <trkpt lat="37.7488236" lon="-122.4503818">
      </trkpt>
      <trkpt lat="37.7488395" lon="-122.4512361">
      </trkpt>
      <trkpt lat="37.7486825" lon="-122.4521239">
      </trkpt>
      <trkpt lat="37.7479816" lon="-122.4517658">
      </trkpt>
      <trkpt lat="37.7473559" lon="-122.4511677">
      </trkpt>
      <trkpt lat="37.7468467" lon="-122.4498627">
      </trkpt>
      <trkpt lat="37.7466155" lon="-122.4495208">
      </trkpt>
      <trkpt lat="37.745899" lon="-122.4508255">
      </trkpt>
      <trkpt lat="37.7456064" lon="-122.4517243">
      </trkpt>
      <trkpt lat="37.7456581" lon="-122.4525484">
      </trkpt>
      <trkpt lat="37.7456017" lon="-122.4522328">
      </trkpt>
      <trkpt lat="37.7453986" lon="-122.4521572">
      </trkpt>
      <trkpt lat="37.7451105" lon="-122.452676">
      </trkpt>
      <trkpt lat="37.7445991" lon="-122.4535131">
      </trkpt>
      <trkpt lat="37.7445113" lon="-122.4536402">
      </trkpt>
      <trkpt lat="37.7440364" lon="-122.4542995">
      </trkpt>
      <trkpt lat="37.7439594" lon="-122.4541958">
      </trkpt>
      <trkpt lat="37.7440364" lon="-122.4542995">
      </trkpt>
      <trkpt lat="37.7430793" lon="-122.455302">
      </trkpt>
      <trkpt lat="37.7430142" lon="-122.4552058">
      </trkpt>
      <trkpt lat="37.7439594" lon="-122.4541958">
      </trkpt>
      <trkpt lat="37.7434229" lon="-122.4534726">
      </trkpt>
      <trkpt lat="37.741783" lon="-122.4549325">
      </trkpt>
      <trkpt lat="37.7419735" lon="-122.4539061">
      </trkpt>
      <trkpt lat="37.7410812" lon="-122.4544761">
      </trkpt>
      <trkpt lat="37.7413245" lon="-122.4530586">
      </trkpt>
      <trkpt lat="37.7410812" lon="-122.4544761">
      </trkpt>
      <trkpt lat="37.7419735" lon="-122.4539061">
      </trkpt>
      <trkpt lat="37.7422323" lon="-122.4537352">
      </trkpt>
      <trkpt lat="37.742999" lon="-122.4528774">
      </trkpt>
      <trkpt lat="37.7434229" lon="-122.4534726">
      </trkpt>
      <trkpt lat="37.7438716" lon="-122.4526894">
      </trkpt>
      <trkpt lat="37.744503" lon="-122.4516395">
      </trkpt>
      <trkpt lat="37.745192" lon="-122.4522975">
      </trkpt>
      <trkpt lat="37.7454642" lon="-122.4516754">
      </trkpt>
      <trkpt lat="37.7454989" lon="-122.4515628">
      </trkpt>
      <trkpt lat="37.7456143" lon="-122.4512169">
      </trkpt>
      <trkpt lat="37.7457663" lon="-122.4507583">
      </trkpt>
      <trkpt lat="37.745899" lon="-122.4508255">
      </trkpt>
      <trkpt lat="37.7466155" lon="-122.4495208">
      </trkpt>
      <trkpt lat="37.7468467" lon="-122.4498627">
      </trkpt>
      <trkpt lat="37.7473559" lon="-122.4511677">
      </trkpt>
      <trkpt lat="37.7475447" lon="-122.4500586">
      </trkpt>
      <trkpt lat="37.7473559" lon="-122.4511677">
      </trkpt>
      <trkpt lat="37.7479816" lon="-122.4517658">
      </trkpt>
      <trkpt lat="37.7481757" lon="-122.4499151">
      </trkpt>
      <trkpt lat="37.7479816" lon="-122.4517658">
      </trkpt>
      <trkpt lat="37.7486825" lon="-122.4521239">
      </trkpt>
      <trkpt lat="37.7488395" lon="-122.4512361">
      </trkpt>
      <trkpt lat="37.7488236" lon="-122.4503818">
      </trkpt>
      <trkpt lat="37.7498373" lon="-122.4502638">
      </trkpt>
      <trkpt lat="37.7488236" lon="-122.4503818">
      </trkpt>
      <trkpt lat="37.7485014" lon="-122.4491446">
      </trkpt>
      <trkpt lat="37.7500094" lon="-122.4480259">
      </trkpt>
      <trkpt lat="37.7485014" lon="-122.4491446">
      </trkpt>
      <trkpt lat="37.7468467" lon="-122.4498627">
      </trkpt>
      <trkpt lat="37.7466155" lon="-122.4495208">
      </trkpt>
      <trkpt lat="37.745899" lon="-122.4508255">
      </trkpt>
      <trkpt lat="37.7457663" lon="-122.4507583">
      </trkpt>
      <trkpt lat="37.7464036" lon="-122.4477574">
      </trkpt>
      <trkpt lat="37.7467979" lon="-122.4458926">
      </trkpt>
      <trkpt lat="37.74693" lon="-122.4449565">
      </trkpt>
      <trkpt lat="37.7469466" lon="-122.4448421">
      </trkpt>
      <trkpt lat="37.7470342" lon="-122.4448792">
      </trkpt>
      <trkpt lat="37.748007" lon="-122.4450153">
      </trkpt>
      <trkpt lat="37.7483735" lon="-122.4450401">
      </trkpt>
      <trkpt lat="37.7485034" lon="-122.4450565">
      </trkpt>
      <trkpt lat="37.7492551" lon="-122.4448469">
      </trkpt>
      <trkpt lat="37.7505228" lon="-122.4457517">
      </trkpt>
      <trkpt lat="37.7527816" lon="-122.4463156">
      </trkpt>
      <trkpt lat="37.7505228" lon="-122.4457517">
      </trkpt>
      <trkpt lat="37.7492551" lon="-122.4448469">
      </trkpt>
      <trkpt lat="37.7485034" lon="-122.4450565">
      </trkpt>
      <trkpt lat="37.7483735" lon="-122.4450401">
      </trkpt>
      <trkpt lat="37.748007" lon="-122.4450153">
      </trkpt>
      <trkpt lat="37.7470342" lon="-122.4448792">
      </trkpt>
      <trkpt lat="37.7467627" lon="-122.4466703">
      </trkpt>
      <trkpt lat="37.7465105" lon="-122.4478016">
      </trkpt>
      <trkpt lat="37.745899" lon="-122.4508255">
      </trkpt>
      <trkpt lat="37.7466155" lon="-122.4495208">
      </trkpt>
      <trkpt lat="37.7471022" lon="-122.4490804">
      </trkpt>
      <trkpt lat="37.7541043" lon="-122.4472376">
      </trkpt>
      <trkpt lat="37.7471022" lon="-122.4490804">
      </trkpt>
      <trkpt lat="37.7466155" lon="-122.4495208">
      </trkpt>
      <trkpt lat="37.745899" lon="-122.4508255">
      </trkpt>
      <trkpt lat="37.7457663" lon="-122.4507583">
      </trkpt>
      <trkpt lat="37.7464036" lon="-122.4477574">
      </trkpt>
      <trkpt lat="37.7467979" lon="-122.4458926">
      </trkpt>
      <trkpt lat="37.74693" lon="-122.4449565">
      </trkpt>
      <trkpt lat="37.7469466" lon="-122.4448421">
      </trkpt>
      <trkpt lat="37.7470342" lon="-122.4448792">
      </trkpt>
      <trkpt lat="37.748007" lon="-122.4450153">
      </trkpt>
      <trkpt lat="37.7483735" lon="-122.4450401">
      </trkpt>
      <trkpt lat="37.7485034" lon="-122.4450565">
      </trkpt>
      <trkpt lat="37.7492551" lon="-122.4448469">
      </trkpt>
      <trkpt lat="37.7505228" lon="-122.4457517">
      </trkpt>
      <trkpt lat="37.7509012" lon="-122.4452895">
      </trkpt>
      <trkpt lat="37.7555125" lon="-122.4442363">
      </trkpt>
      <trkpt lat="37.7531435" lon="-122.4446506">
      </trkpt>
      <trkpt lat="37.7509513" lon="-122.4448129">
      </trkpt>
      <trkpt lat="37.7509012" lon="-122.4452895">
      </trkpt>
      <trkpt lat="37.7505228" lon="-122.4457517">
      </trkpt>
      <trkpt lat="37.7527816" lon="-122.4463156">
      </trkpt>
      <trkpt lat="37.7529092" lon="-122.4461604">
      </trkpt>
      <trkpt lat="37.7527816" lon="-122.4463156">
      </trkpt>
      <trkpt lat="37.7505228" lon="-122.4457517">
      </trkpt>
      <trkpt lat="37.7509012" lon="-122.4452895">
      </trkpt>
      <trkpt lat="37.7505228" lon="-122.4457517">
      </trkpt>
      <trkpt lat="37.7492551" lon="-122.4448469">
      </trkpt>
      <trkpt lat="37.7485034" lon="-122.4450565">
      </trkpt>
      <trkpt lat="37.7483735" lon="-122.4450401">
      </trkpt>
      <trkpt lat="37.748007" lon="-122.4450153">
      </trkpt>
      <trkpt lat="37.7470342" lon="-122.4448792">
      </trkpt>
      <trkpt lat="37.7467627" lon="-122.4466703">
      </trkpt>
      <trkpt lat="37.7465105" lon="-122.4478016">
      </trkpt>
      <trkpt lat="37.745899" lon="-122.4508255">
      </trkpt>
      <trkpt lat="37.7466155" lon="-122.4495208">
      </trkpt>
      <trkpt lat="37.7468467" lon="-122.4498627">
      </trkpt>
      <trkpt lat="37.7485014" lon="-122.4491446">
      </trkpt>
      <trkpt lat="37.7500094" lon="-122.4480259">
      </trkpt>
      <trkpt lat="37.7485014" lon="-122.4491446">
      </trkpt>
      <trkpt lat="37.7468467" lon="-122.4498627">
      </trkpt>
      <trkpt lat="37.7466155" lon="-122.4495208">
      </trkpt>
      <trkpt lat="37.745899" lon="-122.4508255">
      </trkpt>
      <trkpt lat="37.7457663" lon="-122.4507583">
      </trkpt>
      <trkpt lat="37.7464036" lon="-122.4477574">
      </trkpt>
      <trkpt lat="37.7465105" lon="-122.4478016">
      </trkpt>
      <trkpt lat="37.7469048" lon="-122.4478935">
      </trkpt>
      <trkpt lat="37.7480995" lon="-122.4477017">
      </trkpt>
      <trkpt lat="37.7469048" lon="-122.4478935">
      </trkpt>
      <trkpt lat="37.7465105" lon="-122.4478016">
      </trkpt>
      <trkpt lat="37.745899" lon="-122.4508255">
      </trkpt>
      <trkpt lat="37.7466155" lon="-122.4495208">
      </trkpt>
      <trkpt lat="37.7471022" lon="-122.4490804">
      </trkpt>
      <trkpt lat="37.7466155" lon="-122.4495208">
      </trkpt>
      <trkpt lat="37.745899" lon="-122.4508255">
      </trkpt>
      <trkpt lat="37.7457663" lon="-122.4507583">
      </trkpt>
      <trkpt lat="37.7464036" lon="-122.4477574">
      </trkpt>
      <trkpt lat="37.7465105" lon="-122.4478016">
      </trkpt>
      <trkpt lat="37.7469048" lon="-122.4478935">
      </trkpt>
      <trkpt lat="37.7465373" lon="-122.4486638">
      </trkpt>
      <trkpt lat="37.7469048" lon="-122.4478935">
      </trkpt>
      <trkpt lat="37.7465105" lon="-122.4478016">
      </trkpt>
      <trkpt lat="37.745899" lon="-122.4508255">
      </trkpt>
      <trkpt lat="37.7457663" lon="-122.4507583">
      </trkpt>
      <trkpt lat="37.745899" lon="-122.4508255">
      </trkpt>
      <trkpt lat="37.7456064" lon="-122.4517243">
      </trkpt>
      <trkpt lat="37.7455425" lon="-122.4518513">
      </trkpt>
      <trkpt lat="37.7453986" lon="-122.4521572">
      </trkpt>
      <trkpt lat="37.7451105" lon="-122.452676">
      </trkpt>
      <trkpt lat="37.7445585" lon="-122.4533468">
      </trkpt>
      <trkpt lat="37.7438716" lon="-122.4526894">
      </trkpt>
      <trkpt lat="37.744503" lon="-122.4516395">
      </trkpt>
      <trkpt lat="37.7436084" lon="-122.4516137">
      </trkpt>
      <trkpt lat="37.7429846" lon="-122.4510232">
      </trkpt>
      <trkpt lat="37.7427539" lon="-122.4508445">
      </trkpt>
      <trkpt lat="37.7426011" lon="-122.4507656">
      </trkpt>
      <trkpt lat="37.7422331" lon="-122.4506613">
      </trkpt>
      <trkpt lat="37.7419003" lon="-122.4505865">
      </trkpt>
      <trkpt lat="37.7411775" lon="-122.4510188">
      </trkpt>
      <trkpt lat="37.7404504" lon="-122.4499724">
      </trkpt>
      <trkpt lat="37.7400779" lon="-122.4507027">
      </trkpt>
      <trkpt lat="37.7404504" lon="-122.4499724">
      </trkpt>
      <trkpt lat="37.7408359" lon="-122.4492166">
      </trkpt>
      <trkpt lat="37.7412216" lon="-122.4484603">
      </trkpt>
      <trkpt lat="37.7420569" lon="-122.4495368">
      </trkpt>
      <trkpt lat="37.7426197" lon="-122.4506155">
      </trkpt>
      <trkpt lat="37.7427539" lon="-122.4508445">
      </trkpt>
      <trkpt lat="37.7429846" lon="-122.4510232">
      </trkpt>
      <trkpt lat="37.7436084" lon="-122.4516137">
      </trkpt>
      <trkpt lat="37.744503" lon="-122.4516395">
      </trkpt>
      <trkpt lat="37.745192" lon="-122.4522975">
      </trkpt>
      <trkpt lat="37.7454642" lon="-122.4516754">
      </trkpt>
      <trkpt lat="37.7454989" lon="-122.4515628">
      </trkpt>
      <trkpt lat="37.7456143" lon="-122.4512169">
      </trkpt>
      <trkpt lat="37.7457663" lon="-122.4507583">
      </trkpt>
      <trkpt lat="37.7464036" lon="-122.4477574">
      </trkpt>
      <trkpt lat="37.7467979" lon="-122.4458926">
      </trkpt>
      <trkpt lat="37.7466308" lon="-122.4447109">
      </trkpt>
      <trkpt lat="37.7466633" lon="-122.4445028">
      </trkpt>
      <trkpt lat="37.7466725" lon="-122.4443771">
      </trkpt>
      <trkpt lat="37.7465877" lon="-122.4438019">
      </trkpt>
      <trkpt lat="37.7465152" lon="-122.4434165">
      </trkpt>
      <trkpt lat="37.7459035" lon="-122.4433932">
      </trkpt>
      <trkpt lat="37.7461187" lon="-122.4442829">
      </trkpt>
      <trkpt lat="37.7460731" lon="-122.4452163">
      </trkpt>
      <trkpt lat="37.7456239" lon="-122.4453164">
      </trkpt>
      <trkpt lat="37.7454612" lon="-122.4463544">
      </trkpt>
      <trkpt lat="37.7461217" lon="-122.446879">
      </trkpt>
      <trkpt lat="37.7460554" lon="-122.4472999">
      </trkpt>
      <trkpt lat="37.7461217" lon="-122.446879">
      </trkpt>
      <trkpt lat="37.7460731" lon="-122.4452163">
      </trkpt>
      <trkpt lat="37.7461187" lon="-122.4442829">
      </trkpt>
      <trkpt lat="37.7459035" lon="-122.4433932">
      </trkpt>
      <trkpt lat="37.7465152" lon="-122.4434165">
      </trkpt>
      <trkpt lat="37.7465861" lon="-122.4434192">
      </trkpt>
      <trkpt lat="37.7466512" lon="-122.4437593">
      </trkpt>
      <trkpt lat="37.7467772" lon="-122.4439982">
      </trkpt>
      <trkpt lat="37.7466752" lon="-122.4443525">
      </trkpt>
      <trkpt lat="37.7466725" lon="-122.4443771">
      </trkpt>
      <trkpt lat="37.7466633" lon="-122.4445028">
      </trkpt>
      <trkpt lat="37.7469466" lon="-122.4448421">
      </trkpt>
      <trkpt lat="37.7470342" lon="-122.4448792">
      </trkpt>
      <trkpt lat="37.7467627" lon="-122.4466703">
      </trkpt>
      <trkpt lat="37.7468686" lon="-122.4471234">
      </trkpt>
      <trkpt lat="37.7469048" lon="-122.4478935">
      </trkpt>
      <trkpt lat="37.7480995" lon="-122.4477017">
      </trkpt>
      <trkpt lat="37.748007" lon="-122.4450153">
      </trkpt>
      <trkpt lat="37.7483735" lon="-122.4450401">
      </trkpt>
      <trkpt lat="37.7485034" lon="-122.4450565">
      </trkpt>
      <trkpt lat="37.7492551" lon="-122.4448469">
      </trkpt>
      <trkpt lat="37.7505228" lon="-122.4457517">
      </trkpt>
      <trkpt lat="37.7509012" lon="-122.4452895">
      </trkpt>
      <trkpt lat="37.7509513" lon="-122.4448129">
      </trkpt>
      <trkpt lat="37.7531435" lon="-122.4446506">
      </trkpt>
      <trkpt lat="37.752747" lon="-122.443762">
      </trkpt>
      <trkpt lat="37.750413" lon="-122.4439389">
      </trkpt>
      <trkpt lat="37.7501647" lon="-122.4437188">
      </trkpt>
      <trkpt lat="37.7500525" lon="-122.4434324">
      </trkpt>
      <trkpt lat="37.7500321" lon="-122.4433082">
      </trkpt>
      <trkpt lat="37.7501167" lon="-122.443291">
      </trkpt>
      <trkpt lat="37.7526576" lon="-122.442684">
      </trkpt>
      <trkpt lat="37.7562295" lon="-122.4410354">
      </trkpt>
      <trkpt lat="37.7564188" lon="-122.4401537">
      </trkpt>
      <trkpt lat="37.7557455" lon="-122.4401029">
      </trkpt>
      <trkpt lat="37.7545933" lon="-122.4408475">
      </trkpt>
      <trkpt lat="37.7544036" lon="-122.4409478">
      </trkpt>
      <trkpt lat="37.7541395" lon="-122.4411327">
      </trkpt>
      <trkpt lat="37.7532362" lon="-122.4419828">
      </trkpt>
      <trkpt lat="37.7533044" lon="-122.4408687">
      </trkpt>
      <trkpt lat="37.7534359" lon="-122.4387217">
      </trkpt>
      <trkpt lat="37.7526304" lon="-122.4386445">
      </trkpt>
      <trkpt lat="37.7526991" lon="-122.437509">
      </trkpt>
      <trkpt lat="37.7527653" lon="-122.4364728">
      </trkpt>
      <trkpt lat="37.7519653" lon="-122.4363944">
      </trkpt>
      <trkpt lat="37.7520907" lon="-122.4341847">
      </trkpt>
      <trkpt lat="37.7522307" lon="-122.4319669">
      </trkpt>
      <trkpt lat="37.7514368" lon="-122.4318839">
      </trkpt>
      <trkpt lat="37.7515712" lon="-122.4296729">
      </trkpt>
      <trkpt lat="37.750762" lon="-122.429577">
      </trkpt>
      <trkpt lat="37.7499683" lon="-122.4295003">
      </trkpt>
      <trkpt lat="37.749158" lon="-122.429423">
      </trkpt>
      <trkpt lat="37.748362" lon="-122.429346">
      </trkpt>
      <trkpt lat="37.7475757" lon="-122.4292711">
      </trkpt>
      <trkpt lat="37.746763" lon="-122.429193">
      </trkpt>
      <trkpt lat="37.74596" lon="-122.429116">
      </trkpt>
      <trkpt lat="37.745165" lon="-122.429037">
      </trkpt>
      <trkpt lat="37.744363" lon="-122.428959">
      </trkpt>
      <trkpt lat="37.7435712" lon="-122.4288836">
      </trkpt>
      <trkpt lat="37.742764" lon="-122.428806">
      </trkpt>
      <trkpt lat="37.741964" lon="-122.428729">
      </trkpt>
      <trkpt lat="37.741953" lon="-122.428911">
      </trkpt>
      <trkpt lat="37.74189" lon="-122.429947">
      </trkpt>
      <trkpt lat="37.741837" lon="-122.4309418">
      </trkpt>
      <trkpt lat="37.7404644" lon="-122.4308048">
      </trkpt>
      <trkpt lat="37.7402041" lon="-122.4303547">
      </trkpt>
      <trkpt lat="37.738669" lon="-122.4281112">
      </trkpt>
      <trkpt lat="37.7377518" lon="-122.4282677">
      </trkpt>
      <trkpt lat="37.7383179" lon="-122.4287518">
      </trkpt>
      <trkpt lat="37.7385083" lon="-122.4287614">
      </trkpt>
      <trkpt lat="37.7391947" lon="-122.4312453">
      </trkpt>
      <trkpt lat="37.7384711" lon="-122.4307878">
      </trkpt>
      <trkpt lat="37.738383" lon="-122.4311895">
      </trkpt>
      <trkpt lat="37.73842" lon="-122.4313083">
      </trkpt>
      <trkpt lat="37.7400721" lon="-122.4329372">
      </trkpt>
      <trkpt lat="37.7399223" lon="-122.4330847">
      </trkpt>
      <trkpt lat="37.7383321" lon="-122.4313439">
      </trkpt>
      <trkpt lat="37.738383" lon="-122.4311895">
      </trkpt>
      <trkpt lat="37.7384711" lon="-122.4307878">
      </trkpt>
      <trkpt lat="37.7391947" lon="-122.4312453">
      </trkpt>
      <trkpt lat="37.7385083" lon="-122.4287614">
      </trkpt>
      <trkpt lat="37.7383179" lon="-122.4287518">
      </trkpt>
      <trkpt lat="37.7377786" lon="-122.4295838">
      </trkpt>
      <trkpt lat="37.7374536" lon="-122.4300852">
      </trkpt>
      <trkpt lat="37.7366312" lon="-122.4313541">
      </trkpt>
      <trkpt lat="37.7361001" lon="-122.430806">
      </trkpt>
      <trkpt lat="37.7366312" lon="-122.4313541">
      </trkpt>
      <trkpt lat="37.7374536" lon="-122.4300852">
      </trkpt>
      <trkpt lat="37.7377786" lon="-122.4295838">
      </trkpt>
      <trkpt lat="37.7383179" lon="-122.4287518">
      </trkpt>
      <trkpt lat="37.7385083" lon="-122.4287614">
      </trkpt>
      <trkpt lat="37.7391947" lon="-122.4312453">
      </trkpt>
      <trkpt lat="37.7384711" lon="-122.4307878">
      </trkpt>
      <trkpt lat="37.7385702" lon="-122.4297124">
      </trkpt>
      <trkpt lat="37.7384711" lon="-122.4307878">
      </trkpt>
      <trkpt lat="37.7391947" lon="-122.4312453">
      </trkpt>
      <trkpt lat="37.7385083" lon="-122.4287614">
      </trkpt>
      <trkpt lat="37.7383179" lon="-122.4287518">
      </trkpt>
      <trkpt lat="37.7377518" lon="-122.4282677">
      </trkpt>
      <trkpt lat="37.738669" lon="-122.4281112">
      </trkpt>
      <trkpt lat="37.7402041" lon="-122.4303547">
      </trkpt>
      <trkpt lat="37.740753" lon="-122.42984">
      </trkpt>
      <trkpt lat="37.74189" lon="-122.429947">
      </trkpt>
      <trkpt lat="37.741953" lon="-122.428911">
      </trkpt>
      <trkpt lat="37.741964" lon="-122.428729">
      </trkpt>
      <trkpt lat="37.742764" lon="-122.428806">
      </trkpt>
      <trkpt lat="37.7435712" lon="-122.4288836">
      </trkpt>
      <trkpt lat="37.744363" lon="-122.428959">
      </trkpt>
      <trkpt lat="37.745165" lon="-122.429037">
      </trkpt>
      <trkpt lat="37.74596" lon="-122.429116">
      </trkpt>
      <trkpt lat="37.7460979" lon="-122.42692">
      </trkpt>
      <trkpt lat="37.7469012" lon="-122.4269915">
      </trkpt>
      <trkpt lat="37.7477059" lon="-122.4270648">
      </trkpt>
      <trkpt lat="37.7484943" lon="-122.4271397">
      </trkpt>
      <trkpt lat="37.7486277" lon="-122.4249345">
      </trkpt>
      <trkpt lat="37.7486359" lon="-122.424787">
      </trkpt>
      <trkpt lat="37.748711" lon="-122.423677">
      </trkpt>
      <trkpt lat="37.7487695" lon="-122.422622">
      </trkpt>
      <trkpt lat="37.7480778" lon="-122.4225503">
      </trkpt>
      <trkpt lat="37.7479426" lon="-122.4230522">
      </trkpt>
      <trkpt lat="37.7478447" lon="-122.424711">
      </trkpt>
      <trkpt lat="37.747836" lon="-122.4248583">
      </trkpt>
      <trkpt lat="37.7470271" lon="-122.4247809">
      </trkpt>
      <trkpt lat="37.7470378" lon="-122.4246334">
      </trkpt>
      <trkpt lat="37.7470271" lon="-122.4247809">
      </trkpt>
      <trkpt lat="37.746234" lon="-122.424705">
      </trkpt>
      <trkpt lat="37.7454285" lon="-122.4246279">
      </trkpt>
      <trkpt lat="37.7454352" lon="-122.4244795">
      </trkpt>
      <trkpt lat="37.7454285" lon="-122.4246279">
      </trkpt>
      <trkpt lat="37.7446311" lon="-122.4245515">
      </trkpt>
      <trkpt lat="37.7438391" lon="-122.4244757">
      </trkpt>
      <trkpt lat="37.7430301" lon="-122.424399">
      </trkpt>
      <trkpt lat="37.7422388" lon="-122.4243283">
      </trkpt>
      <trkpt lat="37.7421497" lon="-122.4258222">
      </trkpt>
      <trkpt lat="37.739795" lon="-122.4255968">
      </trkpt>
      <trkpt lat="37.739731" lon="-122.426619">
      </trkpt>
      <trkpt lat="37.739668" lon="-122.427652">
      </trkpt>
      <trkpt lat="37.7396614" lon="-122.4277854">
      </trkpt>
      <trkpt lat="37.738854" lon="-122.427428">
      </trkpt>
      <trkpt lat="37.7372688" lon="-122.4276241">
      </trkpt>
      <trkpt lat="37.737214" lon="-122.427707">
      </trkpt>
      <trkpt lat="37.736386" lon="-122.42898">
      </trkpt>
      <trkpt lat="37.7358557" lon="-122.428431">
      </trkpt>
      <trkpt lat="37.7356257" lon="-122.428192">
      </trkpt>
      <trkpt lat="37.7358557" lon="-122.428431">
      </trkpt>
      <trkpt lat="37.736685" lon="-122.427156">
      </trkpt>
      <trkpt lat="37.7360057" lon="-122.4244949">
      </trkpt>
      <trkpt lat="37.7353896" lon="-122.424729">
      </trkpt>
      <trkpt lat="37.7352719" lon="-122.4248196">
      </trkpt>
      <trkpt lat="37.7342838" lon="-122.4258001">
      </trkpt>
      <trkpt lat="37.7348252" lon="-122.4266448">
      </trkpt>
      <trkpt lat="37.7342838" lon="-122.4258001">
      </trkpt>
      <trkpt lat="37.7352719" lon="-122.4248196">
      </trkpt>
      <trkpt lat="37.7353896" lon="-122.424729">
      </trkpt>
      <trkpt lat="37.7360057" lon="-122.4244949">
      </trkpt>
      <trkpt lat="37.7366293" lon="-122.4242868">
      </trkpt>
      <trkpt lat="37.7367381" lon="-122.4255954">
      </trkpt>
      <trkpt lat="37.7366293" lon="-122.4242868">
      </trkpt>
      <trkpt lat="37.7367513" lon="-122.4242447">
      </trkpt>
      <trkpt lat="37.7372773" lon="-122.4240619">
      </trkpt>
      <trkpt lat="37.7373676" lon="-122.4240568">
      </trkpt>
      <trkpt lat="37.7377652" lon="-122.4255356">
      </trkpt>
      <trkpt lat="37.7382226" lon="-122.4252741">
      </trkpt>
      <trkpt lat="37.7390117" lon="-122.4248865">
      </trkpt>
      <trkpt lat="37.7398569" lon="-122.424519">
      </trkpt>
      <trkpt lat="37.7398586" lon="-122.4242794">
      </trkpt>
      <trkpt lat="37.7398297" lon="-122.4240577">
      </trkpt>
      <trkpt lat="37.7398808" lon="-122.4240481">
      </trkpt>
      <trkpt lat="37.7400953" lon="-122.4240022">
      </trkpt>
      <trkpt lat="37.7405528" lon="-122.4238842">
      </trkpt>
      <trkpt lat="37.74085" lon="-122.4239597">
      </trkpt>
      <trkpt lat="37.7412958" lon="-122.4240796">
      </trkpt>
      <trkpt lat="37.7414969" lon="-122.4240961">
      </trkpt>
      <trkpt lat="37.7414885" lon="-122.4242464">
      </trkpt>
      <trkpt lat="37.7414969" lon="-122.4240961">
      </trkpt>
      <trkpt lat="37.742248" lon="-122.4241705">
      </trkpt>
      <trkpt lat="37.7422388" lon="-122.4243283">
      </trkpt>
      <trkpt lat="37.742248" lon="-122.4241705">
      </trkpt>
      <trkpt lat="37.7430377" lon="-122.4242479">
      </trkpt>
      <trkpt lat="37.7430301" lon="-122.424399">
      </trkpt>
      <trkpt lat="37.7430377" lon="-122.4242479">
      </trkpt>
      <trkpt lat="37.7438481" lon="-122.424327">
      </trkpt>
      <trkpt lat="37.744639" lon="-122.424403">
      </trkpt>
      <trkpt lat="37.7454352" lon="-122.4244795">
      </trkpt>
      <trkpt lat="37.7462369" lon="-122.4245565">
      </trkpt>
      <trkpt lat="37.7463765" lon="-122.4223614">
      </trkpt>
      <trkpt lat="37.7463831" lon="-122.4222584">
      </trkpt>
      <trkpt lat="37.747187" lon="-122.422332">
      </trkpt>
      <trkpt lat="37.7471789" lon="-122.4224487">
      </trkpt>
      <trkpt lat="37.747187" lon="-122.422332">
      </trkpt>
      <trkpt lat="37.7479638" lon="-122.4224237">
      </trkpt>
      <trkpt lat="37.7480915" lon="-122.4224523">
      </trkpt>
      <trkpt lat="37.7487755" lon="-122.422522">
      </trkpt>
      <trkpt lat="37.7487695" lon="-122.422622">
      </trkpt>
      <trkpt lat="37.748711" lon="-122.423677">
      </trkpt>
      <trkpt lat="37.7503117" lon="-122.4238307">
      </trkpt>
      <trkpt lat="37.7503756" lon="-122.4227756">
      </trkpt>
      <trkpt lat="37.7503816" lon="-122.4226776">
      </trkpt>
      <trkpt lat="37.7519806" lon="-122.4228345">
      </trkpt>
      <trkpt lat="37.7520551" lon="-122.4215958">
      </trkpt>
      <trkpt lat="37.7528694" lon="-122.4215431">
      </trkpt>
      <trkpt lat="37.7536576" lon="-122.4215193">
      </trkpt>
      <trkpt lat="37.754466" lon="-122.421477">
      </trkpt>
      <trkpt lat="37.755275" lon="-122.4214357">
      </trkpt>
      <trkpt lat="37.7553033" lon="-122.4209722">
      </trkpt>
      <trkpt lat="37.7553742" lon="-122.4198728">
      </trkpt>
      <trkpt lat="37.7569732" lon="-122.4200211">
      </trkpt>
      <trkpt lat="37.7569933" lon="-122.4196895">
      </trkpt>
      <trkpt lat="37.7570441" lon="-122.4189227">
      </trkpt>
      <trkpt lat="37.7586372" lon="-122.4190752">
      </trkpt>
      <trkpt lat="37.7587064" lon="-122.4179902">
      </trkpt>
      <trkpt lat="37.75721" lon="-122.417846">
      </trkpt>
      <trkpt lat="37.7587064" lon="-122.4179902">
      </trkpt>
      <trkpt lat="37.7587763" lon="-122.4168919">
      </trkpt>
      <trkpt lat="37.7571719" lon="-122.416739">
      </trkpt>
      <trkpt lat="37.7555769" lon="-122.416587">
      </trkpt>
      <trkpt lat="37.753977" lon="-122.4164345">
      </trkpt>
      <trkpt lat="37.7523747" lon="-122.4162818">
      </trkpt>
      <trkpt lat="37.7507783" lon="-122.416129">
      </trkpt>
      <trkpt lat="37.7507448" lon="-122.4166814">
      </trkpt>
      <trkpt lat="37.7522712" lon="-122.416835">
      </trkpt>
      <trkpt lat="37.7507448" lon="-122.4166814">
      </trkpt>
      <trkpt lat="37.7507783" lon="-122.416129">
      </trkpt>
      <trkpt lat="37.7508128" lon="-122.4155588">
      </trkpt>
      <trkpt lat="37.7508444" lon="-122.4150359">
      </trkpt>
      <trkpt lat="37.750876" lon="-122.4145155">
      </trkpt>
      <trkpt lat="37.7509102" lon="-122.4139499">
      </trkpt>
      <trkpt lat="37.7509429" lon="-122.413384">
      </trkpt>
      <trkpt lat="37.7509762" lon="-122.412862">
      </trkpt>
      <trkpt lat="37.7510083" lon="-122.4123323">
      </trkpt>
      <trkpt lat="37.7510425" lon="-122.4117672">
      </trkpt>
      <trkpt lat="37.751099" lon="-122.4108337">
      </trkpt>
      <trkpt lat="37.7526963" lon="-122.4109823">
      </trkpt>
      <trkpt lat="37.7527504" lon="-122.4100892">
      </trkpt>
      <trkpt lat="37.7528057" lon="-122.4091488">
      </trkpt>
      <trkpt lat="37.7544101" lon="-122.4092755">
      </trkpt>
      <trkpt lat="37.7544628" lon="-122.4083607">
      </trkpt>
      <trkpt lat="37.7560605" lon="-122.4085132">
      </trkpt>
      <trkpt lat="37.7561139" lon="-122.4076238">
      </trkpt>
      <trkpt lat="37.7577156" lon="-122.4077731">
      </trkpt>
      <trkpt lat="37.7576615" lon="-122.4086702">
      </trkpt>
      <trkpt lat="37.759259" lon="-122.4088821">
      </trkpt>
      <trkpt lat="37.7605471" lon="-122.4090473">
      </trkpt>
      <trkpt lat="37.7604937" lon="-122.4100144">
      </trkpt>
      <trkpt lat="37.761765" lon="-122.4101411">
      </trkpt>
      <trkpt lat="37.761717" lon="-122.4111233">
      </trkpt>
      <trkpt lat="37.7616536" lon="-122.4120776">
      </trkpt>
      <trkpt lat="37.7616117" lon="-122.4127876">
      </trkpt>
      <trkpt lat="37.7622379" lon="-122.4128492">
      </trkpt>
      <trkpt lat="37.7621664" lon="-122.4139849">
      </trkpt>
      <trkpt lat="37.7621072" lon="-122.4150239">
      </trkpt>
      <trkpt lat="37.7620369" lon="-122.4160992">
      </trkpt>
      <trkpt lat="37.7619709" lon="-122.4171965">
      </trkpt>
      <trkpt lat="37.7619055" lon="-122.418292">
      </trkpt>
      <trkpt lat="37.7618405" lon="-122.4193819">
      </trkpt>
      <trkpt lat="37.7627117" lon="-122.4194651">
      </trkpt>
      <trkpt lat="37.7634379" lon="-122.4195294">
      </trkpt>
      <trkpt lat="37.7633833" lon="-122.4204382">
      </trkpt>
      <trkpt lat="37.7649949" lon="-122.4205971">
      </trkpt>
      <trkpt lat="37.764977" lon="-122.420901">
      </trkpt>
      <trkpt lat="37.7649158" lon="-122.4219057">
      </trkpt>
      <trkpt lat="37.764859" lon="-122.422853">
      </trkpt>
      <trkpt lat="37.7648432" lon="-122.4231196">
      </trkpt>
      <trkpt lat="37.7647936" lon="-122.4240522">
      </trkpt>
      <trkpt lat="37.7647868" lon="-122.4241467">
      </trkpt>
      <trkpt lat="37.7646472" lon="-122.4263255">
      </trkpt>
      <trkpt lat="37.765319" lon="-122.42639">
      </trkpt>
      <trkpt lat="37.7653136" lon="-122.4265396">
      </trkpt>
      <trkpt lat="37.765319" lon="-122.42639">
      </trkpt>
      <trkpt lat="37.7657848" lon="-122.4264346">
      </trkpt>
      <trkpt lat="37.7662713" lon="-122.4264815">
      </trkpt>
      <trkpt lat="37.7662621" lon="-122.4266309">
      </trkpt>
      <trkpt lat="37.7662063" lon="-122.4277453">
      </trkpt>
      <trkpt lat="37.7661423" lon="-122.4287728">
      </trkpt>
      <trkpt lat="37.7661377" lon="-122.4288414">
      </trkpt>
      <trkpt lat="37.7661348" lon="-122.4289006">
      </trkpt>
      <trkpt lat="37.7660703" lon="-122.4299507">
      </trkpt>
      <trkpt lat="37.7660246" lon="-122.4307163">
      </trkpt>
      <trkpt lat="37.7660108" lon="-122.4309628">
      </trkpt>
      <trkpt lat="37.7660052" lon="-122.4310552">
      </trkpt>
      <trkpt lat="37.7668042" lon="-122.4311254">
      </trkpt>
      <trkpt lat="37.7676036" lon="-122.431214">
      </trkpt>
      <trkpt lat="37.7675389" lon="-122.4323165">
      </trkpt>
      <trkpt lat="37.7674715" lon="-122.4334273">
      </trkpt>
      <trkpt lat="37.7673365" lon="-122.4356482">
      </trkpt>
      <trkpt lat="37.767284" lon="-122.4364926">
      </trkpt>
      <trkpt lat="37.7672328" lon="-122.4373166">
      </trkpt>
      <trkpt lat="37.7671766" lon="-122.4382218">
      </trkpt>
      <trkpt lat="37.768823" lon="-122.438517">
      </trkpt>
      <trkpt lat="37.7690296" lon="-122.4383676">
      </trkpt>
      <trkpt lat="37.7708551" lon="-122.440359">
      </trkpt>
      <trkpt lat="37.7717861" lon="-122.4405612">
      </trkpt>
      <trkpt lat="37.7727239" lon="-122.4407508">
      </trkpt>
      <trkpt lat="37.7736417" lon="-122.4409353">
      </trkpt>
      <trkpt lat="37.7745822" lon="-122.441126">
      </trkpt>
      <trkpt lat="37.7755151" lon="-122.4413178">
      </trkpt>
      <trkpt lat="37.775306" lon="-122.4429584">
      </trkpt>
      <trkpt lat="37.7762357" lon="-122.4431449">
      </trkpt>
      <trkpt lat="37.7771153" lon="-122.443321">
      </trkpt>
      <trkpt lat="37.7771765" lon="-122.4432654">
      </trkpt>
      <trkpt lat="37.7772208" lon="-122.443342">
      </trkpt>
      <trkpt lat="37.7781011" lon="-122.443519">
      </trkpt>
      <trkpt lat="37.778308" lon="-122.441883">
      </trkpt>
      <trkpt lat="37.7792716" lon="-122.4420538">
      </trkpt>
      <trkpt lat="37.7798904" lon="-122.44174">
      </trkpt>
      <trkpt lat="37.779706" lon="-122.4426199">
      </trkpt>
      <trkpt lat="37.7795947" lon="-122.443494">
      </trkpt>
      <trkpt lat="37.7794697" lon="-122.4444746">
      </trkpt>
      <trkpt lat="37.7801368" lon="-122.4454603">
      </trkpt>
      <trkpt lat="37.7787549" lon="-122.4460892">
      </trkpt>
      <trkpt lat="37.7786356" lon="-122.4470247">
      </trkpt>
      <trkpt lat="37.7801643" lon="-122.4473335">
      </trkpt>
      <trkpt lat="37.7810734" lon="-122.4475058">
      </trkpt>
      <trkpt lat="37.781313" lon="-122.4456835">
      </trkpt>
      <trkpt lat="37.7813317" lon="-122.4455349">
      </trkpt>
      <trkpt lat="37.7818735" lon="-122.4438512">
      </trkpt>
      <trkpt lat="37.7825695" lon="-122.4444456">
      </trkpt>
      <trkpt lat="37.7827089" lon="-122.4437174">
      </trkpt>
      <trkpt lat="37.7828251" lon="-122.4427926">
      </trkpt>
      <trkpt lat="37.7829602" lon="-122.4428199">
      </trkpt>
      <trkpt lat="37.7828501" lon="-122.4436987">
      </trkpt>
      <trkpt lat="37.7827914" lon="-122.4444723">
      </trkpt>
      <trkpt lat="37.7826078" lon="-122.4458626">
      </trkpt>
      <trkpt lat="37.7825098" lon="-122.4465812">
      </trkpt>
    </trkseg>
  </trk>
</gpx>